"","station","valid","lon","lat","tmpf","dwpf","relh","drct","sknt","p01i","alti","mslp","vsby","gust","skyc1","skyc2","skyc3","skyc4","skyl1","skyl2","skyl3","skyl4","wxcodes","ice_accretion_1hr","ice_accretion_3hr","ice_accretion_6hr","peak_wind_gust","peak_wind_drct","peak_wind_time","feel","metar"
"302","LBB","2001-01-13 20:53:00",-101.8228,33.6636,55.04,17.96,23.06,250,36,NA,29.77,1006.1,6,44,"CLR","   ","   ",NA,NA,NA,NA,NA,"DU",NA,NA,NA,44,250,"2001-01-13 20:52",55.04,"METAR KLBB 132053Z 25036G44KT 6SM DU CLR 13/M08 A2977 RMK AO2 PK WND 25044/2052 SLP061 T01281078 56020"
"303","LBB","2001-01-13 21:53:00",-101.8228,33.6636,53.96,17.06,23.07,260,32,NA,29.78,1006.7,4,40,"CLR","   ","   ",NA,NA,NA,NA,NA,"DU",NA,NA,NA,44,250,"2001-01-13 20:59",53.96,"METAR KLBB 132153Z 26032G40KT 4SM DU CLR 12/M08 A2978 RMK AO2 PK WND 25044/2059 SLP067 T01221083"
"304","LBB","2001-01-13 22:53:00",-101.8228,33.6636,53.06,17.06,23.84,270,28,NA,29.81,1007.9,3,35,"CLR","   ","   ",NA,NA,NA,NA,NA,"BLDU",NA,NA,NA,43,270,"2001-01-13 21:54",53.06,"METAR KLBB 132253Z 27028G35KT 3SM BLDU CLR 12/M08 A2981 RMK AO2 PK WND 27043/2154 SLP079 T01171083"
"305","LBB","2001-01-13 23:53:00",-101.8228,33.6636,51.08,19.04,27.93,280,21,NA,29.84,1009,3,29,"CLR","   ","   ",NA,NA,NA,NA,NA,"BLDU",NA,NA,NA,37,270,"2001-01-13 22:56",51.08,"METAR KLBB 132353Z 28021G29KT 3SM BLDU CLR 11/M07 A2984 RMK AO2 PK WND 27037/2256 SLP090 T01061072 10133 20100 53021"
"1307","LBB","2001-02-24 17:53:00",-101.8228,33.6636,53.96,21.02,27.33,260,33,NA,29.64,1000.9,3,43,"CLR","   ","   ",NA,NA,NA,NA,NA,"BLDU",NA,NA,NA,43,260,"2001-02-24 17:51",53.96,"METAR KLBB 241753Z 26033G43KT 3SM BLDU CLR 12/M06 A2964 RMK AO2 PK WND 26043/1751 SLP009 60000 T01221061 10122 20067 51016"
"1308","LBB","2001-02-24 18:53:00",-101.8228,33.6636,55.94,17.96,22.32,250,37,NA,29.63,1000.6,1,45,"CLR","   ","   ",NA,NA,NA,NA,NA,"BLDU",NA,NA,NA,47,250,"2001-02-24 18:28",55.94,"METAR KLBB 241853Z 25037G45KT 1SM BLDU CLR 13/M08 A2963 RMK AO2 PK WND 25047/1828 SFC VIS 1 1/2 SLP006 T01331078"
"1309","LBB","2001-02-24 19:53:00",-101.8228,33.6636,55.94,15.08,19.7,240,32,NA,29.63,1000.8,0.5,45,"VV ","   ","   ",NA,800,NA,NA,NA,"BLDU",NA,NA,NA,49,260,"2001-02-24 18:54",55.94,"METAR KLBB 241953Z 24032G45KT 1/2SM BLDU VV008 13/M09 A2963 RMK AO2 PK WND 26049/1854 SFC VIS 1 1/2 SLP008 T01331094"
"1310","LBB","2001-02-24 20:53:00",-101.8228,33.6636,55.94,12.92,17.92,260,35,NA,29.65,1001.8,0.5,47,"VV ","   ","   ",NA,800,NA,NA,NA,"BLDU",NA,NA,NA,47,260,"2001-02-24 20:47",55.94,"METAR KLBB 242053Z 26035G47KT 1/2SM BLDU VV008 13/M11 A2965 RMK AO2 PK WND 26047/2047 SFC VIS 1 1/4 SLP018 T01331106 53004"
"1311","LBB","2001-02-24 21:53:00",-101.8228,33.6636,57.02,12.92,17.23,260,33,NA,29.67,1002.4,0.5,45,"VV ","   ","   ",NA,800,NA,NA,NA,"BLDU",NA,NA,NA,46,250,"2001-02-24 21:18",57.02,"METAR KLBB 242153Z 26033G45KT 1/2SM BLDU VV008 14/M11 A2967 RMK AO2 PK WND 25046/2118 SFC VIS 1 1/2 SLP024 T01391106"
"1312","LBB","2001-02-24 22:53:00",-101.8228,33.6636,57.02,10.04,15.16,270,31,NA,29.69,1003.3,0.5,38,"VV ","   ","   ",NA,800,NA,NA,NA,"BLDU",NA,NA,NA,46,250,"2001-02-24 22:25",57.02,"METAR KLBB 242253Z 27031G38KT 1/2SM BLDU VV008 14/M12 A2969 RMK AO2 PK WND 25046/2225 SFC VIS 1 1/4 SLP033 T01391122"
"1313","LBB","2001-02-24 23:53:00",-101.8228,33.6636,55.94,6.98,13.74,260,26,NA,29.73,1004.9,0.5,35,"VV ","   ","   ",NA,1000,NA,NA,NA,"BLDU",NA,NA,NA,42,260,"2001-02-24 23:00",55.94,"METAR KLBB 242353Z 26026G35KT 1/2SM BLDU VV010 13/M14 A2973 RMK AO2 PK WND 26042/2300 SFC VIS 3 SLP049 T01331139 10139 20122 53025"
"1314","LBB","2001-02-25 00:53:00",-101.8228,33.6636,53.06,8.96,16.69,260,20,NA,29.77,1006.4,0.5,NA,"VV ","   ","   ",NA,1400,NA,NA,NA,"BLDU",NA,NA,NA,NA,NA,NA,53.06,"METAR KLBB 250053Z 26020KT 1/2SM BLDU VV014 12/M13 A2977 RMK AO2 PK WND 26034/2354 SFC VIS 5 SLP064 T01171128"
"1315","LBB","2001-02-25 01:53:00",-101.8228,33.6636,48.02,12.02,23.06,260,13,NA,29.82,1008.4,5,NA,"CLR","   ","   ",NA,NA,NA,NA,NA,"BLDU",NA,NA,NA,NA,NA,NA,42.09,"METAR KLBB 250153Z 26013KT 5SM BLDU CLR 09/M11 A2982 RMK AO2 SLP084 T00891111"
"1764","LBB","2001-03-15 18:53:00",-101.8228,33.6636,55.04,19.94,25.1,320,31,NA,29.92,1011.6,6,41,"CLR","   ","   ",NA,NA,NA,NA,NA,"BLDU",NA,NA,NA,41,330,"2001-03-15 18:51",55.04,"METAR KLBB 151853Z 32031G41KT 6SM BLDU CLR 13/M07 A2992 RMK AO2 PK WND 33041/1851 SLP116 T01281067"
"1765","LBB","2001-03-15 19:53:00",-101.8228,33.6636,53.96,21.92,28.39,330,32,NA,29.92,1011.5,6,44,"CLR","   ","   ",NA,NA,NA,NA,NA,"BLDU",NA,NA,NA,44,330,"2001-03-15 19:50",53.96,"METAR KLBB 151953Z 33032G44KT 6SM BLDU CLR 12/M06 A2992 RMK AO2 PK WND 33044/1950 SLP115 T01221056"
"2295","LBB","2001-04-06 20:53:00",-101.8228,33.6636,75.02,62.06,64.07,170,25,NA,29.53,995.1,3,33,"CLR","   ","   ",NA,NA,NA,NA,NA,"BLDU",NA,NA,NA,40,160,"2001-04-06 20:34",75.02,"METAR KLBB 062053Z 17025G33KT 3SM BLDU CLR 24/17 A2953 RMK AO2 PK WND 16040/2034 SLP951 T02390167 56060"
"2296","LBB","2001-04-06 21:53:00",-101.8228,33.6636,77,62.96,61.91,170,34,NA,29.5,994.2,2,43,"CLR","   ","   ",NA,NA,NA,NA,NA,"BLDU",NA,NA,NA,43,150,"2001-04-06 21:46",77,"METAR KLBB 062153Z 17034G43KT 2SM BLDU CLR 25/17 A2950 RMK AO2 PK WND 15043/2146 VIS 1 1/4V3 SLP942 T02500172"
"2297","LBB","2001-04-06 22:53:00",-101.8228,33.6636,69.98,39.02,32.29,260,34,NA,29.62,998.6,1,49,"VV ","   ","   ",NA,600,NA,NA,NA,"BLDU",NA,NA,NA,50,260,"2001-04-06 22:39",69.98,"METAR KLBB 062253Z 26034G49KT 1SM BLDU VV006 21/04 A2962 RMK AO2 PK WND 26050/2239 WSHFT 2217 RAB27E44 SLP986 P0000 T02110039"
"2298","LBB","2001-04-06 23:53:00",-101.8228,33.6636,66.02,35.96,32.81,260,31,NA,29.69,1001.4,0.75,45,"OVC","   ","   ",NA,800,NA,NA,NA,"BLDU",NA,NA,NA,47,250,"2001-04-06 23:24",66.02,"METAR KLBB 062353Z 26031G45KT 3/4SM BLDU OVC008 19/02 A2969 RMK AO2 PK WND 25047/2324 SFC VIS 1 1/2 PRESRR SLP014 60000 T01890022 10250 20189 53051"
"2299","LBB","2001-04-07 00:53:00",-101.8228,33.6636,64.04,23,20.72,270,30,NA,29.72,1002.4,1,38,"BKN","   ","   ",NA,1200,NA,NA,NA,"BLDU",NA,NA,NA,NA,NA,NA,64.04,"METAR KLBB 070053Z 27030G38KT 1SM BLDU BKN012 18/M05 A2972 RMK AO2 PK WND 27039/0013 SFC VIS 3 SLP024 T01781050"
"2300","LBB","2001-04-07 01:53:00",-101.8228,33.6636,60.98,28.94,29.52,270,23,NA,29.76,1004.2,8,31,"FEW","   ","   ",NA,800,NA,NA,NA,"BLDU",NA,NA,NA,NA,NA,NA,60.98,"METAR KLBB 070153Z 27023G31KT 8SM BLDU FEW008 16/M02 A2976 RMK AO2 PK WND 27038/0055 SLP042 T01611017"
"2397","LBB","2001-04-11 02:53:00",-101.8228,33.6636,71.06,30.02,21.74,230,18,NA,29.53,995.6,2.5,NA,"BKN","   ","   ",NA,1800,NA,NA,NA,"BLDU",NA,NA,NA,29,190,"2001-04-11 02:36",68.89,"METAR KLBB 110253Z 23018KT 2 1/2SM BLDU BKN018 22/M01 A2953 RMK AO2 PK WND 19029/0236 WSHFT 0220 TWR VIS 3 SLP956 T02171011 53018 $"
"2398","LBB","2001-04-11 03:53:00",-101.8228,33.6636,66.92,23,18.74,230,20,NA,29.57,997,5,26,"OVC","   ","   ",NA,2000,NA,NA,NA,"BLDU",NA,NA,NA,30,220,"2001-04-11 03:24",66.92,"METAR KLBB 110353Z 23020G26KT 5SM BLDU OVC020 19/M05 A2957 RMK AO2 PK WND 22030/0324 SLP970 T01941050 $"
"2411","LBB","2001-04-11 17:53:00",-101.8228,33.6636,64.04,19.04,17.52,270,30,NA,29.69,1002.3,6,40,"CLR","   ","   ",NA,NA,NA,NA,NA,"BLDU",NA,NA,NA,NA,NA,NA,64.04,"METAR KLBB 111753Z 27030G40KT 6SM BLDU CLR 18/M07 A2969 RMK AO2 SLP023 T01781072 10183 20061 53004"
"2675","LBB","2001-04-22 17:53:00",-101.8228,33.6636,66.92,17.96,15.13,230,30,NA,29.85,1006.7,2,41,"FEW","   ","   ",NA,1700,NA,NA,NA,"BLDU",NA,NA,NA,NA,NA,NA,66.92,"METAR KLBB 221753Z 23030G41KT 2SM BLDU FEW017 19/M08 A2985 RMK AO2 PK WND 24044/1737 SFC VIS 5 SLP067 60000 T01941078 10194 20161 50008"
"2676","LBB","2001-04-22 18:53:00",-101.8228,33.6636,69.08,15.98,12.89,230,34,NA,29.83,1005.8,2,48,"CLR","   ","   ",NA,NA,NA,NA,NA,"BLDU",NA,NA,NA,NA,NA,NA,69.08,"METAR KLBB 221853Z 23034G48KT 2SM BLDU CLR 21/M09 A2983 RMK AO2 PK WND 24048/1848 SFC VIS 5 SLP058 T02061089"
"2677","LBB","2001-04-22 19:53:00",-101.8228,33.6636,69.98,17.06,13.1,250,34,NA,29.84,1006.2,2,44,"CLR","   ","   ",NA,NA,NA,NA,NA,"BLDU",NA,NA,NA,NA,NA,NA,69.98,"METAR KLBB 221953Z 25034G44KT 2SM BLDU CLR 21/M08 A2984 RMK AO2 PK WND 26049/1927 SFC VIS 4 SLP062 T02111083"
"3361","LBB","2001-05-21 07:53:00",-101.8228,33.6636,53.96,46.94,77.06,360,34,NA,29.8,1004.9,6,48,"CLR","   ","   ",NA,NA,NA,NA,NA,"BLDU",NA,NA,NA,NA,NA,NA,53.96,"METAR KLBB 210753Z COR 36034G48KT 6SM BLDU CLR 12/08 A2980 RMK AO2 PK WND 35048/0744 WSHFT 0711 FROPA SLP049 T01220083"
"3596","LBB","2001-05-31 02:53:00",-101.8228,33.6636,75.92,55.04,48.34,40,40,NA,29.9,1007.6,1.5,48,"FEW","   ","   ",NA,5500,NA,NA,NA,"-TSRA BLDU",NA,NA,NA,48,40,"2001-05-31 02:51",75.92,"METAR KLBB 310253Z 04040G48KT 1 1/2SM -TSRA BLDU FEW055 24/13 A2990 RMK AO2 PK WND 04048/0251 TSB37RAB50 SLP076 CONS LTGIC W-NW-N TS W-NW-N MOV SE P0000 60000 T02440128 58002"
"3905","LBB","2001-06-12 23:53:00",-101.8228,33.6636,95,42.08,16.15,250,22,NA,29.66,998.1,5,NA,"CLR","   ","   ",NA,NA,NA,NA,NA,"BLDU",NA,NA,NA,32,250,"2001-06-12 23:42",90.79,"METAR KLBB 122353Z 25022KT 5SM BLDU CLR 35/06 A2966 RMK AO2 PK WND 25032/2342 WSHFT 2314 SLP981 T03500056 10406 20350 58003"
"3907","LBB","2001-06-13 01:53:00",-101.8228,33.6636,91.94,39.02,15.77,200,11,NA,29.64,997.3,9,19,"CLR","   ","   ",NA,NA,NA,NA,NA,"BLDU",NA,NA,NA,NA,NA,NA,87.77,"METAR KLBB 130153Z 20011G19KT 9SM BLDU CLR 33/04 A2964 RMK AO2 SLP973 T03330039"
"3920","LBB","2001-06-13 14:53:00",-101.8228,33.6636,84.02,57.92,41.15,200,27,NA,29.71,999.5,5,32,"CLR","   ","   ",NA,NA,NA,NA,NA,"BLDU",NA,NA,NA,32,200,"2001-06-13 14:52",83.49,"METAR KLBB 131453Z 20027G32KT 5SM BLDU CLR 29/14 A2971 RMK AO2 PK WND 20032/1452 SLP995 T02890144 50007"
"6895","LBB","2001-10-15 14:53:00",-101.8228,33.6636,60.98,33.08,34.91,10,28,NA,30.15,1017.8,3,38,"CLR","   ","   ",NA,NA,NA,NA,NA,"BLDU",NA,NA,NA,38,350,"2001-10-15 14:48",60.98,"METAR KLBB 151453Z COR 01028G38KT 3SM BLDU CLR 16/01 A3015 RMK AO2 PK WND 35038/1448 SFC VIS 4 SLP178 T01610006 53052"
"6896","LBB","2001-10-15 15:53:00",-101.8228,33.6636,60.98,35.06,37.78,350,21,NA,30.19,1019.6,3,34,"CLR","   ","   ",NA,NA,NA,NA,NA,"BLDU",NA,NA,NA,40,350,"2001-10-15 15:08",60.98,"METAR KLBB 151553Z 35021G34KT 3SM BLDU CLR 16/02 A3019 RMK AO2 PK WND 35040/1508 SFC VIS 6 SLP196 T01610017"
"9213","LBB","2002-01-20 18:53:00",-101.8228,33.6636,60.08,5,10.82,260,26,NA,29.75,1005.7,6,37,"CLR","   ","   ",NA,NA,NA,NA,NA,"BLDU",NA,NA,NA,NA,NA,NA,60.08,"METAR KLBB 201853Z 26026G37KT 6SM BLDU CLR 16/M15 A2975 RMK AO2 PK WND 28037/1851 SLP057 T01561150"
"9214","LBB","2002-01-20 19:53:00",-101.8228,33.6636,59,3.02,10.27,280,30,NA,29.75,1005.7,5,39,"CLR","   ","   ",NA,NA,NA,NA,NA,"BLDU",NA,NA,NA,NA,NA,NA,59,"METAR KLBB 201953Z 28030G39KT 5SM BLDU CLR 15/M16 A2975 RMK AO2 PK WND 27039/1949 SLP057 T01501161"
"9215","LBB","2002-01-20 20:53:00",-101.8228,33.6636,57.92,6.98,12.79,260,32,NA,29.76,1006,4,42,"CLR","   ","   ",NA,NA,NA,NA,NA,"BLDU",NA,NA,NA,NA,NA,NA,57.92,"METAR KLBB 202053Z 26032G42KT 4SM BLDU CLR 14/M14 A2976 RMK AO2 PK WND 28043/1954 SLP060 T01441139 55005"
"9216","LBB","2002-01-20 21:53:00",-101.8228,33.6636,55.94,8.06,14.43,270,30,NA,29.79,1007.2,5,41,"CLR","   ","   ",NA,NA,NA,NA,NA,"BLDU",NA,NA,NA,NA,NA,NA,55.94,"METAR KLBB 202153Z 27030G41KT 5SM BLDU CLR 13/M13 A2979 RMK AO2 PK WND 25045/2056 SLP072 T01331133"
"9217","LBB","2002-01-20 22:53:00",-101.8228,33.6636,53.96,8.96,16.15,280,24,NA,29.81,1008.2,8,35,"CLR","   ","   ",NA,NA,NA,NA,NA,"BLDU",NA,NA,NA,NA,NA,NA,53.96,"METAR KLBB 202253Z 28024G35KT 8SM BLDU CLR 12/M13 A2981 RMK AO2 PK WND 27038/2158 SLP082 T01221128"
"10349","LBB","2002-03-08 21:53:00",-101.8228,33.6636,77,21.02,12.25,220,30,NA,29.62,998.7,5,36,"CLR","   ","   ",NA,NA,NA,NA,NA,"BLDU",NA,NA,NA,38,200,"2002-03-08 21:32",74.98,"METAR KLBB 082153Z 22030G36KT 5SM BLDU CLR 25/M06 A2962 RMK AO2 PK WND 20038/2132 SLP987 T02501061"
"10350","LBB","2002-03-08 22:53:00",-101.8228,33.6636,75.02,21.92,13.6,220,25,NA,29.63,999.3,6,33,"CLR","   ","   ",NA,NA,NA,NA,NA,"BLDU",NA,NA,NA,35,220,"2002-03-08 22:28",72.86,"METAR KLBB 082253Z 22025G33KT 6SM BLDU CLR 24/M06 A2963 RMK AO2 PK WND 22035/2228 SLP993 T02391056"
"10423","LBB","2002-03-11 20:53:00",-101.8228,33.6636,68,15.98,13.38,350,24,NA,29.85,1008,6,33,"FEW","   ","   ",NA,10000,NA,NA,NA,"BLDU",NA,NA,NA,38,350,"2002-03-11 20:27",68,"METAR KLBB 112053Z 35024G33KT 6SM BLDU FEW100 20/M09 A2985 RMK AO2 PK WND 35038/2027 SLP080 T02001089 53008"
"10424","LBB","2002-03-11 21:53:00",-101.8228,33.6636,66.02,15.98,14.33,350,32,NA,29.89,1009.8,5,36,"FEW","   ","   ",NA,10000,NA,NA,NA,"BLDU",NA,NA,NA,37,350,"2002-03-11 21:18",66.02,"METAR KLBB 112153Z 35032G36KT 5SM BLDU FEW100 19/M09 A2989 RMK AO2 PK WND 35037/2118 SLP098 T01891089"
"10425","LBB","2002-03-11 22:53:00",-101.8228,33.6636,64.94,21.02,18.47,340,27,NA,29.94,1011.7,6,35,"FEW","   ","   ",NA,11000,NA,NA,NA,"BLDU",NA,NA,NA,40,360,"2002-03-11 22:02",64.94,"METAR KLBB 112253Z 34027G35KT 6SM BLDU FEW110 18/M06 A2994 RMK AO2 PK WND 36040/2202 SLP117 T01831061"
"11652","LBB","2002-05-01 17:53:00",-101.8228,33.6636,87.98,37.94,17.12,240,29,NA,29.71,1000.4,6,38,"CLR","   ","   ",NA,NA,NA,NA,NA,"BLDU",NA,NA,NA,43,230,"2002-05-01 17:09",84.33,"METAR KLBB 011753Z 24029G38KT 6SM BLDU CLR 31/03 A2971 RMK AO2 PK WND 23043/1709 SLP004 T03110033 10311 20150 56012"
"13011","LBB","2002-06-27 05:53:00",-101.8228,33.6636,71.06,59,65.67,270,32,NA,30.14,1015.3,6,40,"FEW","SCT","BKN",NA,3600,6000,8500,NA,"TS BLDU",NA,NA,NA,40,280,"2002-06-27 05:53",71.06,"METAR KLBB 270553Z COR 27032G40KT 6SM TS BLDU FEW036 SCT060 BKN085CB 22/15 A3014 RMK AO2 PK WND 28040/0553 TSB52RAB0459E10 SLP153 FRQ LTGICCG S-SW-W-NW AND DSNT NE-E TS SW-W-NW MOV E CB DSNT NE-E MOV S P0000 60000 T02170150 10344"
"16262","LBB","2002-11-09 17:53:00",-101.8228,33.6636,75.02,42.08,30.66,260,34,NA,29.66,1000.5,9,41,"CLR","   ","   ",NA,NA,NA,NA,NA,"BLDU",NA,NA,NA,44,250,"2002-11-09 17:36",73.66,"METAR KLBB 091753Z 26034G41KT 9SM BLDU CLR 24/06 A2966 RMK AO2 PK WND 25044/1736 SLP005 T02390056 10239 20111 58010"
"16263","LBB","2002-11-09 18:53:00",-101.8228,33.6636,78.08,42.08,27.7,260,33,NA,29.63,999,9,42,"CLR","   ","   ",NA,NA,NA,NA,NA,"BLDU",NA,NA,NA,43,260,"2002-11-09 18:09",76.89,"METAR KLBB 091853Z 26033G42KT 9SM BLDU CLR 26/06 A2963 RMK AO2 PK WND 26043/1809 SLP990 T02560056"
"16264","LBB","2002-11-09 19:53:00",-101.8228,33.6636,78.08,39.92,25.48,260,31,NA,29.62,998.7,9,45,"CLR","   ","   ",NA,NA,NA,NA,NA,"BLDU",NA,NA,NA,45,260,"2002-11-09 19:47",76.79,"METAR KLBB 091953Z 26031G45KT 9SM BLDU CLR 26/04 A2962 RMK AO2 PK WND 26045/1947 SLP987 T02560044"
"16265","LBB","2002-11-09 20:53:00",-101.8228,33.6636,78.08,39.92,25.48,270,28,NA,29.61,998.7,10,37,"CLR","   ","   ",NA,NA,NA,NA,NA,"BLDU",NA,NA,NA,44,270,"2002-11-09 20:07",76.79,"METAR KLBB 092053Z 27028G37KT 10SM BLDU CLR 26/04 A2961 RMK AO2 PK WND 27044/2007 SLP987 T02560044 56015"
"16266","LBB","2002-11-09 21:53:00",-101.8228,33.6636,77,39.92,26.4,250,26,NA,29.61,998.7,10,38,"CLR","   ","   ",NA,NA,NA,NA,NA,"BLDU",NA,NA,NA,42,250,"2002-11-09 21:12",75.64,"METAR KLBB 092153Z 25026G38KT 10SM BLDU CLR 25/04 A2961 RMK AO2 PK WND 25042/2112 SLP987 T02500044"
"16267","LBB","2002-11-09 22:53:00",-101.8228,33.6636,75.92,39.92,27.37,250,26,NA,29.61,998.9,10,32,"CLR","   ","   ",NA,NA,NA,NA,NA,"BLDU",NA,NA,NA,37,250,"2002-11-09 22:25",74.5,"METAR KLBB 092253Z 25026G32KT 10SM BLDU CLR 24/04 A2961 RMK AO2 PK WND 25037/2225 SLP989 T02440044"
"17540","LBB","2003-01-01 18:53:00",-101.8228,33.6636,53.96,26.06,33.76,300,32,NA,29.8,1007.6,6,40,"SCT","   ","   ",NA,6000,NA,NA,NA,"BLDU",NA,NA,NA,NA,NA,NA,53.96,"METAR KLBB 011853Z 30032G40KT 6SM BLDU SCT060 12/M03 A2980 RMK AO2 PK WND 29046/1811 SLP076 T01221033"
"17541","LBB","2003-01-01 19:53:00",-101.8228,33.6636,53.06,26.96,36.22,300,38,NA,29.81,1008.4,4,49,"BKN","   ","   ",NA,6000,NA,NA,NA,"BLDU",NA,NA,NA,NA,NA,NA,53.06,"METAR KLBB 011953Z 30038G49KT 4SM BLDU BKN060 12/M03 A2981 RMK AO2 PK WND 29049/1944 SLP084 T01171028"
"17542","LBB","2003-01-01 20:53:00",-101.8228,33.6636,42.98,24.08,46.91,320,36,NA,29.9,1012.3,5,47,"SCT","   ","   ",NA,6000,NA,NA,NA,"BLDU",NA,NA,NA,NA,NA,NA,30.89,"METAR KLBB 012053Z 32036G47KT 5SM BLDU SCT060 06/M04 A2990 RMK AO2 PK WND 31047/2047 PRESRR SLP123 T00611044 53029"
"18310","LBB","2003-02-02 21:53:00",-101.8228,33.6636,78.98,30.92,17.3,220,29,NA,29.6,999,6,36,"CLR","   ","   ",NA,NA,NA,NA,NA,"BLDU",NA,NA,NA,41,210,"2003-02-02 21:15",77.39,"METAR KLBB 022153Z COR 22029G36KT 6SM BLDU CLR 26/M01 A2960 RMK AO2 PK WND 21041/2115 SLP990 T02611006"
"18807","LBB","2003-02-23 14:53:00",-101.8228,33.6636,41,26.96,57.06,320,32,NA,29.8,1007.4,8,39,"SCT","   ","   ",NA,2700,NA,NA,NA,"BLDU",NA,NA,NA,NA,NA,NA,28.74,"METAR KLBB 231453Z 32032G39KT 8SM BLDU SCT027 05/M03 A2980 RMK AO2 PK WND 32039/1453 PRESRR SLP074 T00501028 53050"
"19339","LBB","2003-03-17 18:53:00",-101.8228,33.6636,71.96,24.08,16.5,210,30,NA,29.47,993.7,9,35,"FEW","   ","   ",NA,10000,NA,NA,NA,"BLDU",NA,NA,NA,39,210,"2003-03-17 18:39",69.63,"METAR KLBB 171853Z 21030G35KT 9SM BLDU FEW100 22/M04 A2947 RMK AO2 PK WND 21039/1839 SLP937 T02221044"
"19340","LBB","2003-03-17 19:53:00",-101.8228,33.6636,71.96,24.98,17.14,230,28,NA,29.44,992.6,9,37,"FEW","   ","   ",NA,10000,NA,NA,NA,"BLDU",NA,NA,NA,40,220,"2003-03-17 19:29",69.66,"METAR KLBB 171953Z 23028G37KT 9SM BLDU FEW100 22/M04 A2944 RMK AO2 PK WND 22040/1929 SLP926 T02221039"
"19341","LBB","2003-03-17 20:53:00",-101.8228,33.6636,71.96,26.06,17.92,210,29,NA,29.42,991.9,9,37,"FEW","   ","   ",NA,10000,NA,NA,NA,"BLDU",NA,NA,NA,41,210,"2003-03-17 19:58",69.7,"METAR KLBB 172053Z 21029G37KT 9SM BLDU FEW100 22/M03 A2942 RMK AO2 PK WND 21041/1958 SLP919 T02221033 56025"
"19342","LBB","2003-03-17 21:53:00",-101.8228,33.6636,71.06,26.96,19.18,210,23,NA,29.4,991.4,9,40,"FEW","   ","   ",NA,10000,NA,NA,NA,"BLDU",NA,NA,NA,44,200,"2003-03-17 21:09",68.77,"METAR KLBB 172153Z 21023G40KT 9SM BLDU FEW100 22/M03 A2940 RMK AO2 PK WND 20044/2109 SLP914 T02171028"
"19343","LBB","2003-03-17 22:53:00",-101.8228,33.6636,69.98,24.98,18.33,210,31,NA,29.37,990.5,9,37,"FEW","   ","   ",NA,10000,NA,NA,NA,"BLDU",NA,NA,NA,40,210,"2003-03-17 22:15",69.98,"METAR KLBB 172253Z 21031G37KT 9SM BLDU FEW100 21/M04 A2937 RMK AO2 PK WND 21040/2215 SLP905 T02111039"
"19344","LBB","2003-03-17 23:53:00",-101.8228,33.6636,66.92,21.02,17.24,200,31,NA,29.39,991.3,10,35,"CLR","   ","   ",NA,NA,NA,NA,NA,"BLDU",NA,NA,NA,39,210,"2003-03-17 22:58",66.92,"METAR KLBB 172353Z 20031G35KT 10SM BLDU CLR 19/M06 A2939 RMK AO2 PK WND 21039/2258 SLP913 T01941061 10228 20194 55010"
"20035","LBB","2003-04-15 19:53:00",-101.8228,33.6636,80.96,50,34.01,170,31,NA,29.66,999.3,7,40,"SCT","BKN","   ",NA,7000,20000,NA,NA,"BLDU",NA,NA,NA,40,170,"2003-04-15 19:53",80.96,"METAR KLBB 151953Z 17031G40KT 7SM BLDU SCT070 BKN200 27/10 A2966 RMK AO2 PK WND 17040/1953 SLP993 T02720100 $"
"20036","LBB","2003-04-15 20:53:00",-101.8228,33.6636,82.94,46.94,28.44,180,35,NA,29.58,996.6,3,44,"SCT","BKN","   ",NA,7000,20000,NA,NA,"BLDU",NA,NA,NA,47,170,"2003-04-15 20:25",81.04,"METAR KLBB 152053Z 18035G44KT 3SM BLDU SCT070 BKN200 28/08 A2958 RMK AO2 PK WND 17047/2025 SLP966 T02830083 58064"
"20037","LBB","2003-04-15 21:53:00",-101.8228,33.6636,80.06,48.92,33.65,180,41,NA,29.52,994.6,3,51,"SCT","BKN","   ",NA,7500,20000,NA,NA,"BLDU",NA,NA,NA,51,160,"2003-04-15 21:51",80.06,"METAR KLBB 152153Z 18041G51KT 3SM BLDU SCT075 BKN200 27/09 A2952 RMK AO2 PK WND 16051/2151 SLP946 T02670094"
"20038","LBB","2003-04-15 22:53:00",-101.8228,33.6636,77,51.98,41.69,170,33,0.03,29.48,993.4,4,43,"FEW","BKN","   ",NA,1100,2000,NA,NA,"BLDU",NA,NA,NA,52,190,"2003-04-15 22:09",77,"METAR KLBB 152253Z 17033G43KT 4SM BLDU FEW011 BKN020 25/11 A2948 RMK AO2 PK WND 19052/2209 TSB12E30RAB01E33 SLP934 TS MOV NE P0003 T02500111"
"20039","LBB","2003-04-15 23:53:00",-101.8228,33.6636,75.02,26.96,16.78,230,41,NA,29.56,996.7,0.5,52,"OVC","   ","   ",NA,300,NA,NA,NA,"BLDU",NA,NA,NA,52,230,"2003-04-15 23:53",73.01,"METAR KLBB 152353Z 23041G52KT 1/2SM BLDU OVC003 24/M03 A2956 RMK AO2 PK WND 23052/2353 WSHFT 2302 TWR VIS 3/4 TSB2257E18RAB2258E09 SLP967 TS MOV NE P0000 60003 T02391028 10289 20217 55006"
"20040","LBB","2003-04-16 00:53:00",-101.8228,33.6636,68,33.98,28.32,250,31,NA,29.64,999.7,0.5,51,"OVC","   ","   ",NA,400,NA,NA,NA,"BLDU",NA,NA,NA,58,240,"2003-04-16 00:09",68,"METAR KLBB 160053Z 25031G51KT 1/2SM BLDU OVC004 20/01 A2964 RMK AO2 PK WND 24058/0009 SFC VIS 1 SLP997 T02000011"
"20042","LBB","2003-04-16 02:53:00",-101.8228,33.6636,60.08,17.96,19.23,240,17,NA,29.72,1002.7,6,NA,"SCT","SCT","   ",NA,1000,20000,NA,NA,"BLDU",NA,NA,NA,31,260,"2003-04-16 02:01",60.08,"METAR KLBB 160253Z 24017KT 6SM BLDU SCT010 SCT200 16/M08 A2972 RMK AO2 PK WND 26031/0201 SLP027 T01561078 51048"
"20046","LBB","2003-04-16 06:53:00",-101.8228,33.6636,55.94,21.02,25.43,250,29,NA,29.73,1002.5,4,41,"SCT","   ","   ",NA,1000,NA,NA,NA,"BLDU",NA,NA,NA,41,260,"2003-04-16 06:51",55.94,"METAR KLBB 160653Z 25029G41KT 4SM BLDU SCT010 13/M06 A2973 RMK AO2 PK WND 26041/0651 SLP025 T01331061"
"20047","LBB","2003-04-16 07:53:00",-101.8228,33.6636,55.94,23,27.65,270,37,NA,29.71,1001.8,2.5,48,"SCT","   ","   ",NA,1000,NA,NA,NA,"BLDU",NA,NA,NA,48,260,"2003-04-16 07:51",55.94,"METAR KLBB 160753Z 27037G48KT 2 1/2SM BLDU SCT010 13/M05 A2971 RMK AO2 PK WND 26048/0751 SLP018 T01331050"
"20048","LBB","2003-04-16 08:53:00",-101.8228,33.6636,55.04,24.08,29.89,260,35,NA,29.71,1001.9,2,44,"BKN","   ","   ",NA,800,NA,NA,NA,"BLDU",NA,NA,NA,49,260,"2003-04-16 08:09",55.04,"METAR KLBB 160853Z 26035G44KT 2SM BLDU BKN008 13/M04 A2971 RMK AO2 PK WND 26049/0809 SLP019 BKN LYR THN T01281044 55006"
"20049","LBB","2003-04-16 09:53:00",-101.8228,33.6636,53.96,24.98,32.28,260,32,NA,29.73,1002.6,6,39,"CLR","   ","   ",NA,NA,NA,NA,NA,"BLDU",NA,NA,NA,43,260,"2003-04-16 09:04",53.96,"METAR KLBB 160953Z 26032G39KT 6SM BLDU CLR 12/M04 A2973 RMK AO2 PK WND 26043/0904 SLP026 T01221039"
"20050","LBB","2003-04-16 10:53:00",-101.8228,33.6636,53.96,24.98,32.28,270,25,NA,29.75,1003.5,8,33,"CLR","   ","   ",NA,NA,NA,NA,NA,"BLDU",NA,NA,NA,38,270,"2003-04-16 10:21",53.96,"METAR KLBB 161053Z 27025G33KT 8SM BLDU CLR 12/M04 A2975 RMK AO2 PK WND 27038/1021 SLP035 T01221039"
"20224","LBB","2003-04-23 18:53:00",-101.8228,33.6636,77,24.08,13.94,240,26,NA,29.65,999.9,2.5,36,"CLR","   ","   ",NA,NA,NA,NA,NA,"BLDU",NA,NA,NA,39,240,"2003-04-23 18:40",75.06,"METAR KLBB 231853Z 24026G36KT 2 1/2SM BLDU CLR 25/M04 A2965 RMK AO2 PK WND 24039/1840 SLP999 SKY PTLY OBSCD T02501044"
"20225","LBB","2003-04-23 19:53:00",-101.8228,33.6636,75.92,17.96,11.15,250,27,NA,29.65,999.9,6,33,"FEW","   ","   ",NA,12000,NA,NA,NA,"BLDU",NA,NA,NA,40,240,"2003-04-23 18:58",73.74,"METAR KLBB 231953Z 25027G33KT 6SM BLDU FEW120 24/M08 A2965 RMK AO2 PK WND 24040/1858 SLP999 T02441078"
"20244","LBB","2003-04-24 14:53:00",-101.8228,33.6636,64.94,30.02,26.84,270,29,NA,29.7,1001.7,6,35,"CLR","   ","   ",NA,NA,NA,NA,NA,"BLDU",NA,NA,NA,40,260,"2003-04-24 14:40",64.94,"METAR KLBB 241453Z 27029G35KT 6SM BLDU CLR 18/M01 A2970 RMK AO2 PK WND 26040/1440 SLP017 T01831011 51006"
"20245","LBB","2003-04-24 15:53:00",-101.8228,33.6636,68,30.02,24.14,270,27,NA,29.69,1001.8,6,35,"CLR","   ","   ",NA,NA,NA,NA,NA,"BLDU",NA,NA,NA,41,270,"2003-04-24 14:54",68,"METAR KLBB 241553Z 27027G35KT 6SM BLDU CLR 20/M01 A2969 RMK AO2 PK WND 27041/1454 SLP018 T02001011"
"20246","LBB","2003-04-24 16:53:00",-101.8228,33.6636,71.06,30.02,21.74,280,24,NA,29.71,1002.3,8,31,"CLR","   ","   ",NA,NA,NA,NA,NA,"BLDU",NA,NA,NA,36,280,"2003-04-24 15:55",68.89,"METAR KLBB 241653Z 28024G31KT 8SM BLDU CLR 22/M01 A2971 RMK AO2 PK WND 28036/1555 SLP023 T02171011"
"20578","LBB","2003-05-08 18:53:00",-101.8228,33.6636,86,24.98,10.8,240,28,NA,29.74,1001.6,7,36,"OVC","   ","   ",NA,20000,NA,NA,NA,"BLDU",NA,NA,NA,36,250,"2003-05-08 18:51",82.27,"METAR KLBB 081853Z 24028G36KT 7SM BLDU OVC200 30/M04 A2974 RMK AO2 PK WND 25036/1851 SLP016 T03001039"
"20579","LBB","2003-05-08 19:53:00",-101.8228,33.6636,86,24.08,10.4,250,29,NA,29.74,1001.5,7,36,"OVC","   ","   ",NA,20000,NA,NA,NA,"BLDU",NA,NA,NA,42,250,"2003-05-08 19:08",82.21,"METAR KLBB 081953Z 25029G36KT 7SM BLDU OVC200 30/M04 A2974 RMK AO2 PK WND 25042/1908 SLP015 T03001044"
"20580","LBB","2003-05-08 20:53:00",-101.8228,33.6636,84.02,23,10.59,240,25,NA,29.74,1001.5,7,37,"BKN","OVC","   ",NA,15000,20000,NA,NA,"BLDU",NA,NA,NA,40,240,"2003-05-08 19:58",80.76,"METAR KLBB 082053Z 24025G37KT 7SM BLDU BKN150 OVC200 29/M05 A2974 RMK AO2 PK WND 24040/1958 SLP015 T02891050 56003"
"21709","LBB","2003-06-24 23:53:00",-101.8228,33.6636,86,66.02,51.4,150,27,NA,29.85,1004.9,4,NA,"SCT","BKN","   ",NA,6000,25000,NA,NA,"TS BLDU",NA,NA,NA,37,150,"2003-06-24 23:43",88.29,"METAR KLBB 242353Z 15027KT 4SM TS BLDU SCT060CB BKN250 30/19 A2985 RMK AO2 PK WND 15037/2343 TSB47 SLP049 FRQ LTGIC OHD TS OHD MOV NE T03000189 10344 20294 58005"
"24649","LBB","2003-10-25 14:53:00",-101.8228,33.6636,51.98,21.02,29.39,30,23,NA,30.24,1021.7,7,35,"FEW","SCT","   ",NA,14000,25000,NA,NA,"BLDU",NA,NA,NA,35,30,"2003-10-25 14:47",51.98,"METAR KLBB 251453Z 03023G35KT 7SM BLDU FEW140 SCT250 11/M06 A3024 RMK AO2 PK WND 03035/1447 SLP217 T01111061 53025"
"24650","LBB","2003-10-25 15:53:00",-101.8228,33.6636,55.04,17.96,23.06,40,26,NA,30.26,1022.3,5,40,"SCT","   ","   ",NA,25000,NA,NA,NA,"BLDU",NA,NA,NA,40,40,"2003-10-25 15:46",55.04,"METAR KLBB 251553Z 04026G40KT 5SM BLDU SCT250 13/M08 A3026 RMK AO2 PK WND 04040/1546 SLP223 T01281078"
"25730","LBB","2003-12-09 18:53:00",-101.8228,33.6636,39.92,21.02,46.41,330,31,NA,30.01,1015.2,4,42,"OVC","   ","   ",NA,3700,NA,NA,NA,"BLDU",NA,NA,NA,45,330,"2003-12-09 18:07",27.42,"METAR KLBB 091853Z 33031G42KT 4SM BLDU OVC037 04/M06 A3001 RMK AO2 PK WND 33045/1807 SLP152 T00441061"
"25731","LBB","2003-12-09 19:53:00",-101.8228,33.6636,41,21.02,44.51,330,34,NA,29.99,1014.6,3,41,"BKN","   ","   ",NA,4100,NA,NA,NA,"BLDU",NA,NA,NA,43,330,"2003-12-09 19:24",28.42,"METAR KLBB 091953Z 33034G41KT 3SM BLDU BKN041 05/M06 A2999 RMK AO2 PK WND 33043/1924 SLP146 T00501061"
"25732","LBB","2003-12-09 20:53:00",-101.8228,33.6636,44.06,21.02,39.57,340,32,NA,30.01,1015,6,38,"FEW","   ","   ",NA,4600,NA,NA,NA,"BLDU",NA,NA,NA,47,320,"2003-12-09 20:29",32.97,"METAR KLBB 092053Z 34032G38KT 6SM BLDU FEW046 07/M06 A3001 RMK AO2 PK WND 32047/2029 SLP150 T00671061 55000"
"25872","LBB","2003-12-15 16:53:00",-101.8228,33.6636,55.04,21.02,26.28,270,32,NA,29.72,1003.9,5,38,"BKN","BKN","   ",NA,20000,25000,NA,NA,"BLDU",NA,NA,NA,NA,NA,NA,55.04,"METAR KLBB 151653Z 27032G38KT 5SM BLDU BKN200 BKN250 13/M06 A2972 RMK AO2 PK WND 26038/1653 SLP039 T01281061"
"25873","LBB","2003-12-15 17:53:00",-101.8228,33.6636,55.04,10.04,16.29,270,32,NA,29.71,1003.7,2,38,"BKN","OVC","   ",NA,20000,25000,NA,NA,"BLDU",NA,NA,NA,NA,NA,NA,55.04,"METAR KLBB 151753Z 27032G38KT 2SM BLDU BKN200 OVC250 13/M12 A2971 RMK AO2 PK WND 27040/1714 SLP037 T01281122 10150 20072 50018"
"25874","LBB","2003-12-15 18:53:00",-101.8228,33.6636,53.06,1.04,11.61,270,37,NA,29.68,1003,0.5,45,"VV ","   ","   ",NA,400,NA,NA,NA,"BLDU",NA,NA,NA,NA,NA,NA,53.06,"METAR KLBB 151853Z 27037G45KT 1/2SM BLDU VV004 12/M17 A2968 RMK AO2 PK WND 27048/1813 SLP030 T01171172"
"25875","LBB","2003-12-15 19:53:00",-101.8228,33.6636,51.98,6.98,15.88,270,37,NA,29.69,1003.3,0.25,45,"VV ","   ","   ",NA,400,NA,NA,NA,"BLDU",NA,NA,NA,NA,NA,NA,51.98,"METAR KLBB 151953Z 27037G45KT 1/4SM BLDU VV004 11/M14 A2969 RMK AO2 PK WND 26054/1858 TWR VIS 1/2 RAB1859E09 SLP033 P0000 T01111139"
"25876","LBB","2003-12-15 20:53:00",-101.8228,33.6636,51.98,12.02,19.9,270,37,NA,29.72,1004.4,0.5,44,"VV ","   ","   ",NA,400,NA,NA,NA,"BLDU",NA,NA,NA,NA,NA,NA,51.98,"METAR KLBB 152053Z 27037G44KT 1/2SM BLDU VV004 11/M11 A2972 RMK AO2 PK WND 26047/2037 SLP044 60000 T01111111 53002"
"25877","LBB","2003-12-15 21:53:00",-101.8228,33.6636,51.08,15.98,24.48,290,33,NA,29.75,1005.3,0.5,46,"VV ","   ","   ",NA,400,NA,NA,NA,"BLDU",NA,NA,NA,NA,NA,NA,51.08,"METAR KLBB 152153Z 29033G46KT 1/2SM BLDU VV004 11/M09 A2975 RMK AO2 PK WND 27049/2106 SLP053 T01061089"
"25878","LBB","2003-12-15 22:53:00",-101.8228,33.6636,42.98,26.06,50.94,340,30,NA,29.84,1008.9,2,39,"SCT","BKN","   ",NA,3000,5000,NA,NA,"BLDU",NA,NA,NA,NA,NA,NA,31.8,"METAR KLBB 152253Z 34030G39KT 2SM BLDU SCT030 BKN050 06/M03 A2984 RMK AO2 PK WND 28052/2213 PRESRR SLP089 T00611033"
"26141","LBB","2003-12-26 19:53:00",-101.8228,33.6636,71.06,26.06,18.48,190,24,NA,29.86,1008.3,6,32,"CLR","   ","   ",NA,NA,NA,NA,NA,"BLDU",NA,NA,NA,32,190,"2003-12-26 19:52",68.73,"METAR KLBB 261953Z 19024G32KT 6SM BLDU CLR 22/M03 A2986 RMK AO2 PK WND 19032/1952 SLP083 T02171033"
"26143","LBB","2003-12-26 21:53:00",-101.8228,33.6636,71.96,24.08,16.5,180,23,NA,29.84,1007.6,6,NA,"CLR","   ","   ",NA,NA,NA,NA,NA,"BLDU",NA,NA,NA,31,200,"2003-12-26 21:39",69.63,"METAR KLBB 262153Z 18023KT 6SM BLDU CLR 22/M04 A2984 RMK AO2 PK WND 20031/2139 SLP076 T02221044"
"26859","LBB","2004-01-25 18:53:00",-101.8228,33.6636,57.92,24.98,27.96,280,33,NA,29.56,998.8,3,42,"SCT","   ","   ",NA,25000,NA,NA,NA,"BLDU",NA,NA,NA,45,260,"2004-01-25 18:04",57.92,"METAR KLBB 251853Z 28033G42KT 3SM BLDU SCT250 14/M04 A2956 RMK AO2 PK WND 26045/1804 SFC VIS 4 SLP988 T01441039"
"26860","LBB","2004-01-25 19:53:00",-101.8228,33.6636,57.92,24.98,27.96,280,35,NA,29.56,998.6,5,41,"SCT","   ","   ",NA,25000,NA,NA,NA,"BLDU",NA,NA,NA,44,270,"2004-01-25 19:41",57.92,"METAR KLBB 251953Z 28035G41KT 5SM BLDU SCT250 14/M04 A2956 RMK AO2 PK WND 27044/1941 SLP986 T01441039"
"26861","LBB","2004-01-25 20:53:00",-101.8228,33.6636,59,24.08,25.91,270,31,NA,29.53,997.7,6,43,"FEW","   ","   ",NA,25000,NA,NA,NA,"BLDU",NA,NA,NA,43,260,"2004-01-25 20:45",59,"METAR KLBB 252053Z 27031G43KT 6SM BLDU FEW250 15/M04 A2953 RMK AO2 PK WND 26043/2045 SLP977 T01501044 58012"
"26862","LBB","2004-01-25 21:53:00",-101.8228,33.6636,59,24.98,26.9,270,28,NA,29.53,997.8,4,37,"FEW","SCT","   ",NA,4000,25000,NA,NA,"BLDU",NA,NA,NA,41,260,"2004-01-25 21:13",59,"METAR KLBB 252153Z 27028G37KT 4SM BLDU FEW040 SCT250 15/M04 A2953 RMK AO2 PK WND 26041/2113 SLP978 T01501039"
"26863","LBB","2004-01-25 22:53:00",-101.8228,33.6636,57.92,24.08,26.93,270,23,NA,29.55,998.3,6,30,"FEW","   ","   ",NA,25000,NA,NA,NA,"BLDU",NA,NA,NA,37,270,"2004-01-25 22:21",57.92,"METAR KLBB 252253Z 27023G30KT 6SM BLDU FEW250 14/M04 A2955 RMK AO2 PK WND 27037/2221 SLP983 T01441044"
"27459","LBB","2004-02-19 18:53:00",-101.8228,33.6636,71.06,28.04,20.05,220,28,NA,29.61,999,2.5,46,"BKN","   ","   ",NA,20000,NA,NA,NA,"BLDU",NA,NA,NA,46,220,"2004-02-19 18:46",68.81,"METAR KLBB 191853Z 22028G46KT 2 1/2SM BLDU BKN200 22/M02 A2961 RMK AO2 PK WND 22046/1846 TWR VIS 3 SLP990 VIS SW-N 2 T02171022 $"
"27460","LBB","2004-02-19 19:53:00",-101.8228,33.6636,71.06,28.04,20.05,230,37,NA,29.59,998.2,0.5,48,"VV ","   ","   ",NA,300,NA,NA,NA,"DS",NA,NA,NA,50,240,"2004-02-19 19:16",68.81,"METAR KLBB 191953Z 23037G48KT 1/2SM DS VV003 22/M02 A2959 RMK AO2 PK WND 24050/1916 SLP982 T02171022"
"27461","LBB","2004-02-19 20:53:00",-101.8228,33.6636,69.08,30.02,23.26,260,32,NA,29.6,998.9,0.5,48,"VV ","   ","   ",NA,500,NA,NA,NA,"DS",NA,NA,NA,49,260,"2004-02-19 20:22",69.08,"METAR KLBB 192053Z 26032G48KT 1/2SM DS VV005 21/M01 A2960 RMK AO2 PK WND 26049/2022 SFC VIS 3/4 SLP989 T02061011 55018"
"27462","LBB","2004-02-19 21:53:00",-101.8228,33.6636,68,53.06,58.8,270,38,NA,29.62,999.8,0.75,43,"VV ","   ","   ",NA,500,NA,NA,NA,"BLDU",NA,NA,NA,44,270,"2004-02-19 20:57",68,"METAR KLBB 192153Z COR 27038G43KT 3/4SM BLDU VV005 20/M07 A2962 RMK AO2 PK WND 27044/2057 SLP998 T02000117"
"27463","LBB","2004-02-19 22:53:00",-101.8228,33.6636,66.92,19.04,15.85,270,26,NA,29.64,1000.6,0.75,40,"VV ","   ","   ",NA,600,NA,NA,NA,"BLDU",NA,NA,NA,44,260,"2004-02-19 22:02",66.92,"METAR KLBB 192253Z 27026G40KT 3/4SM BLDU VV006 19/M07 A2964 RMK AO2 PK WND 26044/2202 SFC VIS 1 SLP006 T01941072"
"27464","LBB","2004-02-19 23:53:00",-101.8228,33.6636,66.92,15.08,13.35,270,26,NA,29.66,1001.2,2,31,"FEW","   ","   ",NA,800,NA,NA,NA,"BLDU",NA,NA,NA,35,270,"2004-02-19 23:06",66.92,"METAR KLBB 192353Z 27026G31KT 2SM BLDU FEW008 19/M09 A2966 RMK AO2 PK WND 27035/2306 SFC VIS 2 1/2 SLP012 T01941094 10228 20194 51016"
"29045","LBB","2004-04-26 00:53:00",-101.8228,33.6636,68,39.92,35.79,360,19,NA,30.05,1014.6,0.5,37,"VV ","   ","   ",NA,700,NA,NA,NA,"DS",NA,NA,NA,37,340,"2004-04-26 00:49",68,"METAR KLBB 260053Z 36019G37KT 1/2SM DS VV007 20/04 A3005 RMK AO2 PK WND 34037/0049 PRESRR SLP146 BLDU ALQDS VIRGA E-SW CB E-SW T02000044"
"29808","LBB","2004-05-27 19:53:00",-101.8228,33.6636,69.98,50,49.07,270,36,0.01,29.93,1009.1,4,43,"SCT","BKN","OVC",NA,5000,10000,25000,NA,"-RA BLDU",NA,NA,NA,46,270,"2004-05-27 19:38",69.98,"METAR KLBB 271953Z 27036G43KT 4SM -RA BLDU SCT050 BKN100 OVC250 21/10 A2993 RMK AO2 PK WND 27046/1938 TSE30RAE32B48 SLP091 TS MOVD MOV NE P0001 T02110100"
"30071","LBB","2004-06-07 19:53:00",-101.8228,33.6636,91.04,59,34.22,170,18,NA,29.79,1003.2,6,23,"FEW","   ","   ",NA,25000,NA,NA,NA,"BLDU",NA,NA,NA,26,160,"2004-06-07 19:07",91.04,"METAR KLBB 071953Z 17018G23KT 6SM BLDU FEW250 33/15 A2979 RMK AO2 PK WND 16026/1907 SLP032 T03280150"
"37124","LBB","2005-03-29 19:53:00",-101.8228,33.6636,75.02,21.92,13.6,250,34,NA,29.53,995.8,6,41,"FEW","SCT","   ",NA,14000,25000,NA,NA,"BLDU",NA,NA,NA,47,240,"2005-03-29 19:22",72.86,"METAR KLBB 291953Z 25034G41KT 6SM BLDU FEW140 SCT250 24/M06 A2953 RMK AO2 PK WND 24047/1922 SLP958 T02391056"
"37125","LBB","2005-03-29 20:53:00",-101.8228,33.6636,73.94,23,14.76,230,29,NA,29.52,995.3,6,46,"SCT","   ","   ",NA,15000,NA,NA,NA,"BLDU",NA,NA,NA,48,250,"2005-03-29 20:24",71.73,"METAR KLBB 292053Z 23029G46KT 6SM BLDU SCT150 23/M05 A2952 RMK AO2 PK WND 25048/2024 SLP953 T02331050 56025"
"41503","LBB","2005-09-28 21:53:00",-101.8228,33.6636,80.96,55.94,42.3,20,31,NA,30.07,1012.9,5,39,"FEW","   ","   ",NA,1000,NA,NA,NA,"HZ BLDU",NA,NA,NA,NA,NA,NA,80.85,"METAR KLBB 282153Z COR 02031G39KT 5SM HZ BLDU FEW010 27/13 A3007 RMK AO2 PK WND 03039/2153 SLP129 T02720133"
"42643","LBB","2005-11-15 11:53:00",-101.8228,33.6636,42.98,32,64.93,350,23,NA,29.98,1012.6,6,31,"FEW","   ","   ",NA,25000,NA,NA,NA,"BLDU",NA,NA,NA,NA,NA,NA,33.07,"METAR KLBB 151153Z 35023G31KT 6SM BLDU FEW250 06/00 A2998 RMK AO2 PK WND 34034/1135 SLP126 T00610000 10139 20061 53033"
"42645","LBB","2005-11-15 13:53:00",-101.8228,33.6636,41,26.96,57.06,360,29,NA,30.11,1017.4,5,35,"CLR","   ","   ",NA,NA,NA,NA,NA,"BLDU",NA,NA,NA,NA,NA,NA,29.25,"METAR KLBB 151353Z 36029G35KT 5SM BLDU CLR 05/M03 A3011 RMK AO2 PK WND 35039/1258 SLP174 T00501028"
"42647","LBB","2005-11-15 15:53:00",-101.8228,33.6636,42.98,21.02,41.24,360,26,NA,30.24,1022.2,6,34,"FEW","   ","   ",NA,25000,NA,NA,NA,"BLDU",NA,NA,NA,NA,NA,NA,32.49,"METAR KLBB 151553Z 36026G34KT 6SM BLDU FEW250 06/M06 A3024 RMK AO2 PK WND 36038/1536 PRESRR SLP222 T00611061"
"42935","LBB","2005-11-27 15:53:00",-101.8228,33.6636,51.08,17.96,26.66,260,29,NA,29.47,994.9,5,39,"FEW","   ","   ",NA,11000,NA,NA,NA,"BLDU",NA,NA,NA,NA,NA,NA,51.08,"METAR KLBB 271553Z 26029G39KT 5SM BLDU FEW110 11/M08 A2947 RMK AO2 PK WND 25039/1549 SLP949 T01061078"
"42936","LBB","2005-11-27 16:53:00",-101.8228,33.6636,51.98,6.08,15.24,260,26,NA,29.46,994.9,2.5,44,"FEW","   ","   ",NA,10000,NA,NA,NA,"BLDU",NA,NA,NA,NA,NA,NA,51.98,"METAR KLBB 271653Z 26026G44KT 2 1/2SM BLDU FEW100 11/M14 A2946 RMK AO2 PK WND 25044/1649 SLP949 VIS S-SW 1 T01111144"
"42937","LBB","2005-11-27 17:53:00",-101.8228,33.6636,53.06,8.06,16.03,270,36,NA,29.44,994.2,1.5,43,"CLR","   ","   ",NA,NA,NA,NA,NA,"BLDU",NA,NA,NA,NA,NA,NA,53.06,"METAR KLBB 271753Z 27036G43KT 1 1/2SM BLDU CLR 12/M13 A2944 RMK AO2 PK WND 25048/1730 SLP942 VIS 3/4V2 60000 T01171133 10117 20072 58005"
"42938","LBB","2005-11-27 18:53:00",-101.8228,33.6636,53.06,10.94,18.23,270,29,NA,29.44,994.3,1.5,47,"FEW","   ","   ",NA,1500,NA,NA,NA,"BLDU",NA,NA,NA,NA,NA,NA,53.06,"METAR KLBB 271853Z 27029G47KT 1 1/2SM BLDU FEW015 12/M12 A2944 RMK AO2 PK WND 27050/1821 SLP943 VIS 3/4V2 T01171117 $"
"42939","LBB","2005-11-27 19:53:00",-101.8228,33.6636,53.96,12.92,19.26,270,29,NA,29.46,994.7,1.5,40,"BKN","   ","   ",NA,1100,NA,NA,NA,"BLDU",NA,NA,NA,NA,NA,NA,53.96,"METAR KLBB 271953Z 27029G40KT 1 1/2SM BLDU BKN011 12/M11 A2946 RMK AO2 PK WND 27047/1859 SFC VIS 4 SLP947 T01221106 $"
"43058","LBB","2005-12-02 18:53:00",-101.8228,33.6636,78.08,28.04,15.85,250,34,NA,29.75,1004.4,5,44,"BKN","   ","   ",NA,25000,NA,NA,NA,"BLDU",NA,NA,NA,44,250,"2005-12-02 18:50",76.33,"METAR KLBB 021853Z 25034G44KT 5SM BLDU BKN250 26/M02 A2975 RMK AO2 PK WND 25044/1850 SLP044 BKN LYR THN T02561022"
"43059","LBB","2005-12-02 19:53:00",-101.8228,33.6636,78.98,28.94,15.96,260,32,NA,29.72,1003.6,7,39,"BKN","   ","   ",NA,25000,NA,NA,NA,"BLDU",NA,NA,NA,44,250,"2005-12-02 19:41",77.33,"METAR KLBB 021953Z 26032G39KT 7SM BLDU BKN250 26/M02 A2972 RMK AO2 PK WND 25044/1941 SLP036 BKN LYR THN T02611017"
"43392","LBB","2005-12-16 16:53:00",-101.8228,33.6636,37.94,28.04,67.21,170,23,NA,30.01,1016.7,5,33,"BKN","BKN","OVC",NA,2800,10000,25000,NA,"BLDU",NA,NA,NA,33,170,"2005-12-16 16:46",26.3,"METAR KLBB 161653Z 17023G33KT 5SM BLDU BKN028 BKN100 OVC250 03/M02 A3001 RMK AO2 PK WND 17033/1646 SLP167 T00331022"
"43655","LBB","2005-12-27 15:53:00",-101.8228,33.6636,57.92,21.92,24.6,280,29,NA,29.87,1008.7,5,38,"SCT","   ","   ",NA,25000,NA,NA,NA,"BLDU",NA,NA,NA,38,270,"2005-12-27 15:46",57.92,"METAR KLBB 271553Z 28029G38KT 5SM BLDU SCT250 14/M06 A2987 RMK AO2 PK WND 27038/1546 SLP087 T01441056"
"43656","LBB","2005-12-27 16:53:00",-101.8228,33.6636,60.08,21.02,21.92,290,33,NA,29.88,1009.1,5,42,"SCT","   ","   ",NA,25000,NA,NA,NA,"BLDU",NA,NA,NA,42,280,"2005-12-27 16:53",60.08,"METAR KLBB 271653Z 29033G42KT 5SM BLDU SCT250 16/M06 A2988 RMK AO2 PK WND 28042/1653 SLP091 T01561061"
"43776","LBB","2006-01-01 16:53:00",-101.8228,33.6636,64.94,19.04,16.97,260,31,NA,29.62,999.8,4,47,"CLR","   ","   ",NA,NA,NA,NA,NA,"BLDU",NA,NA,NA,47,270,"2006-01-01 16:49",64.94,"METAR KLBB 011653Z COR 26031G47KT 4SM BLDU CLR 18/M07 A2962 RMK AO2 PK WND 27047/1649 SLP998 T01831072"
"43777","LBB","2006-01-01 17:53:00",-101.8228,33.6636,64.94,12.92,13.01,260,35,NA,29.58,998.5,2.5,46,"CLR","   ","   ",NA,NA,NA,NA,NA,"BLDU",NA,NA,NA,47,260,"2006-01-01 17:34",64.94,"METAR KLBB 011753Z 26035G46KT 2 1/2SM BLDU CLR 18/M11 A2958 RMK AO2 PK WND 26047/1734 SLP985 VIS 1 1/4V3 T01831106 10183 20111 58006"
"43778","LBB","2006-01-01 18:53:00",-101.8228,33.6636,66.02,12.92,12.53,260,36,NA,29.55,997.2,0.75,47,"CLR","   ","   ",NA,NA,NA,NA,NA,"BLDU",NA,NA,NA,56,250,"2006-01-01 18:25",66.02,"METAR KLBB 011853Z COR 26036G47KT 3/4SM BLDU CLR 19/M11 A2955 RMK AO2 PK WND 25056/1825 TWR VIS 1 SLP972 T01891106"
"43779","LBB","2006-01-01 19:53:00",-101.8228,33.6636,66.92,10.04,10.69,270,43,NA,29.54,996.8,0.75,51,"CLR","   ","   ",NA,NA,NA,NA,NA,"BLDU",NA,NA,NA,55,260,"2006-01-01 19:33",66.92,"METAR KLBB 011953Z 27043G51KT 3/4SM BLDU CLR 19/M12 A2954 RMK AO2 PK WND 26055/1933 TWR VIS 1 SLP968 T01941122"
"43780","LBB","2006-01-01 20:53:00",-101.8228,33.6636,66.92,14,12.74,270,35,NA,29.55,997.3,1,50,"CLR","   ","   ",NA,NA,NA,NA,NA,"BLDU",NA,NA,NA,50,260,"2006-01-01 20:51",66.92,"METAR KLBB 012053Z COR 27035G50KT 1SM BLDU CLR 19/M10 A2955 RMK AO2 PK WND 26050/2051 SFC VIS 2 SLP973 T01941100 55010"
"43781","LBB","2006-01-01 21:53:00",-101.8228,33.6636,64.94,12.92,13.01,280,29,NA,29.58,998.5,1,44,"CLR","   ","   ",NA,NA,NA,NA,NA,"BLDU",NA,NA,NA,50,280,"2006-01-01 21:11",64.94,"METAR KLBB 012153Z 28029G44KT 1SM BLDU CLR 18/M11 A2958 RMK AO2 PK WND 28050/2111 SFC VIS 2 SLP985 T01831106"
"43782","LBB","2006-01-01 22:53:00",-101.8228,33.6636,64.04,12.92,13.43,280,24,NA,29.62,1000.1,1,44,"CLR","   ","   ",NA,NA,NA,NA,NA,"BLDU",NA,NA,NA,45,280,"2006-01-01 22:08",64.04,"METAR KLBB 012253Z 28024G44KT 1SM BLDU CLR 18/M11 A2962 RMK AO2 PK WND 28045/2208 SFC VIS 2 1/2 SLP001 T01781106"
"43783","LBB","2006-01-01 23:53:00",-101.8228,33.6636,60.98,12.02,14.37,280,23,NA,29.64,1000.8,2.5,30,"CLR","   ","   ",NA,NA,NA,NA,NA,"BLDU",NA,NA,NA,39,290,"2006-01-01 23:29",60.98,"METAR KLBB 012353Z 28023G30KT 2 1/2SM BLDU CLR 16/M11 A2964 RMK AO2 PK WND 29039/2329 SLP008 60000 T01611111 10194 20161 51028"
"44040","LBB","2006-01-12 17:53:00",-101.8228,33.6636,66.92,6.08,8.94,270,26,NA,29.77,1005.5,2.5,38,"SCT","   ","   ",NA,25000,NA,NA,NA,"BLDU",NA,NA,NA,38,280,"2006-01-12 17:44",66.92,"METAR KLBB 121753Z 27026G38KT 2 1/2SM BLDU SCT250 19/M14 A2977 RMK AO2 PK WND 28038/1744 TWR VIS 3 SLP055 T01941144 10194 21028 58004"
"44041","LBB","2006-01-12 18:53:00",-101.8228,33.6636,64.04,6.08,9.88,260,28,NA,29.74,1004.8,5,37,"SCT","BKN","   ",NA,15000,25000,NA,NA,"BLDU",NA,NA,NA,39,270,"2006-01-12 18:05",64.04,"METAR KLBB 121853Z 26028G37KT 5SM BLDU SCT150 BKN250 18/M14 A2974 RMK AO2 PK WND 27039/1805 SLP048 T01781144"
"44043","LBB","2006-01-12 20:53:00",-101.8228,33.6636,64.94,8.96,10.91,280,27,NA,29.74,1005.2,5,33,"SCT","OVC","   ",NA,16000,25000,NA,NA,"BLDU",NA,NA,NA,39,290,"2006-01-12 20:04",64.94,"METAR KLBB 122053Z 28027G33KT 5SM BLDU SCT160 OVC250 18/M13 A2974 RMK AO2 PK WND 29039/2004 SLP052 T01831128 55009"
"44373","LBB","2006-01-26 20:53:00",-101.8228,33.6636,60.98,32,33.42,180,22,NA,30.11,1017.4,6,26,"OVC","   ","   ",NA,25000,NA,NA,NA,"BLDU",NA,NA,NA,29,180,"2006-01-26 20:02",60.98,"METAR KLBB 262053Z 18022G26KT 6SM BLDU OVC250 16/00 A3011 RMK AO2 PK WND 18029/2002 SLP174 T01610000 56037"
"45371","LBB","2006-03-09 19:53:00",-101.8228,33.6636,62.06,8.06,11.59,260,31,NA,29.53,997.1,3,41,"OVC","   ","   ",NA,25000,NA,NA,NA,"BLDU",NA,NA,NA,NA,NA,NA,62.06,"METAR KLBB 091953Z 26031G41KT 3SM BLDU OVC250 17/M13 A2953 RMK AO2 PK WND 28041/1950 SLP971 T01671133"
"45372","LBB","2006-03-09 20:53:00",-101.8228,33.6636,66.02,10.04,11.03,270,26,NA,29.52,996.5,5,34,"OVC","   ","   ",NA,20000,NA,NA,NA,"BLDU",NA,NA,NA,NA,NA,NA,66.02,"METAR KLBB 092053Z 27026G34KT 5SM BLDU OVC200 19/M12 A2952 RMK AO2 PK WND 27036/2027 SLP965 T01891122 56019"
"45373","LBB","2006-03-09 21:53:00",-101.8228,33.6636,64.04,6.98,10.3,250,23,NA,29.5,996.3,10,30,"SCT","OVC","   ",NA,18000,22000,NA,NA,"BLDU",NA,NA,NA,NA,NA,NA,64.04,"METAR KLBB 092153Z 25023G30KT 10SM BLDU SCT180 OVC220 18/M14 A2950 RMK AO2 PK WND 26037/2132 SLP963 T01781139"
"45374","LBB","2006-03-09 22:53:00",-101.8228,33.6636,64.04,6.98,10.3,260,20,NA,29.49,995.7,10,NA,"SCT","BKN","   ",NA,18000,25000,NA,NA,"BLDU",NA,NA,NA,NA,NA,NA,64.04,"METAR KLBB 092253Z 26020KT 10SM BLDU SCT180 BKN250 18/M14 A2949 RMK AO2 PK WND 25027/2231 SLP957 T01781139"
"45393","LBB","2006-03-10 17:53:00",-101.8228,33.6636,68,24.8,19.47,240,25,NA,29.59,999.2,5,30,"BKN","BKN","BKN",NA,14000,20000,25000,NA,"BLDU",NA,NA,NA,36,250,"2006-03-10 17:20",68,"METAR KLBB 101753Z 24025G30KT 5SM BLDU BKN140 BKN200 BKN250 20/M04 A2959 RMK AO2 PK WND 25036/1720 SLP992 T02001040 10206 20078 58004 $"
"45394","LBB","2006-03-10 18:53:00",-101.8228,33.6636,68.36,19.4,15.31,250,24,NA,29.58,998.8,6,32,"FEW","BKN","OVC",NA,14000,20000,25000,NA,"BLDU",NA,NA,NA,35,250,"2006-03-10 18:42",68.36,"METAR KLBB 101853Z 25024G32KT 6SM BLDU FEW140 BKN200 OVC250 20/M07 A2958 RMK AO2 PK WND 25035/1842 SLP988 T02021070 $"
"45441","LBB","2006-03-12 17:53:00",-101.8228,33.6636,73.94,1.94,5.82,230,30,NA,29.72,1002.8,5,35,"SCT","SCT","   ",NA,600,25000,NA,NA,"BLDU",NA,NA,NA,37,220,"2006-03-12 17:42",71.31,"METAR KLBB 121753Z 23030G35KT 5SM BLDU SCT006 SCT250 23/M17 A2972 RMK AO2 PK WND 22037/1742 SLP028 VIS W 2 DU SCT006 T02331167 10233 20039 58010 $"
"45442","LBB","2006-03-12 18:53:00",-101.8228,33.6636,75.02,-0.04,5.12,230,34,NA,29.71,1002.1,5,43,"FEW","   ","   ",NA,25000,NA,NA,NA,"BLDU",NA,NA,NA,43,250,"2006-03-12 18:45",72.46,"METAR KLBB 121853Z 23034G43KT 5SM BLDU FEW250 24/M18 A2971 RMK AO2 PK WND 25043/1845 SLP021 T02391178 $"
"45443","LBB","2006-03-12 19:53:00",-101.8228,33.6636,75.02,3.02,5.9,240,29,NA,29.69,1001.9,6,50,"FEW","   ","   ",NA,25000,NA,NA,NA,"BLDU",NA,NA,NA,50,220,"2006-03-12 19:47",72.5,"METAR KLBB 121953Z 24029G50KT 6SM BLDU FEW250 24/M16 A2969 RMK AO2 PK WND 22050/1947 SLP019 T02391161 $"
"45444","LBB","2006-03-12 20:53:00",-101.8228,33.6636,75.02,3.02,5.9,240,35,NA,29.67,1001.1,3,47,"CLR","   ","   ",NA,NA,NA,NA,NA,"BLDU",NA,NA,NA,47,230,"2006-03-12 20:46",72.5,"METAR KLBB 122053Z 24035G47KT 3SM BLDU CLR 24/M16 A2967 RMK AO2 PK WND 23047/2046 SLP011 VIS W-NW 2 T02391161 58016"
"45445","LBB","2006-03-12 21:53:00",-101.8228,33.6636,73.04,8.96,8.26,230,27,NA,29.67,1001.3,3,38,"SCT","   ","   ",NA,25000,NA,NA,NA,"BLDU",NA,NA,NA,48,260,"2006-03-12 21:28",70.43,"METAR KLBB 122153Z 23027G38KT 3SM BLDU SCT250 23/M13 A2967 RMK AO2 PK WND 26048/2128 SLP013 T02281128"
"45446","LBB","2006-03-12 22:53:00",-101.8228,33.6636,69.98,15.08,12.02,250,34,NA,29.68,1002.1,1.25,39,"SCT","   ","   ",NA,25000,NA,NA,NA,"BLDU FU",NA,NA,NA,43,250,"2006-03-12 22:39",69.98,"METAR KLBB 122253Z 25034G39KT 1 1/4SM BLDU FU SCT250 21/M09 A2968 RMK AO2 PK WND 25043/2239 SLP021 T02111094"
"45447","LBB","2006-03-12 23:53:00",-101.8228,33.6636,68,15.98,13.38,250,32,NA,29.71,1003,1.25,40,"BKN","   ","   ",NA,1100,NA,NA,NA,"BLDU FU",NA,NA,NA,45,250,"2006-03-12 23:07",68,"METAR KLBB 122353Z 25032G40KT 1 1/4SM BLDU FU BKN011 20/M09 A2971 RMK AO2 PK WND 25045/2307 SFC VIS 1 3/4 SLP030 BKN011 LYR FU T02001089 10244 20200 53011"
"45635","LBB","2006-03-20 19:53:00",-101.8228,33.6636,57.92,24.08,26.93,270,36,NA,29.54,998.4,5,48,"SCT","BKN","   ",NA,9000,25000,NA,NA,"BLDU",NA,NA,NA,NA,NA,NA,57.92,"METAR KLBB 201953Z 27036G48KT 5SM BLDU SCT090TCU BKN250 14/M04 A2954 RMK AO2 PK WND 28048/1951 SLP984 TCU N T01441044"
"46039","LBB","2006-04-06 14:53:00",-101.8228,33.6636,66.92,23,18.74,270,25,NA,29.68,1000,2,38,"FEW","   ","   ",NA,25000,NA,NA,NA,"BLDU",NA,NA,NA,NA,NA,NA,66.92,"METAR KLBB 061453Z 27025G38KT 2SM BLDU FEW250 19/M05 A2968 RMK AO2 PK WND 27043/1421 SLP000 T01941050 53007"
"46040","LBB","2006-04-06 15:53:00",-101.8228,33.6636,66.92,21.92,17.91,290,27,NA,29.7,1000.8,3,38,"CLR","   ","   ",NA,NA,NA,NA,NA,"BLDU",NA,NA,NA,NA,NA,NA,66.92,"METAR KLBB 061553Z 29027G38KT 3SM BLDU CLR 19/M06 A2970 RMK AO2 PK WND 26043/1541 SFC VIS 4 SLP008 T01941056"
"46041","LBB","2006-04-06 16:53:00",-101.8228,33.6636,62.96,26.06,24.45,270,26,NA,29.73,1002.2,5,37,"CLR","   ","   ",NA,NA,NA,NA,NA,"BLDU",NA,NA,NA,NA,NA,NA,62.96,"METAR KLBB 061653Z 27026G37KT 5SM BLDU CLR 17/M03 A2973 RMK AO2 PK WND 29038/1604 SLP022 T01721033"
"46042","LBB","2006-04-06 17:53:00",-101.8228,33.6636,66.02,19.94,16.99,260,22,NA,29.7,1001.2,5,35,"CLR","   ","   ",NA,NA,NA,NA,NA,"BLDU",NA,NA,NA,NA,NA,NA,66.02,"METAR KLBB 061753Z 26022G35KT 5SM BLDU CLR 19/M07 A2970 RMK AO2 PK WND 27038/1725 SLP012 T01891067 10206 20144 50008"
"46043","LBB","2006-04-06 18:53:00",-101.8228,33.6636,69.08,12.02,10.84,270,33,NA,29.68,1000.3,1.75,48,"CLR","   ","   ",NA,NA,NA,NA,NA,"BLDU",NA,NA,NA,NA,NA,NA,69.08,"METAR KLBB 061853Z 27033G48KT 1 3/4SM BLDU CLR 21/M11 A2968 RMK AO2 PK WND 27048/1848 TWR VIS 2 1/2 SLP003 T02061111"
"46044","LBB","2006-04-06 19:53:00",-101.8228,33.6636,69.98,8.06,8.8,270,34,NA,29.66,999.7,1.25,44,"CLR","   ","   ",NA,NA,NA,NA,NA,"BLDU",NA,NA,NA,NA,NA,NA,69.98,"METAR KLBB 061953Z 27034G44KT 1 1/4SM BLDU CLR 21/M13 A2966 RMK AO2 PK WND 28048/1935 TWR VIS 2 SLP997 T02111133"
"46045","LBB","2006-04-06 20:53:00",-101.8228,33.6636,69.98,6.98,8.38,280,32,NA,29.65,999.4,2,43,"CLR","   ","   ",NA,NA,NA,NA,NA,"BLDU",NA,NA,NA,NA,NA,NA,69.98,"METAR KLBB 062053Z 28032G43KT 2SM BLDU CLR 21/M14 A2965 RMK AO2 PK WND 26049/2003 SLP994 T02111139 56017"
"46046","LBB","2006-04-06 21:53:00",-101.8228,33.6636,69.98,8.96,9.17,280,35,NA,29.64,999.4,2,47,"CLR","   ","   ",NA,NA,NA,NA,NA,"BLDU",NA,NA,NA,NA,NA,NA,69.98,"METAR KLBB 062153Z 28035G47KT 2SM BLDU CLR 21/M13 A2964 RMK AO2 PK WND 27047/2146 SFC VIS 2 1/2 SLP994 T02111128"
"46047","LBB","2006-04-06 22:53:00",-101.8228,33.6636,69.98,8.06,8.8,270,30,NA,29.65,999.6,3,40,"CLR","   ","   ",NA,NA,NA,NA,NA,"BLDU",NA,NA,NA,NA,NA,NA,69.98,"METAR KLBB 062253Z 27030G40KT 3SM BLDU CLR 21/M13 A2965 RMK AO2 PK WND 26046/2211 SLP996 T02111133"
"46048","LBB","2006-04-06 23:53:00",-101.8228,33.6636,69.08,8.06,9.08,280,29,NA,29.65,1000.2,3,35,"CLR","   ","   ",NA,NA,NA,NA,NA,"BLDU",NA,NA,NA,NA,NA,NA,69.08,"METAR KLBB 062353Z 28029G35KT 3SM BLDU CLR 21/M13 A2965 RMK AO2 PK WND 27041/2343 SFC VIS 4 SLP002 T02061133 10217 20194 53001"
"46069","LBB","2006-04-07 20:53:00",-101.8228,33.6636,71.06,30.02,21.74,360,25,NA,29.86,1007.9,6,34,"FEW","SCT","SCT",NA,9000,13000,25000,NA,"BLDU",NA,NA,NA,37,360,"2006-04-07 20:27",68.89,"METAR KLBB 072053Z 36025G34KT 6SM BLDU FEW090 SCT130 SCT250 22/M01 A2986 RMK AO2 PK WND 36037/2027 SLP079 T02171011 53020"
"46256","LBB","2006-04-15 15:53:00",-101.8228,33.6636,84.92,30.02,13.75,250,37,NA,29.73,1001,4,44,"SCT","   ","   ",NA,25000,NA,NA,NA,"BLDU",NA,NA,NA,44,250,"2006-04-15 15:52",81.8,"METAR KLBB 151553Z 25037G44KT 4SM BLDU SCT250 29/M01 A2973 RMK AO2 PK WND 25044/1552 SLP010 VIS W-NW 2 T02941011"
"46257","LBB","2006-04-15 16:53:00",-101.8228,33.6636,86,24.08,10.4,250,29,NA,29.74,1001,3,41,"FEW","   ","   ",NA,25000,NA,NA,NA,"BLDU",NA,NA,NA,45,240,"2006-04-15 15:57",82.21,"METAR KLBB 151653Z 25029G41KT 3SM BLDU FEW250 30/M04 A2974 RMK AO2 PK WND 24045/1557 SLP010 T03001044"
"46258","LBB","2006-04-15 17:53:00",-101.8228,33.6636,87.98,24.98,10.14,260,32,NA,29.73,1000.6,6,38,"FEW","   ","   ",NA,25000,NA,NA,NA,"FU BLDU",NA,NA,NA,39,260,"2006-04-15 17:16",83.7,"METAR KLBB 151753Z 26032G38KT 6SM FU BLDU FEW250 31/M04 A2973 RMK AO2 PK WND 26039/1716 SLP006 T03111039 10311 20189 56007"
"46577","LBB","2006-04-28 22:53:00",-101.8228,33.6636,69.08,51.98,54.45,350,25,NA,29.71,1002.1,4,31,"SCT","BKN","   ",NA,13000,25000,NA,NA,"BLDU",NA,NA,NA,35,310,"2006-04-28 22:10",69.08,"METAR KLBB 282253Z 35025G31KT 4SM BLDU SCT130 BKN250 21/11 A2971 RMK AO2 PK WND 31035/2210 WSHFT 2209 SLP021 CB DSNT N-E-SE MOVG NE FROPA T02060111 $"
"47274","LBB","2006-05-28 01:53:00",-101.8228,33.6636,84.92,51.98,32.2,150,25,NA,29.68,999.4,5,33,"SCT","SCT","   ",NA,13000,22000,NA,NA,"BLDU",NA,NA,NA,NA,NA,NA,83.05,"METAR KLBB 280153Z 15025G33KT 5SM BLDU SCT130 SCT220 29/11 A2968 RMK AO2 PK WND 15033/0150 SLP994 CB DSNT NE-SE MOVG NE T02940111"
"47346","LBB","2006-05-31 01:53:00",-101.8228,33.6636,73.04,51.98,47.59,20,20,NA,30.01,1011.4,5,39,"BKN","OVC","   ",NA,8000,11000,NA,NA,"BLDU",NA,NA,NA,40,10,"2006-05-31 01:42",73.04,"METAR KLBB 310153Z 02020G39KT 5SM BLDU BKN080 OVC110 23/11 A3001 RMK AO2 PK WND 01040/0142 WSHFT 0130 SLP114 FRQ LTGIC DSNT W-N CB DSNT W-N-NE MOVG NE T02280111"
"47874","LBB","2006-06-22 01:53:00",-101.8228,33.6636,69.08,60.98,75.4,350,23,0.01,30.01,1011.6,5,29,"SCT","OVC","   ",NA,6500,10000,NA,NA,"TSRA BLDU",NA,NA,NA,39,360,"2006-06-22 01:21",69.08,"METAR KLBB 220153Z 35023G29KT 5SM TSRA BLDU SCT065 OVC100CB 21/16 A3001 RMK AO2 PK WND 36039/0121 WSHFT 0102 TSB37RAB43 SLP116 FRQ LTGICCG TS SW-NW-NE MOVG SE P0001 T02060161"
"47893","LBB","2006-06-22 20:53:00",-101.8228,33.6636,71.96,59,63.7,60,36,NA,30.15,1016.7,1.5,44,"SCT","BKN","BKN",NA,2000,5000,20000,NA,"BLDU",NA,NA,NA,44,60,"2006-06-22 20:52",71.96,"METAR KLBB 222053Z 06036G44KT 1 1/2SM BLDU SCT020 BKN050TCU BKN200 22/15 A3015 RMK AO2 PK WND 06044/2052 RAB48E51 SLP167 TCU ALQDS CB DSNT N-E-SE MOVG S P0000 60000 T02220150 55003"
"48814","LBB","2006-07-31 05:53:00",-101.8228,33.6636,78.08,62.06,57.87,220,26,NA,29.92,1007.1,5,33,"FEW","BKN","OVC",NA,8000,9500,12000,NA,"-RA BLDU",NA,NA,NA,NA,NA,NA,78.08,"METAR KLBB 310553Z COR 22026G33KT 5SM -RA BLDU FEW080 BKN095 OVC120 26/17 A2992 RMK AO2 PK WND 23033/0552 RAB49 SLP071 P0000 60000 T02560167 10333 20256 403440206 53017"
"48902","LBB","2006-08-03 21:53:00",-101.8228,33.6636,87.08,62.06,43.23,160,25,NA,30.03,1011.4,1.5,30,"BKN","BKN","   ",NA,7000,25000,NA,NA,"BLDU",NA,NA,NA,30,150,"2006-08-03 21:52",87.55,"METAR KLBB 032153Z 16025G30KT 1 1/2SM BLDU BKN070TCU BKN250 31/17 A3003 RMK AO2 PK WND 15030/2152 SLP114 CB DSNT SE MOVG N TCU ALQDS T03060167"
"50071","LBB","2006-09-21 15:53:00",-101.8228,33.6636,73.04,30.02,20.33,260,27,NA,29.67,999.7,4,35,"FEW","   ","   ",NA,6000,NA,NA,NA,"BLDU",NA,NA,NA,35,270,"2006-09-21 15:53",71,"METAR KLBB 211553Z 26027G35KT 4SM BLDU FEW060 23/M01 A2967 RMK AO2 PK WND 27035/1553 SLP997 T02281011"
"50072","LBB","2006-09-21 16:53:00",-101.8228,33.6636,75.02,24.98,15.46,260,33,NA,29.66,999.5,3,41,"CLR","   ","   ",NA,NA,NA,NA,NA,"BLDU",NA,NA,NA,47,270,"2006-09-21 16:37",72.95,"METAR KLBB 211653Z 26033G41KT 3SM BLDU CLR 24/M04 A2966 RMK AO2 PK WND 27047/1637 SLP995 T02391039"
"50073","LBB","2006-09-21 17:53:00",-101.8228,33.6636,77,21.92,12.73,270,32,NA,29.65,999.1,4,42,"CLR","   ","   ",NA,NA,NA,NA,NA,"BLDU",NA,NA,NA,44,260,"2006-09-21 17:30",75,"METAR KLBB 211753Z 27032G42KT 4SM BLDU CLR 25/M06 A2965 RMK AO2 PK WND 26044/1730 SLP991 60000 T02501056 10256 20150 56010"
"50074","LBB","2006-09-21 18:53:00",-101.8228,33.6636,78.98,24.98,13.56,270,29,NA,29.63,998.5,5,39,"CLR","   ","   ",NA,NA,NA,NA,NA,"BLDU",NA,NA,NA,42,260,"2006-09-21 18:26",77.22,"METAR KLBB 211853Z 27029G39KT 5SM BLDU CLR 26/M04 A2963 RMK AO2 PK WND 26042/1826 SLP985 T02611039"
"51362","LBB","2006-11-15 02:53:00",-101.8228,33.6636,57.92,32,37.28,350,23,NA,29.69,1002.9,5,34,"BKN","   ","   ",NA,10000,NA,NA,NA,"BLDU",NA,NA,NA,NA,NA,NA,57.92,"METAR KLBB 150253Z 35023G34KT 5SM BLDU BKN100 14/00 A2969 RMK AO2 PK WND 33052/0220 WSHFT 0215 SLP029 T01440000 53054"
"51365","LBB","2006-11-15 05:53:00",-101.8228,33.6636,51.08,21.92,31.57,340,29,NA,29.83,1006.8,4,38,"FEW","   ","   ",NA,10000,NA,NA,NA,"BLDU",NA,NA,NA,NA,NA,NA,51.08,"METAR KLBB 150553Z 34029G38KT 4SM BLDU FEW100 11/M06 A2983 RMK AO2 PK WND 34038/0553 SLP068 T01061056 10222 20106 402500022 53045"
"51366","LBB","2006-11-15 06:53:00",-101.8228,33.6636,48.92,19.04,30.27,340,35,NA,29.86,1007.6,3,46,"CLR","   ","   ",NA,NA,NA,NA,NA,"BLDU",NA,NA,NA,NA,NA,NA,39.32,"METAR KLBB 150653Z 34035G46KT 3SM BLDU CLR 09/M07 A2986 RMK AO2 PK WND 33046/0644 SLP076 T00941072"
"53790","LBB","2007-02-24 15:53:00",-101.8228,33.6636,44.06,12.92,27.88,270,40,NA,29.52,997.1,0.5,56,"CLR","   ","   ",NA,NA,NA,NA,NA,"DS",NA,NA,NA,NA,NA,NA,31.88,"METAR KLBB 241553Z 27040G56KT 1/2SM DS CLR 07/M11 A2952 RMK AO2 PK WND 27056/1545 TWR VIS 3/4 RAB27E51 SLP971 P0000 T00671106 RVRNO"
"53791","LBB","2007-02-24 16:53:00",-101.8228,33.6636,42.08,28.94,59.36,270,29,NA,29.57,999.3,1,37,"BKN","BKN","BKN",NA,1200,3100,4000,NA,"BLDU",NA,NA,NA,NA,NA,NA,30.73,"METAR KLBB 241653Z 27029G37KT 1SM BLDU BKN012 BKN031 BKN040 06/M02 A2957 RMK AO2 PK WND 28056/1616 SFC VIS 1 3/4 RAB27E46SNB32E48 SLP993 P0000 T00561017"
"53792","LBB","2007-02-24 17:53:00",-101.8228,33.6636,53.06,23,30.71,310,39,NA,29.61,1000,1,51,"BKN","BKN","   ",NA,900,6000,NA,NA,"BLDU",NA,NA,NA,NA,NA,NA,53.06,"METAR KLBB 241753Z 31039G51KT 1SM BLDU BKN009 BKN060 12/M05 A2961 RMK AO2 PK WND 29053/1727 SLP000 60000 T01171050 10117 20028 53036 RVRNO"
"53793","LBB","2007-02-24 18:53:00",-101.8228,33.6636,53.06,23,30.71,310,26,NA,29.64,1001.3,1,43,"FEW","BKN","   ",NA,2500,7000,NA,NA,"BLDU",NA,NA,NA,NA,NA,NA,53.06,"METAR KLBB 241853Z 31026G43KT 1SM R17R/5500VP6000FT BLDU FEW025 BKN070 12/M05 A2964 RMK AO2 PK WND 32048/1828 SFC VIS 1 3/4 SLP013 T01171050"
"53794","LBB","2007-02-24 19:53:00",-101.8228,33.6636,55.94,26.96,32.61,320,29,NA,29.67,1002.5,2.5,40,"FEW","   ","   ",NA,2400,NA,NA,NA,"BLDU",NA,NA,NA,NA,NA,NA,55.94,"METAR KLBB 241953Z 32029G40KT 2 1/2SM BLDU FEW024 13/M03 A2967 RMK AO2 PK WND 31044/1911 VIS 2V5 SLP025 T01331028"
"53888","LBB","2007-02-28 17:53:00",-101.8228,33.6636,71.96,3.92,6.82,250,31,NA,29.59,997.7,2,36,"BKN","   ","   ",NA,25000,NA,NA,NA,"BLDU",NA,NA,NA,NA,NA,NA,69.18,"METAR KLBB 281753Z 25031G36KT 2SM BLDU BKN250 22/M16 A2959 RMK AO2 PK WND 25037/1729 SFC VIS 3 SLP977 SKY PTLY OBSCD T02221156 10222 20106 58014"
"53889","LBB","2007-02-28 18:53:00",-101.8228,33.6636,73.94,3.02,6.12,250,29,NA,29.55,996.5,2,36,"BKN","   ","   ",NA,25000,NA,NA,NA,"BLDU",NA,NA,NA,NA,NA,NA,71.32,"METAR KLBB 281853Z 25029G36KT 2SM BLDU BKN250 23/M16 A2955 RMK AO2 PK WND 23040/1827 SLP965 SKY PTLY OBSCD T02331161"
"53890","LBB","2007-02-28 19:53:00",-101.8228,33.6636,73.94,-2.02,4.83,240,33,NA,29.5,995,1.5,42,"OVC","   ","   ",NA,25000,NA,NA,NA,"BLDU",NA,NA,NA,NA,NA,NA,71.26,"METAR KLBB 281953Z 24033G42KT 1 1/2SM BLDU OVC250 23/M19 A2950 RMK AO2 PK WND 24045/1904 TWR VIS 2 SLP950 SKY PTLY OBSCD T02331189"
"53891","LBB","2007-02-28 20:53:00",-101.8228,33.6636,73.4,-0.4,5.31,230,29,NA,29.46,NA,1.5,39,"OVC","   ","   ",NA,25000,NA,NA,NA,"BLDU",NA,NA,NA,NA,NA,NA,70.69,"METAR KLBB 282053Z 23029G39KT 1 1/2SM BLDU OVC250 23/M18 A2946"
"53892","LBB","2007-02-28 21:53:00",-101.8228,33.6636,73.94,-2.02,4.83,220,31,NA,29.41,992.1,2,39,"BKN","   ","   ",NA,25000,NA,NA,NA,"BLDU",NA,NA,NA,NA,NA,NA,71.26,"METAR KLBB 282153Z 22031G39KT 2SM BLDU BKN250 23/M19 A2941 RMK AO2 PK WND 22039/2151 SLP921 T02331189"
"53893","LBB","2007-02-28 22:53:00",-101.8228,33.6636,73.04,-5.08,4.3,230,26,NA,29.41,991.8,1,41,"SCT","   ","   ",NA,25000,NA,NA,NA,"BLDU",NA,NA,NA,NA,NA,NA,70.25,"METAR KLBB 282253Z 23026G41KT 1SM R17R/P6000FT BLDU SCT250 23/M21 A2941 RMK AO2 PK WND 24044/2218 SLP918 T02281206"
"53894","LBB","2007-02-28 23:53:00",-101.8228,33.6636,71.06,-7.06,4.18,240,32,NA,29.41,992.1,1,37,"SCT","   ","   ",NA,25000,NA,NA,NA,"BLDU",NA,NA,NA,NA,NA,NA,68.06,"METAR KLBB 282353Z 24032G37KT 1SM R17R/P6000FT BLDU SCT250 22/M22 A2941 RMK AO2 PK WND 23050/2304 SLP921 T02171217 10239 20217 55002"
"53895","LBB","2007-03-01 00:53:00",-101.8228,33.6636,66.92,-5.98,5.08,240,20,NA,29.43,992.9,1.25,NA,"SCT","   ","   ",NA,25000,NA,NA,NA,"BLDU",NA,NA,NA,NA,NA,NA,66.92,"METAR KLBB 010053Z 24020KT 1 1/4SM BLDU SCT250 19/M21 A2943 RMK AO2 PK WND 24036/0011 TWR VIS 1 1/2 SLP929 SKY PTLY OBSCD T01941211"
"53896","LBB","2007-03-01 01:53:00",-101.8228,33.6636,64.04,-7.06,5.33,250,21,NA,29.45,994.2,4,31,"CLR","   ","   ",NA,NA,NA,NA,NA,"BLDU",NA,NA,NA,NA,NA,NA,64.04,"METAR KLBB 010153Z 25021G31KT 4SM BLDU CLR 18/M22 A2945 RMK AO2 PK WND 25032/0114 SLP942 T01781217"
"53897","LBB","2007-03-01 02:53:00",-101.8228,33.6636,60.08,-2.92,7.48,260,16,NA,29.5,995.5,5,NA,"CLR","   ","   ",NA,NA,NA,NA,NA,"BLDU",NA,NA,NA,NA,NA,NA,60.08,"METAR KLBB 010253Z 26016KT 5SM BLDU CLR 16/M19 A2950 RMK AO2 PK WND 25031/0219 SLP955 T01561194 53028"
"53898","LBB","2007-03-01 03:53:00",-101.8228,33.6636,57.92,8.96,13.99,290,27,NA,29.54,996.6,3,39,"CLR","   ","   ",NA,NA,NA,NA,NA,"BLDU",NA,NA,NA,NA,NA,NA,57.92,"METAR KLBB 010353Z 29027G39KT 3SM BLDU CLR 14/M13 A2954 RMK AO2 PK WND 29039/0350 SLP966 T01441128"
"53947","LBB","2007-03-03 04:53:00",-101.8228,33.6636,42.98,10.94,26.61,10,27,NA,29.93,1012.5,3,33,"BKN","BKN","   ",NA,11000,18000,NA,NA,"BLDU",NA,NA,NA,NA,NA,NA,32.31,"METAR KLBB 030453Z 01027G33KT 3SM BLDU BKN110 BKN180 06/M12 A2993 RMK AO2 PK WND 01033/0448 WSHFT 0411 SLP125 FROPA T00611117"
"53948","LBB","2007-03-03 05:53:00",-101.8228,33.6636,39.92,17.06,39.17,30,23,NA,29.99,1014.6,4,31,"OVC","   ","   ",NA,11000,NA,NA,NA,"BLDU",NA,NA,NA,NA,NA,NA,28.96,"METAR KLBB 030553Z 03023G31KT 4SM BLDU OVC110 04/M08 A2999 RMK AO2 PK WND 04036/0528 PRESRR SLP146 T00441083 10133 20044 401441061 53041"
"53957","LBB","2007-03-03 14:53:00",-101.8228,33.6636,33.08,8.96,35.92,350,22,NA,30.29,1025.6,6,32,"CLR","   ","   ",NA,NA,NA,NA,NA,"BLDU",NA,NA,NA,NA,NA,NA,20.02,"METAR KLBB 031453Z 35022G32KT 6SM BLDU CLR 01/M13 A3029 RMK AO2 PK WND 36032/1448 SLP256 T00061128 51029"
"53958","LBB","2007-03-03 15:53:00",-101.8228,33.6636,35.96,8.96,32.03,360,23,NA,30.32,1026.4,5,34,"CLR","   ","   ",NA,NA,NA,NA,NA,"BLDU",NA,NA,NA,NA,NA,NA,23.64,"METAR KLBB 031553Z 36023G34KT 5SM BLDU CLR 02/M13 A3032 RMK AO2 PK WND 36034/1545 SLP264 T00221128"
"54871","LBB","2007-04-10 18:53:00",-101.8228,33.6636,73.94,42.08,31.79,260,27,NA,29.55,997.3,6,35,"SCT","   ","   ",NA,8500,NA,NA,NA,"BLDU",NA,NA,NA,NA,NA,NA,72.53,"METAR KLBB 101853Z 26027G35KT 6SM BLDU SCT085 23/06 A2955 RMK AO2 SLP973 T02330056 $"
"54872","LBB","2007-04-10 19:53:00",-101.8228,33.6636,75.92,39.02,26.43,270,25,NA,29.52,996.3,3,35,"SCT","   ","   ",NA,8500,NA,NA,NA,"BLDU",NA,NA,NA,NA,NA,NA,74.45,"METAR KLBB 101953Z 27025G35KT 3SM BLDU SCT085 24/04 A2952 RMK AO2 PK WND 25037/1926 SLP963 T02440039 $"
"54873","LBB","2007-04-10 20:53:00",-101.8228,33.6636,78.08,35.96,21.81,270,28,NA,29.49,995.1,2.5,39,"FEW","SCT","   ",NA,1100,8000,NA,NA,"BLDU",NA,NA,NA,NA,NA,NA,76.61,"METAR KLBB 102053Z 27028G39KT 2 1/2SM BLDU FEW011 SCT080 26/02 A2949 RMK AO2 PK WND 28040/2029 SLP951 T02560022 58022"
"54874","LBB","2007-04-10 21:53:00",-101.8228,33.6636,78.08,33.08,19.45,280,31,NA,29.47,994.3,2.5,40,"FEW","SCT","   ",NA,1500,8000,NA,NA,"BLDU",NA,NA,NA,NA,NA,NA,76.5,"METAR KLBB 102153Z 28031G40KT 2 1/2SM BLDU FEW015 SCT080 26/01 A2947 RMK AO2 PK WND 28045/2132 SLP943 T02560006"
"54875","LBB","2007-04-10 22:53:00",-101.8228,33.6636,75.92,32,20,300,28,NA,29.49,994.8,2,38,"FEW","   ","   ",NA,1200,NA,NA,NA,"BLDU",NA,NA,NA,NA,NA,NA,74.15,"METAR KLBB 102253Z 30028G38KT 2SM BLDU FEW012 24/00 A2949 RMK AO2 PK WND 27046/2156 TWR VIS 2 1/2 SLP948 T02440000"
"54876","LBB","2007-04-10 23:53:00",-101.8228,33.6636,73.94,28.04,18.19,290,32,NA,29.5,995.4,2,45,"FEW","   ","   ",NA,1400,NA,NA,NA,"BLDU",NA,NA,NA,NA,NA,NA,71.89,"METAR KLBB 102353Z 29032G45KT 2SM BLDU FEW014 23/M02 A2950 RMK AO2 PK WND 28045/2353 TWR VIS 2 1/2 SLP954 T02331022 10256 20228 53007"
"54877","LBB","2007-04-11 00:53:00",-101.8228,33.6636,69.08,28.04,21.45,300,21,NA,29.53,996.9,4,NA,"CLR","   ","   ",NA,NA,NA,NA,NA,"BLDU",NA,NA,NA,42,300,"2007-04-11 00:07",69.08,"METAR KLBB 110053Z 30021KT 4SM BLDU CLR 21/M02 A2953 RMK AO2 PK WND 30042/0007 SLP969 T02061022"
"54924","LBB","2007-04-12 23:53:00",-101.8228,33.6636,73.04,42.08,32.77,150,23,NA,29.65,1000.8,6,30,"FEW","SCT","BKN",NA,7000,9500,15000,NA,"TS BLDU",NA,NA,NA,NA,NA,NA,71.58,"METAR KLBB 122353Z 15023G30KT 6SM TS BLDU FEW070 SCT095CB BKN150 BKN200 23/06 A2965 RMK AO2 PK WND 15032/2317 TSE15B36RAB29E38 SLP008 OCNL LTGICCG TS NE MOVG NE P0000 60000 T02280056 10233 20167 55025"
"55140","LBB","2007-04-21 23:53:00",-101.8228,33.6636,73.94,53.96,49.66,160,30,NA,29.64,999.5,6,39,"FEW","SCT","BKN",NA,5000,7000,20000,NA,"BLDU",NA,NA,NA,41,160,"2007-04-21 23:33",73.94,"METAR KLBB 212353Z 16030G39KT 6SM BLDU FEW050 SCT070 BKN200 23/12 A2964 RMK AO2 PK WND 16041/2333 SLP995 CB DSNT W-N MOVG N T02330122 10261 20233 58033"
"55141","LBB","2007-04-22 00:53:00",-101.8228,33.6636,71.96,55.04,55.22,170,24,NA,29.64,999.8,4,42,"FEW","BKN","   ",NA,5000,15000,NA,NA,"BLDU",NA,NA,NA,42,170,"2007-04-22 00:48",71.96,"METAR KLBB 220053Z 17024G42KT 4SM BLDU FEW050 BKN150 22/13 A2964 RMK AO2 PK WND 17042/0048 SLP998 CB DSNT SW-NW AND N MOVG NE T02220128"
"56231","LBB","2007-06-06 14:53:00",-101.8228,33.6636,75.02,66.02,73.59,190,18,NA,29.75,1002.2,6,23,"FEW","BKN","   ",NA,1400,25000,NA,NA,"BLDU",NA,NA,NA,26,200,"2007-06-06 14:39",75.02,"METAR KLBB 061453Z 19018G23KT 6SM BLDU FEW014 BKN250 24/19 A2975 RMK AO2 PK WND 20026/1439 SLP022 BKN LYR THN T02390189 55006"
"56236","LBB","2007-06-06 19:53:00",-101.8228,33.6636,91.04,57.02,31.87,210,17,NA,29.64,997.9,6,25,"OVC","   ","   ",NA,20000,NA,NA,NA,"BLDU",NA,NA,NA,29,210,"2007-06-06 19:38",89.64,"METAR KLBB 061953Z 21017G25KT 6SM BLDU OVC200 33/14 A2964 RMK AO2 PK WND 21029/1938 SLP979 T03280139"
"56237","LBB","2007-06-06 20:53:00",-101.8228,33.6636,91.94,51.08,24.94,210,16,NA,29.62,997.1,6,27,"BKN","   ","   ",NA,22000,NA,NA,NA,"BLDU",NA,NA,NA,29,220,"2007-06-06 20:35",89.07,"METAR KLBB 062053Z 21016G27KT 6SM BLDU BKN220 33/11 A2962 RMK AO2 PK WND 22029/2035 SLP971 T03330106 56024"
"56238","LBB","2007-06-06 21:53:00",-101.8228,33.6636,93.02,50,23.17,210,21,NA,29.59,996.1,6,31,"BKN","   ","   ",NA,23000,NA,NA,NA,"BLDU",NA,NA,NA,32,200,"2007-06-06 21:01",89.92,"METAR KLBB 062153Z 21021G31KT 6SM BLDU BKN230 34/10 A2959 RMK AO2 PK WND 20032/2101 SLP961 BKN LYR THN T03390100"
"56239","LBB","2007-06-06 22:53:00",-101.8228,33.6636,91.94,53.06,26.83,190,22,NA,29.56,995.2,5,33,"BKN","   ","   ",NA,25000,NA,NA,NA,"BLDU",NA,NA,NA,36,190,"2007-06-06 22:37",89.48,"METAR KLBB 062253Z 19022G33KT 5SM BLDU BKN250 33/12 A2956 RMK AO2 PK WND 19036/2237 SLP952 BKN LYR THN T03330117 $"
"56240","LBB","2007-06-06 23:53:00",-101.8228,33.6636,89.96,53.06,28.55,200,20,NA,29.53,994.3,6,31,"OVC","   ","   ",NA,25000,NA,NA,NA,"BLDU",NA,NA,NA,35,190,"2007-06-06 22:59",87.58,"METAR KLBB 062353Z 20020G31KT 6SM BLDU OVC250 32/12 A2953 RMK AO2 PK WND 19035/2259 SLP943 T03220117 10339 20289 57026 $"
"56629","LBB","2007-06-23 04:53:00",-101.8228,33.6636,75.02,57.92,55.28,300,17,NA,30.06,1012.5,4,24,"SCT","BKN","BKN",NA,3900,8000,25000,NA,"BLDU",NA,NA,NA,NA,NA,NA,75.02,"METAR KLBB 230453Z 30017G24KT 4SM BLDU SCT039 BKN080 BKN250 24/14 A3006 RMK AO2 SLP125 CONS LTGICCG DSNT W-N CB DSNT W-N MOVG SE T02390144"
"56656","LBB","2007-06-24 07:53:00",-101.8228,33.6636,69.98,55.04,59.06,70,21,NA,29.96,1009,4,28,"FEW","BKN","OVC",NA,6000,10000,20000,NA,"BLDU",NA,NA,NA,30,40,"2007-06-24 07:38",69.98,"METAR KLBB 240753Z 07021G28KT 4SM BLDU FEW060 BKN100 OVC200 21/13 A2996 RMK AO2 PK WND 04030/0738 SLP090 FRQ LTGIC DSNT N-NE CB DSNT N-E MOVG SW SLOW T02110128"
"58128","LBB","2007-08-25 02:53:00",-101.8228,33.6636,69.08,60.98,75.4,20,24,NA,30.05,1013.1,6,35,"SCT","BKN","OVC",NA,3900,5000,9000,NA,"BLDU",NA,NA,NA,43,20,"2007-08-25 02:32",69.08,"METAR KLBB 250253Z 02024G35KT 6SM BLDU SCT039 BKN050 OVC090 21/16 A3005 RMK AO2 PK WND 02043/0232 WSHFT 0222 SLP131 CONS LTGICCG DSNT NW-NE CB DSNT NW-NE MOVG S T02060161 53049"
"60055","LBB","2007-11-14 15:53:00",-101.8228,33.6636,53.06,24.08,32.13,10,25,NA,30.15,1018.3,6,33,"FEW","   ","   ",NA,20000,NA,NA,NA,"BLDU",NA,NA,NA,36,10,"2007-11-14 15:25",53.06,"METAR KLBB 141553Z COR 01025G33KT 6SM BLDU FEW200 12/M04 A3015 RMK AO2 PK WND 01036/1525 SLP183 T01171044"
"60056","LBB","2007-11-14 16:53:00",-101.8228,33.6636,55.04,23,28.57,20,27,NA,30.19,1019.5,6,35,"FEW","   ","   ",NA,20000,NA,NA,NA,"BLDU",NA,NA,NA,37,30,"2007-11-14 16:33",55.04,"METAR KLBB 141653Z 02027G35KT 6SM BLDU FEW200 13/M05 A3019 RMK AO2 PK WND 03037/1633 SLP195 T01281050"
"60206","LBB","2007-11-21 06:53:00",-101.8228,33.6636,42.08,30.02,62.04,360,14,NA,29.92,1010.4,6,23,"FEW","SCT","   ",NA,18000,25000,NA,NA,"BLDU",NA,NA,NA,NA,NA,NA,34.16,"METAR KLBB 210653Z 36014G23KT 6SM BLDU FEW180 SCT250 06/M01 A2992 RMK AO2 WSHFT 0540 SLP104 T00561011"
"61784","LBB","2008-01-28 18:53:00",-101.8228,33.6636,73.04,39.92,30.14,240,33,NA,29.71,1002,4,41,"SCT","OVC","   ",NA,14000,25000,NA,NA,"BLDU",NA,NA,NA,41,250,"2008-01-28 18:52",71.46,"METAR KLBB 281853Z COR 24033G41KT 4SM BLDU SCT140 OVC250 23/04 A2971 RMK AO2 PK WND 25041/1852 PRESFR SLP020 T02280044"
"61785","LBB","2008-01-28 20:53:00",-101.8228,33.6636,71.06,39.02,31.12,250,31,NA,29.67,1000.9,3,38,"SCT","SCT","OVC",NA,2200,12000,25000,NA,"BLDU",NA,NA,NA,42,250,"2008-01-28 20:40",69.33,"METAR KLBB 282053Z 25031G38KT 3SM BLDU SCT022 SCT120 OVC250 22/04 A2967 RMK AO2 PK WND 25042/2040 SFC VIS 4 SLP009 T02170039 56038"
"61786","LBB","2008-01-28 21:53:00",-101.8228,33.6636,71.06,39.92,32.23,230,25,NA,29.65,1000.4,6,35,"SCT","OVC","   ",NA,13000,25000,NA,NA,"BLDU",NA,NA,NA,38,240,"2008-01-28 21:13",69.38,"METAR KLBB 282153Z 23025G35KT 6SM BLDU SCT130 OVC250 22/04 A2965 RMK AO2 PK WND 24038/2113 SLP004 T02170044"
"61787","LBB","2008-01-28 22:53:00",-101.8228,33.6636,69.98,35.06,27.62,240,27,NA,29.65,1000.5,4,39,"SCT","BKN","   ",NA,14000,25000,NA,NA,"BLDU",NA,NA,NA,44,240,"2008-01-28 22:35",69.98,"METAR KLBB 282253Z 24027G39KT 4SM BLDU SCT140 BKN250 21/02 A2965 RMK AO2 PK WND 24044/2235 SLP005 T02110017"
"61788","LBB","2008-01-28 23:53:00",-101.8228,33.6636,64.94,33.98,31.48,230,21,NA,29.67,1001.7,6,30,"SCT","OVC","   ",NA,15000,25000,NA,NA,"BLDU",NA,NA,NA,37,230,"2008-01-28 23:14",64.94,"METAR KLBB 282353Z 23021G30KT 6SM BLDU SCT150 OVC250 18/01 A2967 RMK AO2 PK WND 23037/2314 SLP017 T01830011 10239 20183 53001"
"61802","LBB","2008-01-29 14:53:00",-101.8228,33.6636,39.92,-5.98,13.67,300,33,NA,29.86,1009.5,2.5,45,"FEW","   ","   ",NA,25000,NA,NA,NA,"BLDU",NA,NA,NA,49,300,"2008-01-29 14:29",27.08,"METAR KLBB 291453Z 30033G45KT 2 1/2SM BLDU FEW250 04/M21 A2986 RMK AO2 PK WND 30049/1429 SLP095 T00441211 51036"
"61803","LBB","2008-01-29 15:53:00",-101.8228,33.6636,41,-7.96,11.91,310,33,NA,29.94,1012.1,3,46,"CLR","   ","   ",NA,NA,NA,NA,NA,"BLDU",NA,NA,NA,47,310,"2008-01-29 15:37",28.58,"METAR KLBB 291553Z 31033G46KT 3SM BLDU CLR 05/M22 A2994 RMK AO2 PK WND 31047/1537 PRESRR SLP121 T00501222"
"62442","LBB","2008-02-25 18:53:00",-101.8228,33.6636,73.04,19.94,13.36,290,30,NA,29.81,1005.4,3,44,"BKN","   ","   ",NA,25000,NA,NA,NA,"BLDU",NA,NA,NA,44,280,"2008-02-25 18:44",70.67,"METAR KLBB 251853Z 29030G44KT 3SM BLDU BKN250 23/M07 A2981 RMK AO2 PK WND 28044/1844 SLP054 T02281067"
"62443","LBB","2008-02-25 19:53:00",-101.8228,33.6636,71.06,15.08,11.59,290,33,NA,29.81,1005.6,6,46,"OVC","   ","   ",NA,25000,NA,NA,NA,"BLDU",NA,NA,NA,46,300,"2008-02-25 19:49",68.41,"METAR KLBB 251953Z 29033G46KT 6SM BLDU OVC250 22/M09 A2981 RMK AO2 PK WND 30046/1949 SLP056 T02171094"
"63493","LBB","2008-04-10 16:53:00",-101.8228,33.6636,60.98,24.08,24.15,270,31,NA,29.55,998.2,4,40,"CLR","   ","   ",NA,NA,NA,NA,NA,"BLDU",NA,NA,NA,NA,NA,NA,60.98,"METAR KLBB 101653Z 27031G40KT 4SM BLDU CLR 16/M04 A2955 RMK AO2 PK WND 28047/1638 SLP982 BLDU ALQDS T01611044"
"63494","LBB","2008-04-10 17:53:00",-101.8228,33.6636,64.04,26.06,23.54,260,29,NA,29.55,997.9,4,40,"FEW","   ","   ",NA,1000,NA,NA,NA,"BLDU",NA,NA,NA,NA,NA,NA,64.04,"METAR KLBB 101753Z 26029G40KT 4SM BLDU FEW010 18/M03 A2955 RMK AO2 PK WND 26047/1704 SLP979 SKY PR OBSCD BLDU T01781033 10178 20072 56011"
"63495","LBB","2008-04-10 18:53:00",-101.8228,33.6636,64.94,21.02,18.47,280,32,NA,29.54,997.4,3,46,"SCT","   ","   ",NA,800,NA,NA,NA,"BLDU",NA,NA,NA,NA,NA,NA,64.94,"METAR KLBB 101853Z COR 28032G46KT 3SM R17R/5500VP6000FT BLDU SCT008 18/M06 A2954 RMK AO2 PK WND 28046/1851 SKY PR OBSCD BLDU SLP974 T01831061"
"63496","LBB","2008-04-10 19:53:00",-101.8228,33.6636,64.04,19.04,17.52,290,27,NA,29.54,997.5,5,43,"SCT","   ","   ",NA,1700,NA,NA,NA,"BLDU",NA,NA,NA,NA,NA,NA,64.04,"METAR KLBB 101953Z 29027G43KT 5SM BLDU SCT017 18/M07 A2954 RMK AO2 PK WND 28048/1857 SLP975 SKY PR OBSCD BLDU T01781072"
"63497","LBB","2008-04-10 20:53:00",-101.8228,33.6636,64.04,17.96,16.72,290,29,NA,29.55,998,4,36,"FEW","BKN","   ",NA,1700,11000,NA,NA,"BLDU",NA,NA,NA,NA,NA,NA,64.04,"METAR KLBB 102053Z 29029G36KT 4SM BLDU FEW017 BKN110 18/M08 A2955 RMK AO2 PK WND 29041/2035 SLP980 SKY PTLY OBSCD BLDU T01781078 53001"
"63498","LBB","2008-04-10 21:53:00",-101.8228,33.6636,62.96,14,14.62,280,36,NA,29.57,998.8,1.5,49,"BKN","   ","   ",NA,800,NA,NA,NA,"BLDU",NA,NA,NA,NA,NA,NA,62.96,"METAR KLBB 102153Z 28036G49KT 1 1/2SM BLDU BKN008 17/M10 A2957 RMK AO2 PK WND 28049/2150 SLP988 SKY PTLY OBSCD BLDU T01721100"
"63499","LBB","2008-04-10 22:53:00",-101.8228,33.6636,62.06,10.04,12.67,280,37,NA,29.61,1000.1,1.5,49,"SCT","   ","   ",NA,800,NA,NA,NA,"BLDU",NA,NA,NA,NA,NA,NA,62.06,"METAR KLBB 102253Z COR 28037G49KT 1 1/2SM BLDU SCT008 17/M12 A2961 RMK AO2 PK WND 27049/2251 SLP001 SKY PTLY OBSCD BLDU T01671122"
"63500","LBB","2008-04-10 23:53:00",-101.8228,33.6636,62.06,14,15.09,270,28,NA,29.64,1001.3,5,39,"CLR","   ","   ",NA,NA,NA,NA,NA,"BLDU",NA,NA,NA,NA,NA,NA,62.06,"METAR KLBB 102353Z 27028G39KT 5SM BLDU CLR 17/M10 A2964 RMK AO2 PK WND 29044/2259 SLP013 T01671100 10194 20167 53027"
"63788","LBB","2008-04-23 20:53:00",-101.8228,33.6636,71.96,46.94,40.9,130,30,NA,29.81,1005.4,5,42,"SCT","BKN","   ",NA,6000,20000,NA,NA,"BLDU",NA,NA,NA,42,120,"2008-04-23 20:49",70.78,"METAR KLBB 232053Z 13030G42KT 5SM BLDU SCT060 BKN200 22/08 A2981 RMK AO2 PK WND 12042/2049 SLP054 CB DSNT SE-SW-NW MOV NE 60000 T02220083 56054"
"64002","LBB","2008-05-03 04:53:00",-101.8228,33.6636,51.08,21.02,30.39,20,21,NA,30.06,1015.1,5,31,"CLR","   ","   ",NA,NA,NA,NA,NA,"BLDU",NA,NA,NA,35,20,"2008-05-03 04:41",51.08,"METAR KLBB 030453Z 02021G31KT 5SM BLDU CLR 11/M06 A3006 RMK AO2 PK WND 02035/0441 SLP151 BLDU ALQDS T01061061"
"64183","LBB","2008-05-11 01:53:00",-101.8228,33.6636,73.94,41,30.49,40,24,NA,29.9,1007.9,3,35,"FEW","SCT","   ",NA,10000,25000,NA,NA,"HZ BLDU",NA,NA,NA,35,30,"2008-05-11 01:51",72.47,"METAR KLBB 110153Z 04024G35KT 3SM HZ BLDU FEW100 SCT250 23/05 A2990 RMK AO2 PK WND 03035/0151 WSHFT 0110 PRESRR SLP079 BLDU ALQDS T02330050"
"64184","LBB","2008-05-11 02:53:00",-101.8228,33.6636,64.04,37.04,36.68,30,24,NA,29.98,1011,5,32,"FEW","   ","   ",NA,15000,NA,NA,NA,"HZ BLDU",NA,NA,NA,34,30,"2008-05-11 02:42",64.04,"METAR KLBB 110253Z 03024G32KT 5SM HZ BLDU FEW150 18/03 A2998 RMK AO2 PK WND 03034/0242 SLP110 T01780028 53054"
"64223","LBB","2008-05-12 19:53:00",-101.8228,33.6636,91.04,23,8.47,230,24,NA,29.69,1000.5,6,30,"OVC","   ","   ",NA,20000,NA,NA,NA,"BLDU",NA,NA,NA,32,240,"2008-05-12 19:35",85.82,"METAR KLBB 121953Z 23024G30KT 6SM BLDU OVC200 33/M05 A2969 RMK AO2 PK WND 24032/1935 SLP005 T03281050"
"64224","LBB","2008-05-12 20:53:00",-101.8228,33.6636,89.96,19.94,7.7,230,23,NA,29.68,999.9,6,32,"OVC","   ","   ",NA,20000,NA,NA,NA,"BLDU",NA,NA,NA,34,240,"2008-05-12 20:09",84.83,"METAR KLBB 122053Z 23023G32KT 6SM BLDU OVC200 32/M07 A2968 RMK AO2 PK WND 24034/2009 SLP999 T03221067 56030"
"64251","LBB","2008-05-14 00:53:00",-101.8228,33.6636,80.96,41,24.17,90,21,NA,29.79,1003.9,5,26,"BKN","BKN","   ",NA,13000,25000,NA,NA,"BLDU",NA,NA,NA,26,90,"2008-05-14 00:52",79.4,"METAR KLBB 140053Z 09021G26KT 5SM BLDU BKN130 BKN250 27/05 A2979 RMK AO2 PK WND 09026/0052 WSHFT 0035 SLP039 T02720050 $"
"64254","LBB","2008-05-14 04:53:00",-101.8228,33.6636,69.08,48.92,48.6,80,20,NA,29.9,1008,6,29,"SCT","OVC","   ",NA,11000,13000,NA,NA,"BLDU",NA,NA,NA,29,80,"2008-05-14 04:49",69.08,"METAR KLBB 140453Z 08020G29KT 6SM BLDU SCT110 OVC130 21/09 A2990 RMK AO2 PK WND 08029/0449 SLP080 BLDU ALQDS T02060094"
"64403","LBB","2008-05-20 16:53:00",-101.8228,33.6636,82.94,50,31.89,90,16,NA,29.95,1008.6,7,28,"FEW","SCT","   ",NA,15000,25000,NA,NA,"BLDU",NA,NA,NA,28,90,"2008-05-20 16:44",81.35,"METAR KLBB 201653Z 09016G28KT 7SM BLDU FEW150 SCT250 28/10 A2995 RMK AO2 PK WND 09028/1644 SLP086 T02830100"
"64436","LBB","2008-05-22 01:53:00",-101.8228,33.6636,89.96,33.08,13.26,170,17,NA,29.39,989.5,5,33,"BKN","BKN","   ",NA,13000,25000,NA,NA,"BLDU",NA,NA,NA,37,160,"2008-05-22 01:38",85.89,"METAR KLBB 220153Z 17017G33KT 5SM BLDU BKN130 BKN250 32/01 A2939 RMK AO2 PK WND 16037/0138 SLP895 OCNL LTGIC DSNT SW CB DSNT SW MOV NE T03220006"
"64437","LBB","2008-05-22 02:53:00",-101.8228,33.6636,89.06,37.04,15.97,220,25,NA,29.41,990.1,3,39,"OVC","   ","   ",NA,13000,NA,NA,NA,"-RA BLDU",NA,NA,NA,39,170,"2008-05-22 02:45",85.2,"METAR KLBB 220253Z 22025G39KT 3SM -RA BLDU OVC130CB 32/03 A2941 RMK AO2 PK WND 17039/0245 RAB44 SLP901 CB ALQDS MOV NE P0000 60000 T03170028 53001"
"64531","LBB","2008-05-26 00:53:00",-101.8228,33.6636,84.92,44.96,24.75,230,15,NA,29.8,1003.5,3,NA,"BKN","BKN","   ",NA,7000,20000,NA,NA,"BLDU",NA,NA,NA,34,200,"2008-05-25 23:59",82.28,"METAR KLBB 260053Z 23015KT 3SM BLDU BKN070 BKN200 29/07 A2980 RMK AO2 PK WND 20034/2359 SLP035 CB DSNT NW-N MOVG NE VIRGA NW-NE BLDU SW-NW-NE T02940072"
"64532","LBB","2008-05-26 01:53:00",-101.8228,33.6636,82.94,44.06,25.5,200,15,NA,29.8,1003.9,4,20,"SCT","SCT","   ",NA,5000,20000,NA,NA,"BLDU",NA,NA,NA,NA,NA,NA,80.82,"METAR KLBB 260153Z 20015G20KT 4SM BLDU SCT050 SCT200 28/07 A2980 RMK AO2 SLP039 BLDU ALQDS CB MOVD NE T02830067"
"64533","LBB","2008-05-26 02:53:00",-101.8228,33.6636,80.96,44.06,27.19,200,16,NA,29.82,1004.2,5,28,"FEW","SCT","SCT",NA,1900,10000,20000,NA,"BLDU",NA,NA,NA,30,210,"2008-05-26 02:39",79.59,"METAR KLBB 260253Z COR 20016G28KT 5SM BLDU FEW019 SCT100 SCT200 27/07 A2982 RMK AO2 PK WND 21030/0239 SLP042 BLDU ALQDS T02720067 51012"
"64618","LBB","2008-05-29 17:53:00",-101.8228,33.6636,82.94,60.08,46.03,170,23,NA,30.04,1012.1,6,29,"FEW","   ","   ",NA,20000,NA,NA,NA,"BLDU",NA,NA,NA,32,180,"2008-05-29 17:02",83.16,"METAR KLBB 291753Z 17023G29KT 6SM BLDU FEW200 28/16 A3004 RMK AO2 PK WND 18032/1702 SLP121 T02830156 10283 20178 57015"
"64619","LBB","2008-05-29 18:53:00",-101.8228,33.6636,84.92,57.02,38.7,180,21,NA,30.02,1011.5,5,30,"CLR","   ","   ",NA,NA,NA,NA,NA,"BLDU",NA,NA,NA,33,180,"2008-05-29 18:36",84.92,"METAR KLBB 291853Z 18021G30KT 5SM BLDU CLR 29/14 A3002 RMK AO2 PK WND 18033/1836 SLP115 SCT000 BLDU T02940139"
"64620","LBB","2008-05-29 19:53:00",-101.8228,33.6636,87.08,53.96,32.32,190,24,NA,30.01,1010.7,5,31,"CLR","   ","   ",NA,NA,NA,NA,NA,"BLDU",NA,NA,NA,33,180,"2008-05-29 19:00",85.16,"METAR KLBB 291953Z COR 19024G31KT 5SM BLDU CLR 31/12 A3001 RMK AO2 PK WND 18033/1900 SCT000 BLDU SLP107 T03060122"
"64621","LBB","2008-05-29 20:53:00",-101.8228,33.6636,87.98,51.98,29.2,180,21,NA,29.99,1010,4,31,"CLR","   ","   ",NA,NA,NA,NA,NA,"BLDU",NA,NA,NA,33,190,"2008-05-29 20:33",85.57,"METAR KLBB 292053Z 18021G31KT 4SM BLDU CLR 31/11 A2999 RMK AO2 PK WND 19033/2033 SLP100 T03110111 58017"
"64622","LBB","2008-05-29 21:53:00",-101.8228,33.6636,89.06,51.08,27.3,190,25,NA,29.97,1009.6,6,30,"CLR","   ","   ",NA,NA,NA,NA,NA,"BLDU",NA,NA,NA,31,170,"2008-05-29 21:28",86.38,"METAR KLBB 292153Z 19025G30KT 6SM BLDU CLR 32/11 A2997 RMK AO2 PK WND 17031/2128 SLP096 T03170106"
"64773","LBB","2008-06-05 06:53:00",-101.8228,33.6636,82.04,55.94,40.84,190,24,NA,29.48,991.5,5,33,"FEW","SCT","   ",NA,20000,25000,NA,NA,"BLDU",NA,NA,NA,NA,NA,NA,81.58,"METAR KLBB 050653Z 19024G33KT 5SM BLDU FEW200 SCT250 28/13 A2948 RMK AO2 PK WND 19033/0651 SLP915 BLDU ALQDS T02780133"
"64774","LBB","2008-06-05 07:53:00",-101.8228,33.6636,80.96,55.94,42.3,190,21,NA,29.47,991,4,32,"SCT","BKN","   ",NA,20000,25000,NA,NA,"BLDU",NA,NA,NA,NA,NA,NA,80.85,"METAR KLBB 050753Z 19021G32KT 4SM BLDU SCT200 BKN250 27/13 A2947 RMK AO2 PK WND 19032/0751 SLP910 BLDU ALQDS T02720133"
"64775","LBB","2008-06-05 08:53:00",-101.8228,33.6636,80.06,57.92,46.79,190,19,NA,29.47,991,5,25,"FEW","SCT","   ",NA,20000,25000,NA,NA,"BLDU",NA,NA,NA,NA,NA,NA,80.56,"METAR KLBB 050853Z COR 19019G25KT 5SM BLDU FEW200 SCT250 27/14 A2947 RMK AO2 PK WND 20034/0801 BLDU ALQDS SLP910 T02670144 55004"
"64776","LBB","2008-06-05 09:53:00",-101.8228,33.6636,78.98,60.08,52.37,190,25,NA,29.48,991.3,6,31,"FEW","BKN","   ",NA,20000,25000,NA,NA,"BLDU",NA,NA,NA,NA,NA,NA,80.12,"METAR KLBB 050953Z 19025G31KT 6SM BLDU FEW200 BKN250 26/16 A2948 RMK AO2 PK WND 19033/0930 SLP913 BLDU ALQDS BKN LYR THN T02610156"
"64787","LBB","2008-06-05 20:53:00",-101.8228,33.6636,93.02,30.92,11.05,260,34,NA,29.52,993.2,4,42,"FEW","   ","   ",NA,13000,NA,NA,NA,"BLDU",NA,NA,NA,NA,NA,NA,88.03,"METAR KLBB 052053Z 26034G42KT 4SM BLDU FEW130 34/M01 A2952 RMK AO2 PK WND 26042/2052 SLP932 T03391006 55005"
"64788","LBB","2008-06-05 21:53:00",-101.8228,33.6636,91.94,30.02,11.01,260,30,NA,29.54,993.8,3,43,"CLR","   ","   ",NA,NA,NA,NA,NA,"BLDU",NA,NA,NA,NA,NA,NA,87.1,"METAR KLBB 052153Z 26030G43KT 3SM BLDU CLR 33/M01 A2954 RMK AO2 PK WND 24043/2145 SLP938 T03331011"
"64789","LBB","2008-06-05 22:53:00",-101.8228,33.6636,91.94,28.94,10.54,250,31,NA,29.54,993.9,4,41,"CLR","   ","   ",NA,NA,NA,NA,NA,"BLDU",NA,NA,NA,NA,NA,NA,86.99,"METAR KLBB 052253Z 25031G41KT 4SM BLDU CLR 33/M02 A2954 RMK AO2 PK WND 25043/2233 SLP939 T03331017"
"64790","LBB","2008-06-05 23:53:00",-101.8228,33.6636,89.96,26.06,9.96,240,27,NA,29.56,994.9,4,38,"CLR","   ","   ",NA,NA,NA,NA,NA,"BLDU",NA,NA,NA,NA,NA,NA,85.24,"METAR KLBB 052353Z 24027G38KT 4SM BLDU CLR 32/M03 A2956 RMK AO2 PK WND 24042/2316 SLP949 T03221033 10350 20322 53012"
"64791","LBB","2008-06-06 00:53:00",-101.8228,33.6636,87.98,26.06,10.6,240,17,NA,29.59,995.9,6,34,"CLR","   ","   ",NA,NA,NA,NA,NA,"BLDU",NA,NA,NA,38,240,"2008-06-06 00:06",83.78,"METAR KLBB 060053Z 24017G34KT 6SM BLDU CLR 31/M03 A2959 RMK AO2 PK WND 24038/0006 SLP959 T03111033"
"64831","LBB","2008-06-07 16:53:00",-101.8228,33.6636,86,64.04,47.97,190,23,NA,29.89,1006.1,3,31,"FEW","   ","   ",NA,3500,NA,NA,NA,"BLDU",NA,NA,NA,35,190,"2008-06-07 16:37",87.33,"METAR KLBB 071653Z 19023G31KT 3SM BLDU FEW035 30/18 A2989 RMK AO2 PK WND 19035/1637 SLP061 BLDU ALQDS SKY PTLY OBSCD T03000178"
"64832","LBB","2008-06-07 17:53:00",-101.8228,33.6636,89.06,62.96,41.91,190,24,NA,29.88,1005.7,4,33,"CLR","   ","   ",NA,NA,NA,NA,NA,"BLDU",NA,NA,NA,34,190,"2008-06-07 17:22",89.93,"METAR KLBB 071753Z 19024G33KT 4SM BLDU CLR 32/17 A2988 RMK AO2 PK WND 19034/1722 SLP057 BLDU ALQDS SKY PTLY OBSCD T03170172 10322 20239 56014 $"
"64833","LBB","2008-06-07 18:53:00",-101.8228,33.6636,91.94,62.06,37.1,200,24,NA,29.85,1004.8,4,33,"CLR","   ","   ",NA,NA,NA,NA,NA,"BLDU",NA,NA,NA,33,180,"2008-06-07 18:46",91.94,"METAR KLBB 071853Z 20024G33KT 4SM BLDU CLR 33/17 A2985 RMK AO2 PK WND 18033/1846 SLP048 BLDU ALQDS SKY PTLY OBSCD T03330167 $"
"64834","LBB","2008-06-07 19:53:00",-101.8228,33.6636,93.92,60.08,32.52,190,20,NA,29.83,1004,5,32,"CLR","   ","   ",NA,NA,NA,NA,NA,"BLDU",NA,NA,NA,33,190,"2008-06-07 19:30",93.92,"METAR KLBB 071953Z 19020G32KT 5SM BLDU CLR 34/16 A2983 RMK AO2 PK WND 19033/1930 SLP040 BLDU ALQDS T03440156 $"
"64835","LBB","2008-06-07 20:53:00",-101.8228,33.6636,93.92,60.08,32.52,190,24,NA,29.82,1003.5,4,37,"FEW","   ","   ",NA,5000,NA,NA,NA,"BLDU",NA,NA,NA,37,190,"2008-06-07 20:48",93.92,"METAR KLBB 072053Z 19024G37KT 4SM BLDU FEW050 34/16 A2982 RMK AO2 PK WND 19037/2048 SLP035 BLDU ALQDS T03440156 56018 $"
"64836","LBB","2008-06-07 21:53:00",-101.8228,33.6636,95,60.08,31.45,180,24,NA,29.79,1002.7,5,32,"FEW","   ","   ",NA,5000,NA,NA,NA,"BLDU",NA,NA,NA,36,190,"2008-06-07 21:23",95,"METAR KLBB 072153Z 18024G32KT 5SM BLDU FEW050 35/16 A2979 RMK AO2 PK WND 19036/2123 SLP027 BLDU ALQDS T03500156 $"
"64837","LBB","2008-06-07 22:53:00",-101.8228,33.6636,93.92,57.92,30.1,180,25,NA,29.79,1002.5,6,32,"FEW","   ","   ",NA,6000,NA,NA,NA,"BLDU",NA,NA,NA,33,190,"2008-06-07 22:38",93.92,"METAR KLBB 072253Z 18025G32KT 6SM BLDU FEW060 34/14 A2979 RMK AO2 PK WND 19033/2238 SLP025 BLDU ALQDS T03440144"
"64838","LBB","2008-06-07 23:53:00",-101.8228,33.6636,91.94,59,33.27,170,25,NA,29.77,1002,5,33,"FEW","   ","   ",NA,10000,NA,NA,NA,"BLDU",NA,NA,NA,35,160,"2008-06-07 23:12",91.94,"METAR KLBB 072353Z 17025G33KT 5SM BLDU FEW100 33/15 A2977 RMK AO2 PK WND 16035/2312 SLP020 BLDU ALQDS T03330150 10356 20317 56014"
"64847","LBB","2008-06-08 08:53:00",-101.8228,33.6636,78.08,62.06,57.87,180,20,NA,29.79,1002.4,4,28,"BKN","   ","   ",NA,25000,NA,NA,NA,"BLDU",NA,NA,NA,35,190,"2008-06-08 07:57",78.08,"METAR KLBB 080853Z COR 18020G28KT 4SM BLDU BKN250 26/17 A2979 RMK AO2 PK WND 19035/0757 SLP024 BLDU ALQDS BKN LYR THN T02560167 58010 $"
"64854","LBB","2008-06-08 15:53:00",-101.8228,33.6636,82.94,64.04,52.93,200,19,NA,29.88,1005.8,6,26,"CLR","   ","   ",NA,NA,NA,NA,NA,"BLDU",NA,NA,NA,29,180,"2008-06-08 15:28",84.37,"METAR KLBB 081553Z 20019G26KT 6SM BLDU CLR 28/18 A2988 RMK AO2 PK WND 18029/1528 SLP058 BLDU ALQDS T02830178 $"
"64855","LBB","2008-06-08 16:53:00",-101.8228,33.6636,86,64.04,47.97,190,21,NA,29.87,1005.6,6,28,"FEW","   ","   ",NA,4500,NA,NA,NA,"BLDU",NA,NA,NA,28,190,"2008-06-08 16:53",87.33,"METAR KLBB 081653Z 19021G28KT 6SM BLDU FEW045 30/18 A2987 RMK AO2 PK WND 19028/1653 SLP056 BLDU ALQDS T03000178 $"
"64867","LBB","2008-06-09 04:53:00",-101.8228,33.6636,82.04,60.98,48.93,200,27,NA,29.76,1001.6,6,32,"FEW","   ","   ",NA,25000,NA,NA,NA,"BLDU",NA,NA,NA,40,190,"2008-06-09 04:36",82.65,"METAR KLBB 090453Z 20027G32KT 6SM BLDU FEW250 28/16 A2976 RMK AO2 PK WND 19040/0436 SLP016 BLDU ALQDS CB DSNT NW-NE DSIPTD T02780161"
"64937","LBB","2008-06-12 03:53:00",-101.8228,33.6636,87.98,50,27.14,180,26,NA,29.73,1000.1,6,32,"CLR","   ","   ",NA,NA,NA,NA,NA,"BLDU",NA,NA,NA,37,180,"2008-06-12 03:38",85.26,"METAR KLBB 120353Z COR 18026G32KT 6SM BLDU CLR 31/10 A2973 RMK AO2 PK WND 18037/0338 SLP001 T03110100"
"65198","LBB","2008-06-23 02:53:00",-101.8228,33.6636,75.02,53.96,47.89,350,8,NA,30.13,1015.1,5,35,"BKN","OVC","   ",NA,10000,20000,NA,NA,"-TSRA BLDU",NA,NA,NA,35,350,"2008-06-23 02:47",75.02,"METAR KLBB 230253Z 35008G35KT 280V030 5SM -TSRA BLDU BKN100CB OVC200 24/12 A3013 RMK AO2 PK WND 35035/0247 TSB43RAB51 SLP151 OCNL LTGICCG W-N TS OHD AND W-N MOVG SE P0000 60000 T02390122 53027 $"
"65272","LBB","2008-06-26 04:53:00",-101.8228,33.6636,78.08,59,51.91,220,7,NA,30.07,1012.3,4,NA,"FEW","SCT","SCT",NA,1700,9000,16000,NA,"BLDU",NA,NA,NA,NA,NA,NA,78.08,"METAR KLBB 260453Z 22007KT 4SM BLDU FEW017 SCT090 SCT160 OVC230 26/15 A3007 RMK AO2 SLP123 CB DSNT W-NW DSIPTD SKY PTLY OBSCD T02560150"
"66706","LBB","2008-08-25 22:53:00",-101.8228,33.6636,78.98,60.08,52.37,70,25,NA,30.01,1011.5,5,30,"BKN","BKN","   ",NA,6000,20000,NA,NA,"BLDU",NA,NA,NA,NA,NA,NA,80.12,"METAR KLBB 252253Z 07025G30KT 5SM BLDU BKN060TCU BKN200 26/16 A3001 RMK AO2 PK WND 07030/2253 SLP115 CB DSNT NE-SE MOVG SW TCU ALQDS T02610156"
"69065","LBB","2008-12-03 15:53:00",-101.8228,33.6636,44.06,28.94,55.02,360,31,NA,30.01,1014,6,41,"SCT","BKN","   ",NA,15000,25000,NA,NA,"BLDU",NA,NA,NA,42,360,"2008-12-03 14:57",33.13,"METAR KLBB 031553Z 36031G41KT 6SM BLDU SCT150 BKN250 07/M02 A3001 RMK AO2 PK WND 36042/1457 SLP140 T00671017"
"69192","LBB","2008-12-08 22:53:00",-101.8228,33.6636,57.02,42.08,57.29,260,22,NA,29.6,1000.2,3,31,"SCT","BKN","OVC",NA,2900,4000,6000,NA,"-RA BLDU",NA,NA,NA,37,250,"2008-12-08 22:29",57.02,"METAR KLBB 082253Z 26022G31KT 3SM -RA BLDU SCT029 BKN040CB OVC060 14/06 A2960 RMK AO2 PK WND 25037/2229 WSHFT 2218 RAB31 SLP002 CB ALQDS MOV NE P0000 T01390056"
"69328","LBB","2008-12-14 17:53:00",-101.8228,33.6636,68,30.02,24.14,250,34,NA,29.63,1000.1,1,46,"OVC","   ","   ",NA,700,NA,NA,NA,"BLDU",NA,NA,NA,49,260,"2008-12-14 17:43",68,"METAR KLBB 141753Z 25034G46KT 1SM BLDU OVC007 20/M01 A2963 RMK AO2 PK WND 26049/1743 SFC VIS 2 SLP001 T02001011 10200 20067 56007"
"69329","LBB","2008-12-14 18:53:00",-101.8228,33.6636,69.98,30.02,22.55,260,32,NA,29.62,999.5,1.75,41,"SCT","   ","   ",NA,1100,NA,NA,NA,"BLDU",NA,NA,NA,50,250,"2008-12-14 17:57",69.98,"METAR KLBB 141853Z 26032G41KT 1 3/4SM BLDU SCT011 21/M01 A2962 RMK AO2 PK WND 25050/1757 SFC VIS 3 SLP995 T02111011"
"69330","LBB","2008-12-14 19:53:00",-101.8228,33.6636,71.06,28.04,20.05,260,32,NA,29.61,999.4,3,41,"BKN","   ","   ",NA,800,NA,NA,NA,"BLDU",NA,NA,NA,48,260,"2008-12-14 19:31",68.81,"METAR KLBB 141953Z 26032G41KT 3SM BLDU BKN008 22/M02 A2961 RMK AO2 PK WND 26048/1931 SFC VIS 3 SLP994 T02171022"
"69331","LBB","2008-12-14 20:53:00",-101.8228,33.6636,71.06,28.04,20.05,270,29,NA,29.63,999.8,6,37,"SCT","SCT","   ",NA,1400,9000,NA,NA,"BLDU",NA,NA,NA,45,240,"2008-12-14 20:18",68.81,"METAR KLBB 142053Z 27029G37KT 6SM BLDU SCT014 SCT090 22/M02 A2963 RMK AO2 PK WND 24045/2018 SLP998 T02171022 53002"
"69543","LBB","2008-12-23 23:53:00",-101.8228,33.6636,62.96,24.08,22.52,240,19,NA,29.62,1001.2,6,24,"CLR","   ","   ",NA,NA,NA,NA,NA,"BLDU",NA,NA,NA,32,260,"2008-12-23 23:02",62.96,"METAR KLBB 232353Z 24019G24KT 6SM BLDU CLR 17/M04 A2962 RMK AO2 PK WND 26032/2302 SLP012 T01721044 10178 20089 53001"
"69544","LBB","2008-12-24 00:53:00",-101.8228,33.6636,62.96,24.08,22.52,240,21,NA,29.65,1002.2,6,27,"CLR","   ","   ",NA,NA,NA,NA,NA,"BLDU",NA,NA,NA,31,240,"2008-12-24 00:22",62.96,"METAR KLBB 240053Z 24021G27KT 6SM BLDU CLR 17/M04 A2965 RMK AO2 PK WND 24031/0022 SLP022 T01721044"
"69611","LBB","2008-12-26 20:53:00",-101.8228,33.6636,71.06,30.02,21.74,210,28,NA,29.64,1000.4,6,39,"CLR","   ","   ",NA,NA,NA,NA,NA,"BLDU",NA,NA,NA,NA,NA,NA,68.89,"METAR KLBB 262053Z 21028G39KT 6SM BLDU CLR 22/M01 A2964 RMK AO2 PK WND 21039/2050 SLP004 T02171011 56034"
"69612","LBB","2008-12-26 21:53:00",-101.8228,33.6636,69.98,28.94,21.58,200,27,NA,29.64,1000.3,6,34,"CLR","   ","   ",NA,NA,NA,NA,NA,"BLDU",NA,NA,NA,NA,NA,NA,69.98,"METAR KLBB 262153Z 20027G34KT 6SM BLDU CLR 21/M02 A2964 RMK AO2 PK WND 21036/2137 SLP003 T02111017"
"69627","LBB","2008-12-27 13:53:00",-101.8228,33.6636,35.06,12.92,39.58,280,29,NA,29.9,1010.9,5,39,"SCT","   ","   ",NA,10000,NA,NA,NA,"BLDU",NA,NA,NA,NA,NA,NA,21.1,"METAR KLBB 271353Z 28029G39KT 5SM BLDU SCT100 02/M11 A2990 RMK AO2 PK WND 28039/1353 SLP109 T00171106 $"
"69629","LBB","2008-12-27 15:53:00",-101.8228,33.6636,35.96,8.06,30.76,270,30,NA,29.96,1013.5,6,42,"FEW","   ","   ",NA,12000,NA,NA,NA,"BLDU",NA,NA,NA,NA,NA,NA,22.14,"METAR KLBB 271553Z 27030G42KT 6SM BLDU FEW120 02/M13 A2996 RMK AO2 PK WND 28042/1544 SLP135 T00221133 $"
"69630","LBB","2008-12-27 16:53:00",-101.8228,33.6636,39.02,6.98,25.97,290,30,NA,30,1014.6,3,39,"CLR","   ","   ",NA,NA,NA,NA,NA,"BLDU",NA,NA,NA,NA,NA,NA,26.35,"METAR KLBB 271653Z 29030G39KT 3SM BLDU CLR 04/M14 A3000 RMK AO2 PK WND 28039/1651 SLP146 T00391139 $"
"69745","LBB","2009-01-01 17:53:00",-101.8228,33.6636,66.92,19.04,15.85,290,26,NA,29.87,1009.3,5,39,"CLR","   ","   ",NA,NA,NA,NA,NA,"BLDU",NA,NA,NA,NA,NA,NA,66.92,"METAR KLBB 011753Z 29026G39KT 5SM BLDU CLR 19/M07 A2987 RMK AO2 PK WND 29039/1750 SLP093 T01941072 10194 20000 56012"
"69939","LBB","2009-01-10 03:53:00",-101.8228,33.6636,44.96,30.92,57.63,20,28,NA,30.08,1017,6,42,"CLR","   ","   ",NA,NA,NA,NA,NA,"BLDU",NA,NA,NA,NA,NA,NA,34.84,"METAR KLBB 100353Z 02028G42KT 6SM BLDU CLR 07/M01 A3008 RMK AO2 PK WND 01042/0353 SLP170 T00721006"
"70003","LBB","2009-01-12 21:53:00",-101.8228,33.6636,51.98,26.96,37.68,10,28,NA,30.21,1022.6,6,36,"SCT","   ","   ",NA,6500,NA,NA,NA,"BLDU",NA,NA,NA,NA,NA,NA,51.98,"METAR KLBB 122153Z 01028G36KT 6SM BLDU SCT065 11/M03 A3021 RMK AO2 PK WND 02036/2153 SLP226 T01111028"
"70934","LBB","2009-02-21 07:53:00",-101.8228,33.6636,46.04,8.96,21.68,10,27,NA,29.98,1012.6,4,39,"FEW","   ","   ",NA,1800,NA,NA,NA,"BLDU",NA,NA,NA,39,10,"2009-02-21 07:51",36.48,"METAR KLBB 210753Z 01027G39KT 4SM BLDU FEW018 08/M13 A2998 RMK AO2 PK WND 01039/0751 PRESRR SLP126 T00781128"
"70935","LBB","2009-02-21 08:53:00",-101.8228,33.6636,33.98,21.02,58.66,10,31,NA,30.07,1016.5,4,43,"SCT","SCT","   ",NA,700,2000,NA,NA,"BLDU",NA,NA,NA,45,10,"2009-02-21 08:10",19.22,"METAR KLBB 210853Z 01031G43KT 4SM BLDU SCT007 SCT020 01/M06 A3007 RMK AO2 PK WND 01045/0810 SLP165 SCT007 LYR DU T00111061 53062"
"71287","LBB","2009-03-08 05:53:00",-101.8228,33.6636,57.92,10.94,15.28,310,27,NA,29.9,1008.9,6,42,"CLR","   ","   ",NA,NA,NA,NA,NA,"BLDU",NA,NA,NA,42,300,"2009-03-08 05:44",57.92,"METAR KLBB 080553Z 31027G42KT 6SM BLDU CLR 14/M12 A2990 RMK AO2 PK WND 30042/0544 WSHFT 0529 SLP089 FEW004 LYR DU FROPA T01441117 10244 20144 402670128 53034"
"71825","LBB","2009-03-30 19:53:00",-101.8228,33.6636,77,17.06,10.34,310,29,NA,29.59,997.7,4,48,"CLR","   ","   ",NA,NA,NA,NA,NA,"BLDU SQ",NA,NA,NA,NA,NA,NA,74.89,"METAR KLBB 301953Z 31029G48KT 4SM BLDU SQ CLR 25/M08 A2959 RMK AO2 PK WND 30048/1951 SLP977 T02501083"
"71826","LBB","2009-03-30 20:53:00",-101.8228,33.6636,71.96,19.94,13.86,300,30,NA,29.62,998.9,6,36,"CLR","   ","   ",NA,NA,NA,NA,NA,"BLDU",NA,NA,NA,NA,NA,NA,69.51,"METAR KLBB 302053Z 30030G36KT 6SM BLDU CLR 22/M07 A2962 RMK AO2 PK WND 31043/2021 SLP989 T02221067 53009"
"71828","LBB","2009-03-30 22:53:00",-101.8228,33.6636,66.02,15.08,13.78,300,29,NA,29.67,1001.2,4,36,"CLR","   ","   ",NA,NA,NA,NA,NA,"BLDU",NA,NA,NA,NA,NA,NA,66.02,"METAR KLBB 302253Z 30029G36KT 4SM BLDU CLR 19/M09 A2967 RMK AO2 PK WND 31041/2223 SLP012 T01891094"
"71882","LBB","2009-04-02 04:53:00",-101.8228,33.6636,51.08,32,47.85,310,31,NA,29.58,998.4,5,47,"SCT","BKN","BKN",NA,600,1800,18000,NA,"BLDU",NA,NA,NA,47,300,"2009-04-02 04:47",51.08,"METAR KLBB 020453Z 31031G47KT 5SM BLDU SCT006 BKN018 BKN180 11/00 A2958 RMK AO2 PK WND 30047/0447 SLP984 T01060000"
"72058","LBB","2009-04-09 14:53:00",-101.8228,33.6636,62.96,19.04,18.19,280,32,NA,29.64,999.3,5,42,"CLR","   ","   ",NA,NA,NA,NA,NA,"BLDU",NA,NA,NA,42,280,"2009-04-09 14:51",62.96,"METAR KLBB 091453Z 28032G42KT 5SM BLDU CLR 17/M07 A2964 RMK AO2 PK WND 28042/1451 SLP993 T01721072 50016"
"72059","LBB","2009-04-09 15:53:00",-101.8228,33.6636,62.96,19.94,18.9,270,36,NA,29.64,999.4,1.75,48,"CLR","   ","   ",NA,NA,NA,NA,NA,"BLDU",NA,NA,NA,48,280,"2009-04-09 15:53",62.96,"METAR KLBB 091553Z 27036G48KT 1 3/4SM R17R/6000VP6000FT BLDU CLR 17/M07 A2964 RMK AO2 PK WND 28048/1553 TWR VIS 2 SLP994 T01721067"
"72060","LBB","2009-04-09 16:53:00",-101.8228,33.6636,64.94,19.94,17.64,290,32,NA,29.65,999.8,2,50,"CLR","   ","   ",NA,NA,NA,NA,NA,"BLDU",NA,NA,NA,53,280,"2009-04-09 15:55",64.94,"METAR KLBB 091653Z 29032G50KT 2SM BLDU CLR 18/M07 A2965 RMK AO2 PK WND 28053/1555 SFC VIS 2 1/2 VIS 2V3 SLP998 T01831067"
"72061","LBB","2009-04-09 17:53:00",-101.8228,33.6636,69.08,15.98,12.89,290,36,NA,29.64,999.2,2,48,"CLR","   ","   ",NA,NA,NA,NA,NA,"BLDU",NA,NA,NA,54,280,"2009-04-09 17:42",69.08,"METAR KLBB 091753Z 29036G48KT 2SM BLDU CLR 21/M09 A2964 RMK AO2 PK WND 28054/1742 SLP992 T02061089 10206 20161 50001"
"72062","LBB","2009-04-09 18:53:00",-101.8228,33.6636,69.98,10.94,10.02,270,36,NA,29.64,999.1,2,48,"CLR","   ","   ",NA,NA,NA,NA,NA,"BLDU",NA,NA,NA,52,290,"2009-04-09 18:04",69.98,"METAR KLBB 091853Z 27036G48KT 2SM BLDU CLR 21/M12 A2964 RMK AO2 PK WND 29052/1804 SFC VIS 3 SLP991 T02111117"
"72063","LBB","2009-04-09 19:53:00",-101.8228,33.6636,73.04,10.94,9.03,270,33,NA,29.64,999,5,47,"CLR","   ","   ",NA,NA,NA,NA,NA,"BLDU",NA,NA,NA,47,280,"2009-04-09 19:51",70.47,"METAR KLBB 091953Z 27033G47KT 5SM BLDU CLR 23/M12 A2964 RMK AO2 PK WND 28047/1951 SLP990 T02281117"
"72064","LBB","2009-04-09 20:53:00",-101.8228,33.6636,73.94,14,10.03,280,24,NA,29.64,998.7,5,38,"FEW","   ","   ",NA,14000,NA,NA,NA,"BLDU",NA,NA,NA,48,290,"2009-04-09 20:10",71.51,"METAR KLBB 092053Z 28024G38KT 5SM BLDU FEW140 23/M10 A2964 RMK AO2 PK WND 29048/2010 SLP987 T02331100 58001"
"72915","LBB","2009-05-15 21:53:00",-101.8228,33.6636,86,30.02,13.29,180,25,NA,29.82,1004.2,5,40,"SCT","BKN","OVC",NA,9000,15000,20000,NA,"BLDU",NA,NA,NA,40,180,"2009-05-15 21:45",82.64,"METAR KLBB 152153Z 18025G40KT 5SM BLDU SCT090 BKN150 OVC200 30/M01 A2982 RMK AO2 PK WND 18040/2145 SLP042 CB DSNT SW MOV NE T03001011"
"72916","LBB","2009-05-15 22:53:00",-101.8228,33.6636,84.02,32,15.34,200,26,NA,29.79,1003.6,6,39,"FEW","BKN","OVC",NA,9000,14000,20000,NA,"BLDU",NA,NA,NA,51,190,"2009-05-15 22:17",81.14,"METAR KLBB 152253Z 20026G39KT 6SM BLDU FEW090 BKN140 OVC200 29/00 A2979 RMK AO2 PK WND 19051/2217 RAB19E29 SLP036 CB DSNT S-SW MOV NE P0000 T02890000"
"73421","LBB","2009-06-06 05:53:00",-101.8228,33.6636,80.96,46.04,29.32,200,20,NA,29.89,1006.3,2.5,29,"OVC","   ","   ",NA,1300,NA,NA,NA,"BLDU",NA,NA,NA,29,200,"2009-06-06 05:47",79.74,"METAR KLBB 060553Z 20020G29KT 2 1/2SM BLDU OVC013 27/08 A2989 RMK AO2 PK WND 20029/0547 SLP063 OVC013 DU T02720078 10333 20250 403440161 55016"
"73422","LBB","2009-06-06 06:53:00",-101.8228,33.6636,82.04,46.04,28.3,210,17,NA,29.87,1005.3,6,26,"FEW","SCT","OVC",NA,1300,15000,20000,NA,"BLDU",NA,NA,NA,27,200,"2009-06-06 05:54",80.38,"METAR KLBB 060653Z 21017G26KT 6SM BLDU FEW013 SCT150 OVC200 28/08 A2987 RMK AO2 PK WND 20027/0554 SLP053 T02780078"
"73724","LBB","2009-06-19 01:53:00",-101.8228,33.6636,73.94,57.92,57.32,270,28,NA,29.9,1007.3,NA,45,"SCT","BKN","OVC",NA,3000,6500,10000,NA,"BLDU",NA,NA,NA,51,250,"2009-06-19 01:40",73.94,"METAR KLBB 190153Z 27028G45KT BLDU SCT030 BKN065 OVC100 23/14 A2990 RMK AO2 PK WND 25051/0140 WSHFT 0127 SFC VIS 1 1/4 SLP073 CB DSNT W-NW MOV NE T02330144"
"75972","LBB","2009-09-22 01:53:00",-101.8228,33.6636,60.08,46.04,59.72,10,21,NA,30.05,1014.2,4,32,"FEW","BKN","OVC",NA,5500,9500,12000,NA,"BLDU",NA,NA,NA,42,10,"2009-09-22 01:24",60.08,"METAR KLBB 220153Z 01021G32KT 4SM BLDU FEW055 BKN095 OVC120 16/08 A3005 RMK AO2 PK WND 01042/0124 PRESRR SLP142 CB DSNT SW MOV SE T01560078"
"77823","LBB","2009-12-08 20:53:00",-101.8228,33.6636,53.06,32,44.48,270,37,0.02,29.46,997.1,4,52,"SCT","BKN","   ",NA,1800,8500,NA,NA,"BLDU",NA,NA,NA,52,270,"2009-12-08 20:50",53.06,"METAR KLBB 082053Z 27037G52KT 4SM BLDU SCT018 BKN085 12/00 A2946 RMK AO2 PK WND 27052/2050 RAE18 SLP971 P0002 60008 T01170000 58005"
"77824","LBB","2009-12-08 21:53:00",-101.8228,33.6636,53.06,19.94,26.98,280,35,NA,29.52,999.2,2,49,"SCT","BKN","   ",NA,1200,3500,NA,NA,"BLDU",NA,NA,NA,49,280,"2009-12-08 21:52",53.06,"METAR KLBB 082153Z 28035G49KT 2SM BLDU SCT012 BKN035 12/M07 A2952 RMK AO2 PK WND 28049/2152 SLP992 T01171067"
"77825","LBB","2009-12-08 22:53:00",-101.8228,33.6636,51.98,15.98,23.68,280,28,NA,29.56,1000.3,2,37,"SCT","   ","   ",NA,1000,NA,NA,NA,"BLDU",NA,NA,NA,44,280,"2009-12-08 22:06",51.98,"METAR KLBB 082253Z 28028G37KT 2SM BLDU SCT010 11/M09 A2956 RMK AO2 PK WND 28044/2206 SFC VIS 2 1/2 SLP003 T01111089"
"77826","LBB","2009-12-08 23:53:00",-101.8228,33.6636,48.92,15.08,25.51,280,17,NA,29.59,1001.7,4,25,"CLR","   ","   ",NA,NA,NA,NA,NA,"BLDU",NA,NA,NA,39,280,"2009-12-08 22:57",42.24,"METAR KLBB 082353Z 28017G25KT 4SM BLDU CLR 09/M09 A2959 RMK AO2 PK WND 28039/2257 SLP017 60008 T00941094 10122 20044 51039"
"78823","LBB","2010-01-19 23:53:00",-101.8228,33.6636,62.06,23,22.21,260,26,NA,29.71,1004,5,31,"BKN","BKN","   ",NA,14000,25000,NA,NA,"BLDU",NA,NA,NA,NA,NA,NA,62.06,"METAR KLBB 192353Z 26026G31KT 5SM BLDU BKN140 BKN250 17/M05 A2971 RMK AO2 PK WND 26034/2340 SLP040 60000 T01671050 10194 20133 55006"
"78891","LBB","2010-01-22 19:53:00",-101.8228,33.6636,73.94,30.02,19.72,230,28,NA,29.44,993.3,4,36,"FEW","   ","   ",NA,20000,NA,NA,NA,"BLDU",NA,NA,NA,NA,NA,NA,71.96,"METAR KLBB 221953Z 23028G36KT 4SM BLDU FEW200 23/M01 A2944 RMK AO2 PK WND 23036/1944 SLP933 T02331011"
"78892","LBB","2010-01-22 20:53:00",-101.8228,33.6636,75.02,30.02,19.02,230,19,NA,29.43,992.7,5,30,"SCT","   ","   ",NA,13000,NA,NA,NA,"BLDU",NA,NA,NA,NA,NA,NA,73.12,"METAR KLBB 222053Z 23019G30KT 5SM BLDU SCT130 24/M01 A2943 RMK AO2 PK WND 23037/1957 SLP927 SKY PRLY OBSCD T02391011 56028"
"78893","LBB","2010-01-22 21:53:00",-101.8228,33.6636,75.02,32,20.61,250,30,NA,29.42,992.8,5,35,"BKN","   ","   ",NA,13000,NA,NA,NA,"BLDU",NA,NA,NA,NA,NA,NA,73.19,"METAR KLBB 222153Z 25030G35KT 5SM BLDU BKN130 24/00 A2942 RMK AO2 PK WND 24039/2119 SLP928 SKY PRLY OBSCD T02390000"
"78894","LBB","2010-01-22 22:53:00",-101.8228,33.6636,64.04,37.04,36.68,280,26,NA,29.51,996.6,8,35,"SCT","   ","   ",NA,13000,NA,NA,NA,"BLDU",NA,NA,NA,NA,NA,NA,64.04,"METAR KLBB 222253Z 28026G35KT 8SM BLDU SCT130 18/03 A2951 RMK AO2 PK WND 29039/2232 PRESRR SLP966 SKY PRLY OBSCD T01780028"
"80100","LBB","2010-03-08 21:30:00",-101.8228,33.6636,59,24.8,26.7,250,33,NA,29.65,NA,1.5,44,"SCT","BKN","   ",NA,7000,16000,NA,NA,"BLDU",NA,NA,NA,NA,NA,NA,59,"KLBB 082130Z 25033G44KT 1 1/2SM BLDU SCT070 BKN160 15/M04 A2965 RMK AO2 PK WND 25044/2127 CB DSNT SW-NW MOV E"
"80101","LBB","2010-03-08 21:41:00",-101.8228,33.6636,55.4,28.4,35.28,240,27,NA,29.66,NA,3,53,"SCT","SCT","BKN",NA,7000,14000,18000,NA,"-RA BLDU",NA,NA,NA,NA,NA,NA,55.4,"KLBB 082141Z 24027G53KT 3SM -RA BLDU SCT070 SCT140 BKN180 13/M02 A2966 RMK AO2 PK WND 26053/2133 RAB41 CB DSNT SW-NW MOV E P0000"
"80439","LBB","2010-03-20 05:53:00",-101.8228,33.6636,32,28.04,85.12,360,17,NA,30.04,1016.4,6,31,"FEW","BKN","OVC",NA,1100,1600,4400,NA,"-TSSNRA BR",NA,NA,NA,35,10,"2010-03-20 05:23",20.08,"KLBB 200553Z 36017G31KT 6SM -TSSNRA BR FEW011 BKN016CB OVC044 00/M02 A3004 RMK AO2 PK WND 01035/0523 SLP164 OCNL LTG IC OHD TS OHD MOV E SNE40RAE40 P0000 60000 T00001022 10078 20000 401610000 51034"
"80440","LBB","2010-03-20 06:01:00",-101.8228,33.6636,32,28.4,86.39,20,16,NA,30.03,NA,5,27,"BKN","BKN","OVC",NA,1100,1600,3600,NA,"-TSSNRA BR",NA,NA,NA,27,360,"2010-03-20 05:56",20.42,"KLBB 200601Z 02016G27KT 5SM -TSSNRA BR BKN011 BKN016CB OVC036 00/M02 A3003 RMK AO2 PK WND 36027/0556 OCNL LTGIC OHD TS OHD MOV E P0000"
"80441","LBB","2010-03-20 06:04:00",-101.8228,33.6636,32,28.4,86.39,20,19,NA,30.04,NA,5,28,"BKN","OVC","   ",NA,900,1600,NA,NA,"-TSSNRA BR",NA,NA,NA,28,20,"2010-03-20 06:02",19.44,"KLBB 200604Z 02019G28KT 5SM -TSSNRA BR BKN009 OVC016CB 00/M02 A3004 RMK AO2 PK WND 02028/0602 OCNL LTGIC OHD TS OHD MOV E P0000"
"80442","LBB","2010-03-20 06:12:00",-101.8228,33.6636,30.2,28.4,92.92,30,20,0.01,30.04,NA,1.25,25,"BKN","OVC","   ",NA,1100,1600,NA,NA,"-TSSN BR",NA,NA,NA,28,20,"2010-03-20 06:02",16.75,"KLBB 200612Z 03020G25KT 1 1/4SM R17R/6000VP6000FT -TSSN BR BKN011 OVC016CB M01/M02 A3004 RMK AO2 PK WND 02028/0602 RAE12 FRQ LTGIC ALQDS TS ALQDS MOV E P0001"
"80443","LBB","2010-03-20 06:17:00",-101.8228,33.6636,30.2,26.6,86.28,30,21,0.01,30.03,NA,1.25,25,"SCT","BKN","OVC",NA,400,800,1300,NA,"-TSSN BR",NA,NA,NA,28,20,"2010-03-20 06:02",16.45,"KLBB 200617Z 03021G25KT 1 1/4SM R17R/5000VP6000FT -TSSN BR SCT004 BKN008 OVC013CB M01/M03 A3003 RMK AO2 PK WND 02028/0602 RAE12 FRQ LTGIC ALQDS TS ALQDS MOV E P0001"
"80444","LBB","2010-03-20 06:53:00",-101.8228,33.6636,30.02,26.06,85,20,19,0.03,30.05,1016.7,1.25,29,"BKN","BKN","OVC",NA,600,1000,3800,NA,"-TSSN BR",NA,NA,NA,30,40,"2010-03-20 06:20",16.82,"KLBB 200653Z 02019G29KT 1 1/4SM -TSSN BR BKN006 BKN010CB OVC038 M01/M03 A3005 RMK AO2 PK WND 04030/0620 RAE12 SLP167 OCNL LTGIC ALQDS TS ALQDS MOV E P0003 T10111033"
"80565","LBB","2010-03-24 00:17:00",-101.8228,33.6636,69.8,21.2,15.73,300,24,NA,29.73,NA,1.75,35,"OVC","   ","   ",NA,14000,NA,NA,NA,"BLDU",NA,NA,NA,35,300,"2010-03-24 00:14",69.8,"KLBB 240017Z 30024G35KT 1 3/4SM BLDU OVC140 21/M06 A2973 RMK AO2 PK WND 30035/0014"
"80566","LBB","2010-03-24 00:27:00",-101.8228,33.6636,66.2,21.2,17.81,300,27,NA,29.75,NA,3,34,"OVC","   ","   ",NA,14000,NA,NA,NA,"BLDU",NA,NA,NA,35,300,"2010-03-24 00:14",66.2,"KLBB 240027Z 30027G34KT 3SM BLDU OVC140 19/M06 A2975 RMK AO2 PK WND 30035/0014"
"80641","LBB","2010-03-26 21:53:00",-101.8228,33.6636,80.96,14,7.95,210,30,NA,29.53,996.5,4,46,"CLR","   ","   ",NA,NA,NA,NA,NA,"BLDU",NA,NA,NA,NA,NA,NA,78.25,"KLBB 262153Z 21030G46KT 4SM BLDU CLR 27/M10 A2953 RMK AO2 PK WND 20046/2144 SLP965 T02721100"
"80642","LBB","2010-03-26 22:53:00",-101.8228,33.6636,80.96,10.94,6.94,220,27,NA,29.51,995.6,5,40,"FEW","   ","   ",NA,25000,NA,NA,NA,"BLDU",NA,NA,NA,NA,NA,NA,78.12,"KLBB 262253Z 22027G40KT 5SM BLDU FEW250 27/M12 A2951 RMK AO2 PK WND 21046/2208 SLP956 T02721117"
"80643","LBB","2010-03-26 23:53:00",-101.8228,33.6636,80.06,5,5.47,210,29,NA,29.47,994.5,6,42,"FEW","SCT","   ",NA,13000,25000,NA,NA,"BLDU",NA,NA,NA,NA,NA,NA,77.37,"KLBB 262353Z 21029G42KT 6SM BLDU FEW130 SCT250 27/M15 A2947 RMK AO2 PK WND 21044/2311 SLP945 T02671150 10272 20211 56040"
"80644","LBB","2010-03-27 00:53:00",-101.8228,33.6636,75.92,6.98,6.86,220,21,NA,29.45,994.2,6,-99,"FEW","SCT","   ",NA,14000,25000,NA,NA,"BLDU",NA,NA,NA,NA,NA,NA,73.53,"KLBB 270053Z 22021KT 6SM BLDU FEW140 SCT250 24/M14 A2945 RMK AO2 PK WND 21046/2354 SLP942 T02441139"
"80645","LBB","2010-03-27 01:53:00",-101.8228,33.6636,73.94,1.04,5.58,270,28,NA,29.48,995,4,40,"FEW","SCT","   ",NA,14000,25000,NA,NA,"BLDU",NA,NA,NA,NA,NA,NA,71.3,"KLBB 270153Z 27028G40KT 4SM BLDU FEW140 SCT250 23/M17 A2948 RMK AO2 PK WND 25040/0150 SLP950 T02331172"
"80646","LBB","2010-03-27 01:59:00",-101.8228,33.6636,73.4,1.4,5.78,270,24,NA,29.49,NA,2,40,"FEW","SCT","   ",NA,14000,25000,NA,NA,"BLDU",NA,NA,NA,NA,NA,NA,70.71,"KLBB 270159Z 27024G40KT 2SM BLDU FEW140 SCT250 23/M17 A2949 RMK AO2 PK WND 27037/0154 PRESRR"
"80647","LBB","2010-03-27 02:22:00",-101.8228,33.6636,68,12.2,11.34,300,21,NA,29.53,NA,5,34,"SCT","   ","   ",NA,25000,NA,NA,NA,"BLDU",NA,NA,NA,NA,NA,NA,68,"KLBB 270222Z 30021G34KT 5SM BLDU SCT250 20/M11 A2953 RMK AO2 PK WND 29040/0207 PRESRR"
"81523","LBB","2010-04-23 18:53:00",-101.8228,33.6636,60.98,28.04,28.45,230,31,NA,29.6,999.5,5,46,"FEW","OVC","   ",NA,11000,20000,NA,NA,"BLDU",NA,NA,NA,46,220,"2010-04-23 18:45",60.98,"KLBB 231853Z 23031G46KT 5SM BLDU FEW110 OVC200 16/M02 A2960 RMK AO2 PK WND 22046/1845 SLP995 T01611022"
"81525","LBB","2010-04-23 20:53:00",-101.8228,33.6636,66.02,28.94,24.73,230,29,NA,29.55,997.6,6,40,"SCT","BKN","   ",NA,13000,20000,NA,NA,"HZ BLDU",NA,NA,NA,48,230,"2010-04-23 20:22",66.02,"KLBB 232053Z 23029G40KT 6SM HZ BLDU SCT130 BKN200 19/M02 A2955 RMK AO2 PK WND 23048/2022 RAB00E10 SLP976 P0000 60000 T01891017 58016"
"81526","LBB","2010-04-23 21:53:00",-101.8228,33.6636,66.02,26.96,22.8,220,31,NA,29.54,997.4,10,39,"SCT","   ","   ",NA,9000,NA,NA,NA,"BLDU",NA,NA,NA,48,210,"2010-04-23 21:08",66.02,"KLBB 232153Z 22031G39KT 10SM BLDU SCT090 19/M03 A2954 RMK AO2 PK WND 21048/2108 SLP974 T01891028"
"81527","LBB","2010-04-23 22:53:00",-101.8228,33.6636,64.94,24.08,21.01,230,29,NA,29.54,997.5,10,38,"SCT","   ","   ",NA,11000,NA,NA,NA,"BLDU",NA,NA,NA,42,240,"2010-04-23 22:29",64.94,"KLBB 232253Z 23029G38KT 10SM BLDU SCT110 18/M04 A2954 RMK AO2 PK WND 24042/2229 SLP975 T01831044"
"81960","LBB","2010-05-10 17:53:00",-101.8228,33.6636,87.98,30.02,12.48,230,38,NA,29.73,1001.5,5,49,"FEW","   ","   ",NA,25000,NA,NA,NA,"BLDU",NA,NA,NA,49,230,"2010-05-10 17:52",84.12,"KLBB 101753Z 23038G49KT 5SM BLDU FEW250 31/M01 A2973 RMK AO2 PK WND 23049/1752 SLP015 BLDU ALQDS T03111011 10311 20189 56021"
"81961","LBB","2010-05-10 18:12:00",-101.8228,33.6636,89.6,26.6,10.3,250,43,NA,29.73,NA,2.5,51,"FEW","   ","   ",NA,25000,NA,NA,NA,"BLDU",NA,NA,NA,51,250,"2010-05-10 18:12",85.02,"KLBB 101812Z 25043G51KT 2 1/2SM BLDU FEW250 32/M03 A2973 RMK AO2 PK WND 25051/1812"
"81962","LBB","2010-05-10 18:38:00",-101.8228,33.6636,89.6,24.8,9.56,250,31,NA,29.73,NA,3,44,"FEW","   ","   ",NA,25000,NA,NA,NA,"BLDU",NA,NA,NA,51,250,"2010-05-10 18:12",84.88,"KLBB 101838Z 25031G44KT 3SM BLDU FEW250 32/M04 A2973 RMK AO2 PK WND 25051/1812"
"81963","LBB","2010-05-10 18:44:00",-101.8228,33.6636,89.6,21.2,8.22,250,33,NA,29.74,NA,2,47,"FEW","   ","   ",NA,25000,NA,NA,NA,"BLDU",NA,NA,NA,51,250,"2010-05-10 18:12",84.64,"KLBB 101844Z 25033G47KT 2SM BLDU FEW250 32/M06 A2974 RMK AO2 PK WND 25051/1812 SKY PRLY OBSCD"
"81964","LBB","2010-05-10 18:53:00",-101.8228,33.6636,89.06,21.92,8.62,240,35,NA,29.73,1001.5,2,50,"FEW","   ","   ",NA,25000,NA,NA,NA,"BLDU",NA,NA,NA,51,250,"2010-05-10 18:12",84.29,"KLBB 101853Z 24035G50KT 2SM BLDU FEW250 32/M06 A2973 RMK AO2 PK WND 25051/1812 TWR VIS 3 SLP015 SKY PRLY OBSCD T03171056"
"81965","LBB","2010-05-10 19:53:00",-101.8228,33.6636,91.04,21.02,7.8,260,28,NA,29.74,1001.5,3,41,"CLR","   ","   ",NA,NA,NA,NA,NA,"BLDU",NA,NA,NA,49,250,"2010-05-10 18:58",85.69,"KLBB 101953Z 26028G41KT 3SM BLDU CLR 33/M06 A2974 RMK AO2 PK WND 25049/1858 SLP015 T03281061"
"81966","LBB","2010-05-10 20:07:00",-101.8228,33.6636,89.6,17.6,7.05,280,29,NA,29.74,NA,3,38,"CLR","   ","   ",NA,NA,NA,NA,NA,"BLDU",NA,NA,NA,44,270,"2010-05-10 19:56",84.45,"KLBB 102007Z 28029G38KT 3SM BLDU CLR 32/M08 A2974 RMK AO2 PK WND 27044/1956 SKY PRLY OBSCD"
"81967","LBB","2010-05-10 20:14:00",-101.8228,33.6636,89.6,15.8,6.52,270,31,NA,29.74,NA,1.5,45,"CLR","   ","   ",NA,NA,NA,NA,NA,"BLDU",NA,NA,NA,45,290,"2010-05-10 20:12",84.37,"KLBB 102014Z 27031G45KT 1 1/2SM BLDU CLR 32/M09 A2974 RMK AO2 PK WND 29045/2012 SKY PRLY OBSCD"
"81968","LBB","2010-05-10 20:38:00",-101.8228,33.6636,89.6,15.8,6.52,280,28,NA,29.75,NA,3,39,"CLR","   ","   ",NA,NA,NA,NA,NA,"BLDU",NA,NA,NA,45,270,"2010-05-10 20:21",84.37,"KLBB 102038Z 28028G39KT 3SM BLDU CLR 32/M09 A2975 RMK AO2 PK WND 27045/2021 SKY PRLY OBSCD"
"81969","LBB","2010-05-10 20:53:00",-101.8228,33.6636,89.96,15.08,6.25,280,23,NA,29.75,1001.8,6,36,"CLR","   ","   ",NA,NA,NA,NA,NA,"BLDU",NA,NA,NA,45,270,"2010-05-10 20:21",84.6,"KLBB 102053Z 28023G36KT 6SM BLDU CLR 32/M09 A2975 RMK AO2 PK WND 27045/2021 SLP018 SKY PRLY OBSCD T03221094 53006"
"82268","LBB","2010-05-20 05:53:00",-101.8228,33.6636,64.94,46.94,52.06,30,22,NA,29.83,1005.3,5,30,"SCT","BKN","   ",NA,500,15000,NA,NA,"HZ BLDU",NA,NA,NA,NA,NA,NA,64.94,"KLBB 200553Z 03022G30KT 5SM HZ BLDU SCT005 BKN150 18/08 A2983 RMK AO2 PK WND 03030/0553 WSHFT 0529 SLP053 T01830083 10289 20167 403000167 51022"
"82628","LBB","2010-06-02 00:46:00",-101.8228,33.6636,71.6,57.2,60.44,310,31,NA,29.88,NA,2,37,"FEW","BKN","OVC",NA,5000,9000,12000,NA,"TSRA BLDU",NA,NA,NA,37,310,"2010-06-02 00:46",71.6,"KLBB 020046Z 31031G37KT 2SM R17R/5000VP6000FT TSRA BLDU FEW050 BKN090CB OVC120 22/14 A2988 RMK AO2 PK WND 31037/0046 WSHFT 0032 RAB44 PRESRR FRQ LTGICCG OHD TS OHD MOV E P0000"
"86380","LBB","2010-10-18 00:09:00",-101.8228,33.6636,71.6,44.6,37.89,140,16,NA,29.99,NA,5,30,"FEW","BKN","BKN",NA,2700,6000,7000,NA,"-RA BLDU",NA,NA,NA,30,190,"2010-10-18 00:01",70.24,"KLBB 180009Z 14016G30KT 5SM -RA BLDU FEW027 BKN060 BKN070 22/07 A2999 RMK AO2 PK WND 19030/0001 WSHFT 2352 PRESFR P0000 PNO"
"86603","LBB","2010-10-25 19:53:00",-101.8228,33.6636,78.08,39.92,25.48,230,23,NA,29.43,991.9,5,34,"BKN","OVC","   ",NA,20000,25000,NA,NA,"BLDU",NA,NA,NA,35,240,"2010-10-25 19:25",76.79,"KLBB 251953Z 23023G34KT 5SM BLDU BKN200 OVC250 26/04 A2943 RMK AO2 PK WND 24035/1925 SLP919 T02560044"
"86604","LBB","2010-10-25 20:53:00",-101.8228,33.6636,78.08,39.02,24.6,240,23,NA,29.41,991.2,5,34,"BKN","OVC","   ",NA,20000,25000,NA,NA,"BLDU",NA,NA,NA,34,240,"2010-10-25 20:47",76.74,"KLBB 252053Z 24023G34KT 5SM BLDU BKN200 OVC250 26/04 A2941 RMK AO2 PK WND 24034/2047 SLP912 T02560039 56021"
"86605","LBB","2010-10-25 21:53:00",-101.8228,33.6636,77,39.02,25.49,240,24,NA,29.41,991.3,5,32,"BKN","OVC","   ",NA,18000,25000,NA,NA,"BLDU",NA,NA,NA,32,240,"2010-10-25 21:53",75.6,"KLBB 252153Z 24024G32KT 5SM BLDU BKN180 OVC250 25/04 A2941 RMK AO2 PK WND 24032/2153 SLP913 T02500039"
"86821","LBB","2010-11-03 19:53:00",-101.8228,33.6636,73.04,28.94,19.45,30,20,NA,30.28,1022.8,3,34,"FEW","   ","   ",NA,15000,NA,NA,NA,"BLDU",NA,NA,NA,34,40,"2010-11-03 19:50",70.96,"KLBB 031953Z 03020G34KT 3SM BLDU FEW150 23/M02 A3028 RMK AO2 PK WND 04034/1950 TWR VIS 6 SLP228 T02281017"
"86822","LBB","2010-11-03 20:53:00",-101.8228,33.6636,71.96,30.02,21.09,20,25,NA,30.27,1022.7,4,35,"FEW","   ","   ",NA,8500,NA,NA,NA,"BLDU",NA,NA,NA,35,30,"2010-11-03 20:51",69.85,"KLBB 032053Z 02025G35KT 4SM BLDU FEW085 22/M01 A3027 RMK AO2 PK WND 03035/2051 SLP227 T02221011 56017"
"86823","LBB","2010-11-03 21:53:00",-101.8228,33.6636,71.06,30.02,21.74,30,22,NA,30.28,1023,6,32,"FEW","   ","   ",NA,9000,NA,NA,NA,"BLDU",NA,NA,NA,35,20,"2010-11-03 21:26",68.89,"KLBB 032153Z 03022G32KT 6SM BLDU FEW090 22/M01 A3028 RMK AO2 PK WND 02035/2126 SLP230 T02171011"
"87028","LBB","2010-11-12 11:04:00",-101.8228,33.6636,48.2,41,76.01,320,35,NA,30.08,NA,4,44,"BKN","OVC","   ",NA,1200,3000,NA,NA,"-RA BLDU",NA,NA,NA,44,320,"2010-11-12 11:04",38.31,"KLBB 121104Z 32035G44KT 4SM -RA BLDU BKN012 OVC030 09/05 A3008 RMK AO2 PK WND 32044/1104 RAB1056 PRESRR P0000"
"87158","LBB","2010-11-17 14:53:00",-101.8228,33.6636,48.92,28.04,44.14,330,28,NA,30.04,1015.4,6,38,"FEW","   ","   ",NA,9500,NA,NA,NA,"BLDU",NA,NA,NA,39,340,"2010-11-17 14:41",40.26,"KLBB 171453Z 33028G38KT 6SM BLDU FEW095 09/M02 A3004 RMK AO2 PK WND 34039/1441 SLP154 T00941022 53052"
"87652","LBB","2010-12-07 19:53:00",-101.8228,33.6636,57.92,21.92,24.6,350,21,NA,30.01,1014.5,6,32,"FEW","   ","   ","   ",8500,NA,NA,NA,"BLDU",NA,NA,NA,32,340,"2010-12-07 19:44",57.92,"KLBB 071953Z 35021G32KT 6SM BLDU FEW085 14/M06 A3001 RMK AO2 PK WND 34032/1944 SLP145 T01441056"
"87653","LBB","2010-12-07 20:53:00",-101.8228,33.6636,57.92,21.92,24.6,340,22,NA,30.03,1015.7,5,31,"FEW","   ","   ","   ",8500,NA,NA,NA,"BLDU",NA,NA,NA,33,360,"2010-12-07 20:30",57.92,"KLBB 072053Z 34022G31KT 5SM BLDU FEW085 14/M06 A3003 RMK AO2 PK WND 36033/2030 SLP157 T01441056 53011"
"87654","LBB","2010-12-07 21:53:00",-101.8228,33.6636,57.02,21.92,25.41,350,23,NA,30.06,1016.7,4,33,"CLR","   ","   ","   ",NA,NA,NA,NA,"BLDU",NA,NA,NA,38,330,"2010-12-07 21:17",57.02,"KLBB 072153Z 35023G33KT 4SM BLDU CLR 14/M06 A3006 RMK AO2 PK WND 33038/2117 SLP167 T01391056"
"87738","LBB","2010-12-11 09:53:00",-101.8228,33.6636,48.92,24.98,38.89,10,18,NA,29.89,1009.4,6,27,"BKN","   ","   ","   ",25000,NA,NA,NA,"BLDU",NA,NA,NA,32,360,"2010-12-11 09:35",42.02,"KLBB 110953Z 01018G27KT 6SM BLDU BKN250 09/M04 A2989 RMK AO2 PK WND 36032/0935 SLP094 T00941039 $"
"87840","LBB","2010-12-15 18:53:00",-101.8228,33.6636,77,12.92,8.63,260,22,NA,29.57,998,6,32,"FEW","BKN","   ","   ",18000,25000,NA,NA,"BLDU",NA,NA,NA,32,260,"2010-12-15 18:50",74.81,"KLBB 151853Z COR 26022G32KT 6SM BLDU FEW180 BKN250 25/M11 A2957 RMK AO2 PK WND 26032/1850 SLP980 T02501106"
"87841","LBB","2010-12-15 19:53:00",-101.8228,33.6636,78.98,12.02,7.77,270,23,NA,29.55,997.5,4,34,"SCT","OVC","   ","   ",18000,25000,NA,NA,"BLDU",NA,NA,NA,35,280,"2010-12-15 18:58",76.94,"KLBB 151953Z 27023G34KT 4SM BLDU SCT180 OVC250 26/M11 A2955 RMK AO2 PK WND 28035/1858 SLP975 T02611111"
"87842","LBB","2010-12-15 20:53:00",-101.8228,33.6636,80.06,12.02,7.5,270,24,NA,29.55,997.3,5,34,"SCT","OVC","   ","   ",18000,25000,NA,NA,"BLDU",NA,NA,NA,35,280,"2010-12-15 20:43",77.64,"KLBB 152053Z 27024G34KT 5SM BLDU SCT180 OVC250 27/M11 A2955 RMK AO2 PK WND 28035/2043 SLP973 T02671111 56021"
"88244","LBB","2010-12-30 09:09:00",-101.8228,33.6636,59,19.4,21.26,240,33,NA,29.43,NA,6,46,"FEW","SCT","OVC","   ",500,1500,11000,NA,"BLDU",NA,NA,NA,46,230,"2010-12-30 09:06",59,"KLBB 300909Z 24033G46KT 6SM BLDU FEW005 SCT015 OVC110 15/M07 A2943 RMK AO2 PK WND 23046/0906"
"88245","LBB","2010-12-30 09:18:00",-101.8228,33.6636,59,19.4,21.26,240,27,NA,29.44,NA,3,45,"FEW","BKN","OVC","   ",500,1500,11000,NA,"BLDU",NA,NA,NA,46,230,"2010-12-30 09:06",59,"KLBB 300918Z 24027G45KT 3SM BLDU FEW005 BKN015 OVC110 15/M07 A2944 RMK AO2 PK WND 23046/0906"
"88258","LBB","2010-12-30 20:53:00",-101.8228,33.6636,64.94,23,20.08,220,24,NA,29.4,992,5,37,"SCT","   ","   ","   ",25000,NA,NA,NA,"BLDU",NA,NA,NA,38,220,"2010-12-30 20:30",64.94,"KLBB 302053Z 22024G37KT 5SM BLDU SCT250 18/M05 A2940 RMK AO2 PK WND 22038/2030 SLP920 SKY PRLY OBSCD T01831050 56038"
"88263","LBB","2010-12-31 01:21:00",-101.8228,33.6636,60.8,26.6,26.98,210,27,NA,29.4,NA,6,43,"FEW","BKN","OVC","   ",6000,8500,15000,NA,"-RA BLDU SQ",NA,NA,NA,43,230,"2010-12-31 01:18",60.8,"KLBB 310121Z 21027G43KT 6SM -RA BLDU SQ FEW060 BKN085 OVC150 16/M03 A2940 RMK AO2 PK WND 23043/0118 RAB19 P0000"
"88264","LBB","2010-12-31 01:53:00",-101.8228,33.6636,60.08,26.06,27.07,190,23,NA,29.41,993.3,6,43,"SCT","BKN","OVC","   ",6000,7500,14000,NA,"BLDU",NA,NA,NA,43,210,"2010-12-31 01:48",60.08,"KLBB 310153Z 19023G43KT 6SM BLDU SCT060 BKN075 OVC140 16/M03 A2941 RMK AO2 PK WND 21043/0148 RAB19E29 SLP933 P0000 T01561033"
"88265","LBB","2010-12-31 02:32:00",-101.8228,33.6636,51.8,35.6,53.81,290,12,NA,29.44,NA,5,-99,"BKN","BKN","OVC","   ",6500,8500,10000,NA,"-RA BLDU",NA,NA,NA,35,200,"2010-12-31 01:54",51.8,"KLBB 310232Z 29012KT 5SM -RA BLDU BKN065 BKN085 OVC100 11/02 A2944 RMK AO2 PK WND 20035/0154 WSHFT 0214 RAB10 P0000"
"88266","LBB","2010-12-31 02:41:00",-101.8228,33.6636,51.8,37.4,57.77,290,14,NA,29.46,NA,5,-99,"BKN","BKN","OVC","   ",6500,8500,10000,NA,"-RA BLDU",NA,NA,NA,35,200,"2010-12-31 01:54",51.8,"KLBB 310241Z 29014KT 5SM -RA BLDU BKN065 BKN085 OVC100 11/03 A2946 RMK AO2 PK WND 20035/0154 WSHFT 0221 RAB10 P0000"
"88267","LBB","2010-12-31 02:53:00",-101.8228,33.6636,50,37.04,60.89,280,7,NA,29.48,996.3,6,-99,"BKN","OVC","   ","   ",5500,7000,NA,NA,"-RA BLDU",NA,NA,NA,35,200,"2010-12-31 01:54",46.72,"KLBB 310253Z 28007KT 6SM -RA BLDU BKN055 OVC070 10/03 A2948 RMK AO2 PK WND 20035/0154 WSHFT 0221 RAB10 SLP963 P0000 60000 T01000028 53033"
"88784","LBB","2011-01-20 06:01:00",-101.8228,33.6636,39.2,30.2,69.88,30,22,NA,29.87,NA,5,35,"SCT","BKN","BKN","   ",1800,12000,18000,NA,"BLDU",NA,NA,NA,35,20,"2011-01-20 05:56",28.22,"KLBB 200601Z 03022G35KT 5SM BLDU SCT018 BKN120 BKN180 04/M01 A2987 RMK AO2 PK WND 02035/0556 PRESRR LOW CLDS FORMING RAPIDLY"
"88785","LBB","2011-01-20 06:06:00",-101.8228,33.6636,37.4,28.4,69.67,30,25,NA,29.88,NA,5,31,"BKN","BKN","BKN","   ",1600,12000,18000,NA,"BLDU",NA,NA,NA,35,20,"2011-01-20 05:56",25.12,"KLBB 200606Z 03025G31KT 5SM BLDU BKN016 BKN120 BKN180 03/M02 A2988 RMK AO2 PK WND 02035/0556"
"88786","LBB","2011-01-20 06:25:00",-101.8228,33.6636,35.6,28.4,74.8,20,24,NA,29.9,NA,5,30,"OVC","   ","   ","   ",1400,NA,NA,NA,"BLDU",NA,NA,NA,35,20,"2011-01-20 05:56",22.92,"KLBB 200625Z 02024G30KT 5SM BLDU OVC014 02/M02 A2990 RMK AO2 PK WND 02035/0556"
"88787","LBB","2011-01-20 06:53:00",-101.8228,33.6636,33.98,26.06,72.45,20,20,NA,29.94,1012.3,6,30,"OVC","   ","   ","   ",1400,NA,NA,NA,"BLDU",NA,NA,NA,35,20,"2011-01-20 05:56",21.77,"KLBB 200653Z 02020G30KT 6SM BLDU OVC014 01/M03 A2994 RMK AO2 PK WND 02035/0556 PRESRR SLP123 T00111033"
"88788","LBB","2011-01-20 07:53:00",-101.8228,33.6636,32,24.98,75,10,23,NA,29.99,1013.9,4,33,"BKN","OVC","   ","   ",1000,1400,NA,NA,"HZ BLDU",NA,NA,NA,35,10,"2011-01-20 07:42",18.31,"KLBB 200753Z 01023G33KT 4SM HZ BLDU BKN010 OVC014 00/M04 A2999 RMK AO2 PK WND 01035/0742 PRESRR SLP139 T00001039"
"88789","LBB","2011-01-20 07:53:00",-101.8228,33.6636,32,24.8,75,10,23,NA,29.99,1013.9,4,33,"BKN","OVC","   ","   ",1000,1400,NA,NA,"HZ BLDU",NA,NA,NA,35,10,"2011-01-20 07:42",18.31,"KLBB 200753Z 01023G33KT 4SM HZ BLDU BKN010 OVC014 00/M04 A2999"
"88790","LBB","2011-01-20 07:53:00",-101.8228,33.6636,32,24.8,75,10,23,NA,29.99,1013.9,4,33,"BKN","OVC","   ","   ",1000,1400,NA,NA,"HZ BLDU",NA,NA,NA,35,10,"2011-01-20 07:42",18.31,"KLBB 200753Z 01023G33KT 4SM HZ BLDU BKN010 OVC014 00/M04 A2999"
"88791","LBB","2011-01-20 08:00:00",-101.8228,33.6636,30.2,24.8,80.07,20,21,NA,29.99,NA,5,32,"BKN","OVC","   ","   ",800,1400,NA,NA,"HZ BLDU",NA,NA,NA,30,30,"2011-01-20 07:56",16.45,"KLBB 200800Z 02021G32KT 5SM HZ BLDU BKN008 OVC014 M01/M04 A2999 RMK AO2 PK WND 03030/0756"
"88852","LBB","2011-01-22 17:53:00",-101.8228,33.6636,55.94,12.92,17.92,220,24,NA,29.83,1009.3,5,34,"SCT","BKN","   ","   ",13000,20000,NA,NA,"BLDU",NA,NA,NA,39,210,"2011-01-22 17:23",55.94,"KLBB 221753Z 22024G34KT 5SM BLDU SCT130 BKN200 13/M11 A2983 RMK AO2 PK WND 21039/1723 SLP093 T01331106 10133 21067 58025"
"88853","LBB","2011-01-22 18:53:00",-101.8228,33.6636,57.92,14,17.49,220,26,NA,29.77,1007,6,33,"BKN","BKN","   ","   ",13000,20000,NA,NA,"BLDU",NA,NA,NA,37,210,"2011-01-22 18:29",57.92,"KLBB 221853Z 22026G33KT 6SM BLDU BKN130 BKN200 14/M10 A2977 RMK AO2 PK WND 21037/1829 SLP070 T01441100"
"89847","LBB","2011-02-27 17:53:00",-101.8228,33.6636,75.92,10.94,8.2,220,30,NA,29.56,996.8,4,40,"CLR","   ","   ","   ",NA,NA,NA,NA,"BLDU",NA,NA,NA,40,210,"2011-02-27 17:52",73.6,"KLBB 271753Z 22030G40KT 4SM BLDU CLR 24/M12 A2956 RMK AO2 PK WND 21040/1752 SLP968 VIS E 2 T02441117 10244 20100 58020"
"89848","LBB","2011-02-27 18:14:00",-101.8228,33.6636,75.2,5,6.42,220,32,NA,29.55,NA,2.5,45,"CLR","   ","   ","   ",NA,NA,NA,NA,"BLDU",NA,NA,NA,45,210,"2011-02-27 18:09",72.72,"KLBB 271814Z 22032G45KT 2 1/2SM BLDU CLR 24/M15 A2955 RMK AO2 PK WND 21045/1809 VIS 1V5"
"89849","LBB","2011-02-27 18:39:00",-101.8228,33.6636,75.2,1.4,5.44,240,35,NA,29.54,NA,1.75,44,"FEW","   ","   ","   ",300,NA,NA,NA,"BLDU",NA,NA,NA,51,220,"2011-02-27 18:25",72.68,"KLBB 271839Z 24035G44KT 1 3/4SM BLDU FEW003 24/M17 A2954 RMK AO2 PK WND 22051/1825"
"89850","LBB","2011-02-27 18:53:00",-101.8228,33.6636,75.92,-0.04,4.96,220,34,NA,29.53,996.2,1.75,45,"FEW","   ","   ","   ",600,NA,NA,NA,"BLDU",NA,NA,NA,51,220,"2011-02-27 18:25",73.45,"KLBB 271853Z 22034G45KT 1 3/4SM BLDU FEW006 24/M18 A2953 RMK AO2 PK WND 22051/1825 SFC VIS 2 SLP962 T02441178"
"89851","LBB","2011-02-27 19:53:00",-101.8228,33.6636,75.92,-0.04,4.96,240,23,NA,29.51,995.4,1.75,42,"CLR","   ","   ","   ",NA,NA,NA,NA,"BLDU",NA,NA,NA,44,220,"2011-02-27 18:57",73.45,"KLBB 271953Z 24023G42KT 1 3/4SM BLDU CLR 24/M18 A2951 RMK AO2 PK WND 22044/1857 SFC VIS 2 1/2 SLP954 T02441178"
"89852","LBB","2011-02-27 20:09:00",-101.8228,33.6636,75.2,-0.4,5,240,27,NA,29.5,NA,3,39,"CLR","   ","   ","   ",NA,NA,NA,NA,"BLDU",NA,NA,NA,39,250,"2011-02-27 20:06",72.65,"KLBB 272009Z 24027G39KT 3SM BLDU CLR 24/M18 A2950 RMK AO2 PK WND 25039/2006 SFC VIS 4"
"89853","LBB","2011-02-27 20:28:00",-101.8228,33.6636,75.2,-2.2,4.59,250,35,NA,29.5,NA,2.5,43,"FEW","   ","   ","   ",1200,NA,NA,NA,"BLDU",NA,NA,NA,43,250,"2011-02-27 20:27",72.64,"KLBB 272028Z 25035G43KT 2 1/2SM BLDU FEW012 24/M19 A2950 RMK AO2 PK WND 25043/2027 TWR VIS 3"
"89854","LBB","2011-02-27 20:58:00",-101.8228,33.6636,73.4,-0.4,5.31,260,34,NA,29.51,NA,2.5,42,"BKN","   ","   ","   ",1000,NA,NA,NA,"BLDU",NA,NA,NA,42,260,"2011-02-27 20:57",70.69,"KLBB 272058Z 26034G42KT 2 1/2SM BLDU BKN010 23/M18 A2951 RMK AO2 PK WND 26042/2057"
"89855","LBB","2011-02-27 21:42:00",-101.8228,33.6636,71.6,1.4,6.14,260,36,NA,29.52,NA,1.75,49,"BKN","   ","   ","   ",800,NA,NA,NA,"BLDU",NA,NA,NA,49,270,"2011-02-27 21:39",68.75,"KLBB 272142Z 26036G49KT 1 3/4SM BLDU BKN008 22/M17 A2952 RMK AO2 PK WND 27049/2139 TWR VIS 2 1/2"
"89856","LBB","2011-02-27 21:53:00",-101.8228,33.6636,71.06,5,7.38,260,36,NA,29.53,996.4,2,42,"BKN","   ","   ","   ",800,NA,NA,NA,"BLDU",NA,NA,NA,49,270,"2011-02-27 21:39",68.21,"KLBB 272153Z 26036G42KT 2SM BLDU BKN008 22/M15 A2953 RMK AO2 PK WND 27049/2139 TWR VIS 2 1/2 SLP964 T02171150"
"89857","LBB","2011-02-27 21:53:00",-101.8228,33.6636,71.06,5,7.38,260,36,NA,29.53,996.4,2,42,"BKN","   ","   ","   ",800,NA,NA,NA,"BLDU",NA,NA,NA,49,270,"2011-02-27 21:39",68.21,"KLBB 272153Z 26036G42KT 2SM BLDU BKN008 22/M15 A2953 RMK AO2 PK WND 27049/2139 TWR VIS 2 1/2 SLP964 T02171150"
"89858","LBB","2011-02-27 22:24:00",-101.8228,33.6636,68,17.6,14.35,270,29,NA,29.55,NA,1.75,41,"BKN","   ","   ","   ",800,NA,NA,NA,"BLDU",NA,NA,NA,47,260,"2011-02-27 21:55",68,"KLBB 272224Z 27029G41KT 1 3/4SM BLDU BKN008 20/M08 A2955 RMK AO2 PK WND 26047/2155 TWR VIS 2 1/2"
"89859","LBB","2011-02-27 22:53:00",-101.8228,33.6636,66.02,19.04,16.35,270,34,NA,29.56,998.1,1.5,45,"BKN","   ","   ","   ",800,NA,NA,NA,"BLDU",NA,NA,NA,47,260,"2011-02-27 21:55",66.02,"KLBB 272253Z 27034G45KT 1 1/2SM BLDU BKN008 19/M07 A2956 RMK AO2 PK WND 26047/2155 TWR VIS 2 1/2 SLP981 T01891072"
"89860","LBB","2011-02-27 23:25:00",-101.8228,33.6636,62.6,21.2,20.2,270,35,NA,29.58,NA,0.75,45,"BKN","   ","   ","   ",600,NA,NA,NA,"BLDU",NA,NA,NA,46,260,"2011-02-27 23:05",62.6,"KLBB 272325Z 27035G45KT 3/4SM BLDU BKN006 17/M06 A2958 RMK AO2 PK WND 26046/2305 TWR VIS 2 1/2 RVRNO"
"89861","LBB","2011-02-28 00:00:00",-101.8228,33.6636,60.8,19.4,19.94,270,32,NA,29.61,NA,0.75,45,"VV ","   ","   ","   ",400,NA,NA,NA,"BLDU",NA,NA,NA,NA,NA,NA,60.8,"KLBB 280000Z 27032G45KT 3/4SM BLDU VV004 16/M07 A2961"
"89862","LBB","2011-02-28 00:07:00",-101.8228,33.6636,60.8,19.4,19.94,270,27,NA,29.62,NA,1,43,"VV ","   ","   ","   ",500,NA,NA,NA,"BLDU",NA,NA,NA,45,270,"2011-02-27 23:56",60.8,"KLBB 280007Z 27027G43KT 1SM BLDU VV005 16/M07 A2962 RMK AO2 PK WND 27045/2356 TWR VIS 2 1/2 RVRNO"
"89863","LBB","2011-02-28 00:42:00",-101.8228,33.6636,57.2,19.4,22.68,280,23,NA,29.66,NA,3,35,"FEW","   ","   ","   ",900,NA,NA,NA,"BLDU",NA,NA,NA,45,270,"2011-02-27 23:56",57.2,"KLBB 280042Z 28023G35KT 3SM BLDU FEW009 14/M07 A2966 RMK AO2 PK WND 27045/2356 SFC VIS 5"
"89864","LBB","2011-02-28 00:53:00",-101.8228,33.6636,55.4,19.4,24.21,270,22,NA,29.65,NA,5,34,"SCT","   ","   ","   ",1100,NA,NA,NA,"BLDU",NA,NA,NA,NA,NA,NA,55.4,"KLBB 280053Z 27022G34KT 5SM BLDU SCT011 13/M07 A2965"
"89865","LBB","2011-02-28 01:53:00",-101.8228,33.6636,51.98,17.06,24.81,280,19,NA,29.69,1003,7,25,"CLR","   ","   ","   ",NA,NA,NA,NA,"BLDU",NA,NA,NA,33,280,"2011-02-28 01:00",51.98,"KLBB 280153Z 28019G25KT 7SM BLDU CLR 11/M08 A2969 RMK AO2 PK WND 28033/0100 SLP030 T01111083"
"89866","LBB","2011-02-28 02:53:00",-101.8228,33.6636,50,15.08,24.5,270,22,NA,29.71,1003.7,6,30,"CLR","   ","   ","   ",NA,NA,NA,NA,"HZ BLDU",NA,NA,NA,31,280,"2011-02-28 01:59",42.68,"KLBB 280253Z 27022G30KT 6SM HZ BLDU CLR 10/M09 A2971 RMK AO2 PK WND 28031/0159 SLP037 T01001094 51030"
"89867","LBB","2011-02-28 04:04:00",-101.8228,33.6636,48.2,8.6,19.66,280,32,NA,29.73,NA,3,44,"SCT","BKN","   ","   ",600,1400,NA,NA,"HZ BLDU",NA,NA,NA,44,270,"2011-02-28 03:57",38.7,"KLBB 280404Z 28032G44KT 3SM HZ BLDU SCT006 BKN014 09/M13 A2973 RMK AO2 PK WND 27044/0357"
"89868","LBB","2011-02-28 04:35:00",-101.8228,33.6636,48.2,8.6,19.66,280,32,NA,29.75,NA,3,41,"FEW","SCT","   ","   ",400,1200,NA,NA,"HZ BLDU",NA,NA,NA,48,290,"2011-02-28 04:16",38.7,"KLBB 280435Z 28032G41KT 3SM HZ BLDU FEW004 SCT012 09/M13 A2975 RMK AO2 PK WND 29048/0416 PRESRR"
"89869","LBB","2011-02-28 04:53:00",-101.8228,33.6636,48.02,8.96,20.12,270,27,NA,29.77,1005,4,40,"CLR","   ","   ","   ",NA,NA,NA,NA,"HZ BLDU",NA,NA,NA,48,290,"2011-02-28 04:16",39.18,"KLBB 280453Z 27027G40KT 4SM HZ BLDU CLR 09/M13 A2977 RMK AO2 PK WND 29048/0416 SLP050 T00891128"
"89870","LBB","2011-02-28 05:53:00",-101.8228,33.6636,46.94,10.94,22.89,270,24,NA,29.8,1005.7,4,34,"CLR","   ","   ","   ",NA,NA,NA,NA,"BLDU",NA,NA,NA,40,270,"2011-02-28 05:27",38.21,"KLBB 280553Z 27024G34KT 4SM BLDU CLR 08/M12 A2980 RMK AO2 PK WND 27040/0527 SLP057 T00831117 10161 20083 402500072 53029"
"89988","LBB","2011-03-05 03:51:00",-101.8228,33.6636,53.6,30.2,40.54,330,19,NA,30.14,NA,5,29,"OVC","   ","   ","   ",6500,NA,NA,NA,"HZ BLDU",NA,NA,NA,29,350,"2011-03-05 03:49",53.6,"KLBB 050351Z 33019G29KT 5SM HZ BLDU OVC065 12/M01 A3014 RMK AO2 PK WND 35029/0349 WSHFT 0331 CB DSNT SW-NW-N MOV SE"
"89989","LBB","2011-03-05 04:00:00",-101.8228,33.6636,50,39.2,66.27,330,24,NA,30.16,NA,5,32,"SCT","OVC","   ","   ",4400,5500,NA,NA,"-RA BLDU",NA,NA,NA,NA,NA,NA,42.34,"KLBB 050400Z 33024G32KT 5SM -RA BLDU SCT044 OVC055 10/04 A3016 RMK AO2 PK WND 33032/0355 WSHFT 0340 RAB00 PRESRR CB DSNT SW-NW-N MOV SE P0000"
"90061","LBB","2011-03-08 00:15:00",-101.8228,33.6636,60.8,26.6,26.98,40,24,NA,29.55,NA,2,32,"BKN","OVC","   ","   ",13000,16000,NA,NA,"BLDU",NA,NA,NA,32,40,"2011-03-08 00:14",60.8,"KLBB 080015Z 04024G32KT 2SM BLDU BKN130 OVC160 16/M03 A2955 RMK AO2 PK WND 04032/0014"
"90089","LBB","2011-03-08 17:53:00",-101.8228,33.6636,62.96,21.02,19.79,260,28,NA,29.75,1004.6,6,36,"FEW","SCT","   ","   ",10000,20000,NA,NA,"BLDU",NA,NA,NA,36,270,"2011-03-08 17:45",62.96,"KLBB 081753Z 26028G36KT 6SM BLDU FEW100 SCT200 17/M06 A2975 RMK AO2 PK WND 27036/1745 SLP046 T01721061 10172 20006 50004"
"90090","LBB","2011-03-08 18:53:00",-101.8228,33.6636,64.04,19.04,17.52,270,30,NA,29.73,1004.1,3,40,"SCT","   ","   ","   ",11000,NA,NA,NA,"BLDU",NA,NA,NA,40,280,"2011-03-08 18:52",64.04,"KLBB 081853Z 27030G40KT 3SM BLDU SCT110 18/M07 A2973 RMK AO2 PK WND 28040/1852 SLP041 SKY PRLY OBSCD T01781072"
"90091","LBB","2011-03-08 19:53:00",-101.8228,33.6636,64.94,15.08,14.3,280,29,NA,29.73,1004.2,5,37,"CLR","   ","   ","   ",NA,NA,NA,NA,"BLDU",NA,NA,NA,43,290,"2011-03-08 19:12",64.94,"KLBB 081953Z 28029G37KT 5SM BLDU CLR 18/M09 A2973 RMK AO2 PK WND 29043/1912 SLP042 T01831094"
"90427","LBB","2011-03-22 16:53:00",-101.8228,33.6636,75.02,19.04,12.03,260,28,NA,29.81,1004.9,4,39,"FEW","   ","   ","   ",25000,NA,NA,NA,"BLDU",NA,NA,NA,39,270,"2011-03-22 16:52",72.79,"KLBB 221653Z 26028G39KT 4SM BLDU FEW250 24/M07 A2981 RMK AO2 PK WND 27039/1652 SLP049 SKY PRLY OBSCD T02391072"
"90428","LBB","2011-03-22 17:53:00",-101.8228,33.6636,75.02,15.98,10.54,250,34,NA,29.8,1004.6,6,41,"CLR","   ","   ","   ",NA,NA,NA,NA,"BLDU",NA,NA,NA,41,250,"2011-03-22 17:52",72.72,"KLBB 221753Z 25034G41KT 6SM BLDU CLR 24/M09 A2980 RMK AO2 PK WND 25041/1752 SLP046 SKY PRLY OBSCD T02391089 10244 20150 58004"
"90530","LBB","2011-03-26 23:45:00",-101.8228,33.6636,66.2,32,27.83,90,22,NA,29.75,NA,6,29,"CLR","   ","   ","   ",NA,NA,NA,NA,"BLDU",NA,NA,NA,31,80,"2011-03-26 23:34",66.2,"KLBB 262345Z 09022G29KT 6SM BLDU CLR 19/00 A2975 RMK AO2 PK WND 08031/2334 WSHFT 2325"
"90747","LBB","2011-04-03 18:53:00",-101.8228,33.6636,91.94,19.04,6.97,230,26,NA,29.64,997.7,6,38,"FEW","   ","   ","   ",25000,NA,NA,NA,"BLDU",NA,NA,NA,NA,NA,NA,86.24,"KLBB 031853Z 23026G38KT 6SM BLDU FEW250 33/M07 A2964 RMK AO2 PK WND 23038/1846 SLP977 T03331072 $"
"90748","LBB","2011-04-03 19:53:00",-101.8228,33.6636,93.02,14,5.41,250,27,NA,29.62,996.9,6,33,"FEW","   ","   ","   ",14000,NA,NA,NA,"BLDU",NA,NA,NA,NA,NA,NA,86.77,"KLBB 031953Z 25027G33KT 6SM BLDU FEW140 34/M10 A2962 RMK AO2 PK WND 25038/1927 SLP969 T03391100 $"
"90749","LBB","2011-04-03 20:53:00",-101.8228,33.6636,93.02,12.92,5.16,240,26,NA,29.58,995.9,6,36,"SCT","   ","   ","   ",14000,NA,NA,NA,"BLDU",NA,NA,NA,NA,NA,NA,86.73,"KLBB 032053Z 24026G36KT 6SM BLDU SCT140 34/M11 A2958 RMK AO2 PK WND 25038/2040 SLP959 T03391106 56029 $"
"90750","LBB","2011-04-03 21:53:00",-101.8228,33.6636,91.94,12.02,5.13,240,30,NA,29.55,994.9,4,38,"FEW","SCT","   ","   ",8000,14000,NA,NA,"BLDU",NA,NA,NA,NA,NA,NA,85.92,"KLBB 032153Z 24030G38KT 4SM BLDU FEW080 SCT140 33/M11 A2955 RMK AO2 PK WND 22040/2133 SLP949 T03331111 $"
"90751","LBB","2011-04-03 22:53:00",-101.8228,33.6636,89.96,12.02,5.46,240,29,NA,29.54,994.6,4,39,"FEW","BKN","   ","   ",12000,14000,NA,NA,"BLDU",NA,NA,NA,NA,NA,NA,84.49,"KLBB 032253Z 24029G39KT 4SM BLDU FEW120 BKN140 32/M11 A2954 RMK AO2 PK WND 25040/2241 SLP946 T03221111 $"
"90752","LBB","2011-04-03 23:53:00",-101.8228,33.6636,87.08,12.92,6.22,240,26,NA,29.54,994.8,4,39,"FEW","SCT","BKN","   ",8000,16000,24000,NA,"BLDU",NA,NA,NA,NA,NA,NA,82.44,"KLBB 032353Z 24026G39KT 4SM BLDU FEW080 SCT160 BKN240 31/M11 A2954 RMK AO2 PK WND 24043/2340 SLP948 T03061106 10344 20306 56014"
"90753","LBB","2011-04-04 00:53:00",-101.8228,33.6636,84.92,14,6.99,230,23,NA,29.54,995.1,6,30,"FEW","BKN","BKN","   ",14000,18000,24000,NA,"BLDU",NA,NA,NA,36,240,"2011-04-04 00:13",80.94,"KLBB 040053Z 23023G30KT 6SM BLDU FEW140 BKN180 BKN240 29/M10 A2954 RMK AO2 PK WND 24036/0013 SLP951 T02941100"
"90754","LBB","2011-04-04 01:53:00",-101.8228,33.6636,82.94,14,7.45,240,24,NA,29.57,996,5,33,"FEW","BKN","BKN","   ",14000,18000,24000,NA,"BLDU",NA,NA,NA,33,230,"2011-04-04 01:50",79.57,"KLBB 040153Z 24024G33KT 5SM BLDU FEW140 BKN180 BKN240 28/M10 A2957 RMK AO2 PK WND 23033/0150 SLP960 T02831100"
"90755","LBB","2011-04-04 02:53:00",-101.8228,33.6636,80.06,12.92,7.81,250,22,NA,29.6,996.7,6,32,"SCT","BKN","BKN","   ",11000,16000,20000,NA,"BLDU",NA,NA,NA,32,250,"2011-04-04 02:47",77.68,"KLBB 040253Z 25022G32KT 6SM BLDU SCT110 BKN160 BKN200 27/M11 A2960 RMK AO2 PK WND 25032/0247 SLP967 T02671106 53019"
"90757","LBB","2011-04-04 04:53:00",-101.8228,33.6636,77,15.98,9.87,250,17,NA,29.64,997.7,6,-99,"OVC","   ","   ","   ",25000,NA,NA,NA,"BLDU",NA,NA,NA,26,250,"2011-04-04 04:31",74.86,"KLBB 040453Z 25017KT 6SM BLDU OVC250 25/M09 A2964 RMK AO2 PK WND 25026/0431 SLP977 T02501089"
"90758","LBB","2011-04-04 05:46:00",-101.8228,33.6636,68,23,18.06,360,19,NA,29.72,NA,3,32,"FEW","   ","   ","   ",500,NA,NA,NA,"BLDU",NA,NA,NA,32,350,"2011-04-04 05:43",68,"KLBB 040546Z 36019G32KT 3SM BLDU FEW005 20/M05 A2972 RMK AO2 PK WND 35032/0543 WSHFT 0532 PRESRR"
"90759","LBB","2011-04-04 05:50:00",-101.8228,33.6636,60.8,28.4,29.06,10,17,NA,29.73,NA,1.75,35,"SCT","   ","   ","   ",500,NA,NA,NA,"BLDU",NA,NA,NA,35,360,"2011-04-04 05:48",60.8,"KLBB 040550Z 01017G35KT 1 3/4SM BLDU SCT005 16/M02 A2973 RMK AO2 PK WND 36035/0548 WSHFT 0532 FROPA 403440161"
"90760","LBB","2011-04-04 05:53:00",-101.8228,33.6636,59,28.4,31.68,10,29,NA,29.73,1001.7,1.5,41,"BKN","   ","   ","   ",500,NA,NA,NA,"BLDU",NA,NA,NA,41,10,"2011-04-04 05:53",59,"KLBB 040553Z 01029G41KT 1 1/2SM BLDU BKN005 15/M02 A2973"
"90761","LBB","2011-04-04 05:53:00",-101.8228,33.6636,59,28.4,31.68,10,29,NA,29.73,1001.7,1.5,41,"BKN","   ","   ","   ",500,NA,NA,NA,"BLDU",NA,NA,NA,41,10,"2011-04-04 05:53",59,"KLBB 040553Z 01029G41KT 1 1/2SM BLDU BKN005 15/M02 A2973"
"90762","LBB","2011-04-04 05:53:00",-101.8228,33.6636,59,28.94,31.68,10,29,NA,29.73,1001.7,1.5,41,"BKN","   ","   ","   ",500,NA,NA,NA,"BLDU",NA,NA,NA,41,10,"2011-04-04 05:53",59,"KLBB 040553Z 01029G41KT 1 1/2SM BLDU BKN005 15/M02 A2973 RMK AO2 PK WND 01041/0553 WSHFT 0532 SLP017 FROPA SKY OBSCURED T01501017 10306 20150 403440150 53040"
"90763","LBB","2011-04-04 06:00:00",-101.8228,33.6636,55.4,30.2,37.97,360,27,NA,29.75,NA,1.75,41,"BKN","   ","   ","   ",500,NA,NA,NA,"BLDU",NA,NA,NA,39,10,"2011-04-04 05:56",55.4,"KLBB 040600Z 36027G41KT 1 3/4SM BLDU BKN005 13/M01 A2975 RMK AO2 PK WND 01039/0556 WSHFT 0540"
"90764","LBB","2011-04-04 06:09:00",-101.8228,33.6636,55.4,28.4,35.28,10,26,NA,29.75,NA,3,32,"OVC","   ","   ","   ",700,NA,NA,NA,"BLDU",NA,NA,NA,39,10,"2011-04-04 05:56",55.4,"KLBB 040609Z 01026G32KT 3SM BLDU OVC007 13/M02 A2975 RMK AO2 PK WND 01039/0556 WSHFT 0540 SKY OBSCURED"
"90765","LBB","2011-04-04 06:25:00",-101.8228,33.6636,53.6,28.4,37.67,10,24,NA,29.77,NA,4,37,"OVC","   ","   ","   ",1100,NA,NA,NA,"BLDU",NA,NA,NA,39,10,"2011-04-04 05:56",53.6,"KLBB 040625Z 01024G37KT 4SM BLDU OVC011 12/M02 A2977 RMK AO2 PK WND 01039/0556 WSHFT 0540 SKY OBSCURED"
"90766","LBB","2011-04-04 06:34:00",-101.8228,33.6636,53.6,28.4,37.67,10,27,NA,29.78,NA,4,35,"OVC","   ","   ","   ",1500,NA,NA,NA,"BLDU",NA,NA,NA,39,10,"2011-04-04 05:56",53.6,"KLBB 040634Z 01027G35KT 4SM BLDU OVC015 12/M02 A2978 RMK AO2 PK WND 01039/0556 WSHFT 0540 SKY PTLY OBSCURED"
"90767","LBB","2011-04-04 06:53:00",-101.8228,33.6636,51.08,28.04,40.73,10,22,NA,29.81,1004.9,6,34,"OVC","   ","   ","   ",2100,NA,NA,NA,"BLDU",NA,NA,NA,40,10,"2011-04-04 06:37",51.08,"KLBB 040653Z 01022G34KT 6SM BLDU OVC021 11/M02 A2981 RMK AO2 PK WND 01040/0637 WSHFT 0540 SLP049 T01061022"
"90768","LBB","2011-04-04 07:21:00",-101.8228,33.6636,48.2,28.4,46.02,10,26,NA,29.82,NA,6,35,"SCT","OVC","   ","   ",2500,20000,NA,NA,"BLDU",NA,NA,NA,35,10,"2011-04-04 07:13",39.58,"KLBB 040721Z 01026G35KT 6SM BLDU SCT025 OVC200 09/M02 A2982 RMK AO2 PK WND 01035/0713"
"90901","LBB","2011-04-09 19:53:00",-101.8228,33.6636,91.04,26.06,9.63,190,25,NA,29.71,1000.4,6,37,"FEW","SCT","   ","   ",15000,20000,NA,NA,"BLDU",NA,NA,NA,37,200,"2011-04-09 19:46",86.05,"KLBB 091953Z 19025G37KT 6SM BLDU FEW150 SCT200 33/M03 A2971 RMK AO2 PK WND 20037/1946 SLP004 T03281033"
"90904","LBB","2011-04-09 22:53:00",-101.8228,33.6636,89.96,26.96,10.34,200,25,NA,29.64,998.4,6,36,"FEW","   ","   ","   ",18000,NA,NA,NA,"BLDU",NA,NA,NA,38,200,"2011-04-09 22:33",85.31,"KLBB 092253Z 20025G36KT 6SM BLDU FEW180 32/M03 A2964 RMK AO2 PK WND 20038/2233 SLP984 T03221028"
"90908","LBB","2011-04-10 02:53:00",-101.8228,33.6636,82.04,23,11.29,180,16,NA,29.64,998.2,5,-99,"FEW","   ","   ","   ",18000,NA,NA,NA,"DU",NA,NA,NA,NA,NA,NA,79.43,"KLBB 100253Z 18016KT 5SM DU FEW180 28/M05 A2964 RMK AO2 SLP982 T02781050 53002"
"90924","LBB","2011-04-10 17:53:00",-101.8228,33.6636,69.08,24.08,18.21,280,22,NA,29.87,1006.5,6,28,"FEW","   ","   ","   ",20000,NA,NA,NA,"BLDU",NA,NA,NA,29,290,"2011-04-10 17:33",69.08,"KLBB 101753Z 28022G28KT 6SM BLDU FEW200 21/M04 A2987 RMK AO2 PK WND 29029/1733 SLP065 T02061044 10211 20111 58004 $"
"91019","LBB","2011-04-14 15:53:00",-101.8228,33.6636,71.96,14,10.72,290,26,NA,29.75,1003.2,5,36,"CLR","   ","   ","   ",NA,NA,NA,NA,"BLDU",NA,NA,NA,38,280,"2011-04-14 15:41",69.36,"KLBB 141553Z 29026G36KT 5SM BLDU CLR 22/M10 A2975 RMK AO2 PK WND 28038/1541 SLP032 T02221100"
"91022","LBB","2011-04-14 18:53:00",-101.8228,33.6636,75.92,12.92,8.95,270,21,NA,29.72,1001.7,6,34,"CLR","   ","   ","   ",NA,NA,NA,NA,"BLDU",NA,NA,NA,37,280,"2011-04-14 18:40",73.63,"KLBB 141853Z 27021G34KT 6SM BLDU CLR 24/M11 A2972 RMK AO2 PK WND 28037/1840 SLP017 BLDU FEW000 T02441106"
"91023","LBB","2011-04-14 19:53:00",-101.8228,33.6636,78.08,8.06,6.71,280,31,NA,29.71,1001.4,5,38,"CLR","   ","   ","   ",NA,NA,NA,NA,"BLDU",NA,NA,NA,38,260,"2011-04-14 19:53",75.9,"KLBB 141953Z 28031G38KT 5SM BLDU CLR 26/M13 A2971 RMK AO2 PK WND 26038/1953 SLP014 BLDU FEW000 T02561133"
"91024","LBB","2011-04-14 20:33:00",-101.8228,33.6636,75.2,6.8,6.97,280,24,NA,29.7,NA,3,41,"FEW","   ","   ","   ",700,NA,NA,NA,"BLDU",NA,NA,NA,42,290,"2011-04-14 20:11",72.75,"KLBB 142033Z 28024G41KT 3SM BLDU FEW007 24/M14 A2970 RMK AO2 PK WND 29042/2011 BLDU FEW007 ALQDS"
"91025","LBB","2011-04-14 20:53:00",-101.8228,33.6636,75.92,6.08,6.59,290,32,NA,29.69,1001.1,4,41,"FEW","   ","   ","   ",1000,NA,NA,NA,"BLDU",NA,NA,NA,42,290,"2011-04-14 20:11",73.52,"KLBB 142053Z 29032G41KT 4SM BLDU FEW010 24/M14 A2969 RMK AO2 PK WND 29042/2011 SLP011 BLDU FEW007 ALQDS T02441144 56018"
"91026","LBB","2011-04-14 21:53:00",-101.8228,33.6636,75.02,5,6.46,290,27,NA,29.7,1001.5,5,43,"CLR","   ","   ","   ",NA,NA,NA,NA,"BLDU",NA,NA,NA,46,280,"2011-04-14 21:38",72.53,"KLBB 142153Z 29027G43KT 5SM BLDU CLR 24/M15 A2970 RMK AO2 PK WND 28046/2138 SLP015 BLDU SCT000 T02391150"
"91072","LBB","2011-04-16 18:53:00",-101.8228,33.6636,69.08,17.06,13.51,180,22,NA,30.02,1014.3,5,29,"CLR","   ","   ","   ",NA,NA,NA,NA,"FU BLDU",NA,NA,NA,29,180,"2011-04-16 18:53",69.08,"KLBB 161853Z 18022G29KT 5SM FU BLDU CLR 21/M08 A3002 RMK AO2 PK WND 18029/1853 SLP143 T02061083"
"91073","LBB","2011-04-16 19:53:00",-101.8228,33.6636,73.04,17.06,11.81,170,19,NA,29.98,1012.4,5,26,"CLR","   ","   ","   ",NA,NA,NA,NA,"FU BLDU",NA,NA,NA,30,180,"2011-04-16 19:15",70.6,"KLBB 161953Z 17019G26KT 5SM FU BLDU CLR 23/M08 A2998 RMK AO2 PK WND 18030/1915 SLP124 T02281083"
"91074","LBB","2011-04-16 20:53:00",-101.8228,33.6636,73.94,17.06,11.46,180,19,NA,29.94,1010.9,4,26,"CLR","   ","   ","   ",NA,NA,NA,NA,"FU BLDU",NA,NA,NA,29,180,"2011-04-16 20:04",71.57,"KLBB 162053Z 18019G26KT 4SM FU BLDU CLR 23/M08 A2994 RMK AO2 PK WND 18029/2004 SLP109 T02331083 58038"
"91075","LBB","2011-04-16 21:53:00",-101.8228,33.6636,75.02,15.98,10.54,180,18,NA,29.9,1009.7,5,24,"SCT","   ","   ","   ",25000,NA,NA,NA,"FU BLDU",NA,NA,NA,26,170,"2011-04-16 20:58",72.72,"KLBB 162153Z 18018G24KT 5SM FU BLDU SCT250 24/M09 A2990 RMK AO2 PK WND 17026/2058 SLP097 T02391089"
"91076","LBB","2011-04-16 22:53:00",-101.8228,33.6636,75.02,17.06,11.05,200,17,NA,29.88,1008.9,5,-99,"SCT","   ","   ","   ",24000,NA,NA,NA,"FU BLDU",NA,NA,NA,NA,NA,NA,72.74,"KLBB 162253Z 20017KT 5SM FU BLDU SCT240 24/M08 A2988 RMK AO2 SLP089 T02391083"
"91077","LBB","2011-04-16 23:53:00",-101.8228,33.6636,73.94,15.98,10.93,190,15,NA,29.87,1008.7,5,-99,"SCT","   ","   ","   ",25000,NA,NA,NA,"FU DU",NA,NA,NA,NA,NA,NA,71.55,"KLBB 162353Z 19015KT 5SM FU DU SCT250 23/M09 A2987 RMK AO2 SLP087 T02331089 10244 20189 56020"
"91078","LBB","2011-04-17 00:53:00",-101.8228,33.6636,71.06,17.06,12.63,180,10,NA,29.87,1008.8,5,-99,"SCT","   ","   ","   ",25000,NA,NA,NA,"FU DU",NA,NA,NA,NA,NA,NA,68.46,"KLBB 170053Z 18010KT 5SM FU DU SCT250 22/M08 A2987 RMK AO2 SLP088 T02171083"
"91291","LBB","2011-04-25 17:53:00",-101.8228,33.6636,77,23,13.32,260,30,NA,29.67,1000.2,5,39,"BKN","   ","   ","   ",25000,NA,NA,NA,"BLDU",NA,NA,NA,40,280,"2011-04-25 17:42",75.03,"KLBB 251753Z 26030G39KT 5SM BLDU BKN250 25/M05 A2967 RMK AO2 PK WND 28040/1742 SLP002 T02501050 10250 20094 58015"
"91292","LBB","2011-04-25 18:53:00",-101.8228,33.6636,77,23,13.32,290,29,NA,29.65,999.5,6,41,"FEW","BKN","   ","   ",12000,25000,NA,NA,"BLDU",NA,NA,NA,41,290,"2011-04-25 18:46",75.03,"KLBB 251853Z 29029G41KT 6SM BLDU FEW120 BKN250 25/M05 A2965 RMK AO2 PK WND 29041/1846 SLP995 T02501050"
"91293","LBB","2011-04-25 19:53:00",-101.8228,33.6636,75.92,21.92,13.2,270,27,NA,29.65,999.6,5,40,"SCT","OVC","   ","   ",12000,25000,NA,NA,"BLDU",NA,NA,NA,48,280,"2011-04-25 19:01",73.83,"KLBB 251953Z 27027G40KT 5SM BLDU SCT120 OVC250 24/M06 A2965 RMK AO2 PK WND 28048/1901 SLP996 T02441056"
"91294","LBB","2011-04-25 20:36:00",-101.8228,33.6636,78.8,21.2,11.64,280,27,NA,29.63,NA,2.5,41,"SCT","BKN","   ","   ",12000,25000,NA,NA,"BLDU",NA,NA,NA,41,270,"2011-04-25 20:33",76.93,"KLBB 252036Z 28027G41KT 2 1/2SM BLDU SCT120 BKN250 26/M06 A2963 RMK AO2 PK WND 27041/2033"
"91295","LBB","2011-04-25 20:50:00",-101.8228,33.6636,78.8,19.4,10.78,280,28,NA,29.62,NA,3,41,"SCT","BKN","   ","   ",12000,25000,NA,NA,"BLDU",NA,NA,NA,41,260,"2011-04-25 20:41",76.89,"KLBB 252050Z 28028G41KT 3SM BLDU SCT120 BKN250 26/M07 A2962 RMK AO2 PK WND 26041/2041"
"91296","LBB","2011-04-25 20:53:00",-101.8228,33.6636,78.98,19.04,10.55,270,30,NA,29.62,998.6,3,38,"SCT","BKN","   ","   ",12000,25000,NA,NA,"BLDU",NA,NA,NA,41,260,"2011-04-25 20:41",77.07,"KLBB 252053Z 27030G38KT 3SM BLDU SCT120 BKN250 26/M07 A2962 RMK AO2 PK WND 26041/2041 SLP986 T02611072 56008"
"91297","LBB","2011-04-25 21:53:00",-101.8228,33.6636,78.98,21.02,11.48,290,25,NA,29.6,998,6,36,"SCT","   ","   ","   ",25000,NA,NA,NA,"BLDU",NA,NA,NA,43,280,"2011-04-25 21:29",77.12,"KLBB 252153Z 29025G36KT 6SM BLDU SCT250 26/M06 A2960 RMK AO2 PK WND 28043/2129 SLP980 T02611061"
"91324","LBB","2011-04-26 20:03:00",-101.8228,33.6636,75.2,19.4,12.14,280,31,NA,29.46,NA,1.5,39,"BKN","BKN","   ","   ",12000,20000,NA,NA,"BLDU",NA,NA,NA,39,280,"2011-04-26 20:02",72.99,"KLBB 262003Z 28031G39KT 1 1/2SM R17R/2600VP6000FT BLDU BKN120 BKN200 24/M07 A2946 RMK AO2 PK WND 28039/2002"
"91325","LBB","2011-04-26 20:09:00",-101.8228,33.6636,75.2,19.4,12.14,280,18,NA,29.47,NA,5,39,"BKN","BKN","   ","   ",12000,20000,NA,NA,"BLDU",NA,NA,NA,39,280,"2011-04-26 20:02",72.99,"KLBB 262009Z 28018G39KT 5SM R17R/2600VP6000FT BLDU BKN120 BKN200 24/M07 A2947 RMK AO2 PK WND 28039/2002 CB DSNT NE-E MOV E"
"91329","LBB","2011-04-26 23:53:00",-101.8228,33.6636,78.98,19.04,10.55,310,29,NA,29.38,991.4,4,36,"SCT","OVC","   ","   ",14000,23000,NA,NA,"BLDU",NA,NA,NA,38,270,"2011-04-26 23:04",77.07,"KLBB 262353Z 31029G36KT 4SM BLDU SCT140 OVC230 26/M07 A2938 RMK AO2 PK WND 27038/2304 SLP914 T02611072 10278 20244 56018"
"91330","LBB","2011-04-27 00:53:00",-101.8228,33.6636,73.04,21.92,14.53,320,23,NA,29.42,992.7,6,28,"FEW","SCT","   ","   ",14000,23000,NA,NA,"BLDU",NA,NA,NA,36,320,"2011-04-26 23:56",70.73,"KLBB 270053Z 32023G28KT 6SM BLDU FEW140 SCT230 23/M06 A2942 RMK AO2 PK WND 32036/2356 SLP927 T02281056"
"91331","LBB","2011-04-27 01:53:00",-101.8228,33.6636,69.08,14,11.82,320,26,NA,29.48,995,4,33,"CLR","   ","   ","   ",NA,NA,NA,NA,"BLDU",NA,NA,NA,38,310,"2011-04-27 01:15",69.08,"KLBB 270153Z 32026G33KT 4SM BLDU CLR 21/M10 A2948 RMK AO2 PK WND 31038/0115 SLP950 T02061100"
"91392","LBB","2011-04-29 14:53:00",-101.8228,33.6636,66.92,39.92,37.15,190,26,NA,29.81,1005.7,6,33,"FEW","   ","   ","   ",25000,NA,NA,NA,"BLDU",NA,NA,NA,36,180,"2011-04-29 14:40",66.92,"KLBB 291453Z COR 19026G33KT 6SM BLDU FEW250 19/04 A2981 RMK AO2 PK WND 18036/1440 SLP057 T01940044 58012"
"91393","LBB","2011-04-29 15:53:00",-101.8228,33.6636,73.04,39.92,30.14,190,24,NA,29.8,1004.8,6,28,"CLR","   ","   ","   ",NA,NA,NA,NA,"BLDU",NA,NA,NA,33,180,"2011-04-29 15:09",71.46,"KLBB 291553Z 19024G28KT 6SM BLDU CLR 23/04 A2980 RMK AO2 PK WND 18033/1509 SLP048 T02280044"
"91394","LBB","2011-04-29 16:53:00",-101.8228,33.6636,78.98,39.02,23.88,200,27,NA,29.78,1003.7,4,31,"FEW","   ","   ","   ",20000,NA,NA,NA,"BLDU",NA,NA,NA,32,180,"2011-04-29 16:11",77.7,"KLBB 291653Z 20027G31KT 4SM BLDU FEW200 26/04 A2978 RMK AO2 PK WND 18032/1611 SLP037 BLDU SCT000 T02610039"
"91395","LBB","2011-04-29 17:53:00",-101.8228,33.6636,84.92,37.04,18.22,190,27,NA,29.72,1001.5,3,35,"SCT","   ","   ","   ",20000,NA,NA,NA,"BLDU",NA,NA,NA,35,200,"2011-04-29 17:48",81.9,"KLBB 291753Z 19027G35KT 3SM BLDU SCT200 29/03 A2972 RMK AO2 PK WND 20035/1748 SLP015 BLDU FEW000 T02940028 10294 20128 58028"
"91396","LBB","2011-04-29 18:53:00",-101.8228,33.6636,91.04,30.92,11.75,210,21,NA,29.68,999.9,3,32,"SCT","   ","   ","   ",20000,NA,NA,NA,"BLDU",NA,NA,NA,38,190,"2011-04-29 18:37",86.51,"KLBB 291853Z 21021G32KT 3SM BLDU SCT200 33/M01 A2968 RMK AO2 PK WND 19038/1837 SFC VIS 4 SLP999 BLDU SCT000 T03281006"
"91397","LBB","2011-04-29 19:53:00",-101.8228,33.6636,93.02,26.96,9.4,220,28,NA,29.64,998.4,3,40,"SCT","   ","   ","   ",20000,NA,NA,NA,"BLDU",NA,NA,NA,40,220,"2011-04-29 19:47",87.62,"KLBB 291953Z 22028G40KT 3SM BLDU SCT200 34/M03 A2964 RMK AO2 PK WND 22040/1947 SFC VIS 4 SLP984 BLDU SCT000 T03391028"
"91398","LBB","2011-04-29 20:53:00",-101.8228,33.6636,93.92,21.02,7.13,210,24,NA,29.59,996.9,3,45,"FEW","   ","   ","   ",20000,NA,NA,NA,"BLDU",NA,NA,NA,45,210,"2011-04-29 20:48",87.81,"KLBB 292053Z 21024G45KT 3SM BLDU FEW200 34/M06 A2959 RMK AO2 PK WND 21045/2048 SFC VIS 4 SLP969 BLDU SCT000 T03441061 58041"
"91399","LBB","2011-04-29 21:26:00",-101.8228,33.6636,96.8,14,4.82,220,29,NA,29.56,NA,2.5,45,"FEW","   ","   ","   ",20000,NA,NA,NA,"BLDU",NA,NA,NA,45,210,"2011-04-29 21:21",89.69,"KLBB 292126Z 22029G45KT 2 1/2SM BLDU FEW200 36/M10 A2956 RMK AO2 PK WND 21045/2121 TWR VIS 3 BLDU SCTOOO"
"91400","LBB","2011-04-29 21:33:00",-101.8228,33.6636,96.8,10.4,4.11,220,31,NA,29.55,NA,1.5,59,"FEW","   ","   ","   ",20000,NA,NA,NA,"BLDU",NA,NA,NA,59,220,"2011-04-29 21:30",89.54,"KLBB 292133Z 22031G59KT 1 1/2SM BLDU FEW200 36/M12 A2955 RMK AO2 PK WND 22059/2130 TWR VIS 3 BLDU SCTOOO"
"91401","LBB","2011-04-29 21:46:00",-101.8228,33.6636,96.8,8.6,3.79,230,34,NA,29.55,NA,2,46,"FEW","   ","   ","   ",20000,NA,NA,NA,"BLDU",NA,NA,NA,59,220,"2011-04-29 21:30",89.47,"KLBB 292146Z 23034G46KT 2SM BLDU FEW200 36/M13 A2955 RMK AO2 PK WND 22059/2130 BLDU SCTOOO"
"91402","LBB","2011-04-29 21:53:00",-101.8228,33.6636,96.08,8.96,3.94,230,30,NA,29.55,995.4,2,41,"FEW","   ","   ","   ",20000,NA,NA,NA,"BLDU",NA,NA,NA,59,220,"2011-04-29 21:30",88.89,"KLBB 292153Z 23030G41KT 2SM BLDU FEW200 36/M13 A2955 RMK AO2 PK WND 22059/2130 SLP954 BLDU BKNOOO T03561128"
"91403","LBB","2011-04-29 22:53:00",-101.8228,33.6636,95,3.92,3.24,230,30,NA,29.52,994.4,2.5,42,"FEW","   ","   ","   ",20000,NA,NA,NA,"BLDU",NA,NA,NA,47,240,"2011-04-29 22:33",87.83,"KLBB 292253Z 23030G42KT 2 1/2SM BLDU FEW200 35/M16 A2952 RMK AO2 PK WND 24047/2233 TWR VIS 3 SLP944 T03501156"
"91404","LBB","2011-04-29 23:53:00",-101.8228,33.6636,93.02,3.92,3.44,230,29,NA,29.52,994.6,3,42,"SCT","   ","   ","   ",25000,NA,NA,NA,"BLDU",NA,NA,NA,46,260,"2011-04-29 23:20",86.44,"KLBB 292353Z 23029G42KT 3SM BLDU SCT250 34/M16 A2952 RMK AO2 PK WND 26046/2320 SLP946 BLDU SCT000 T03391156 10361 20294 55021"
"91405","LBB","2011-04-30 00:53:00",-101.8228,33.6636,89.96,6.98,4.36,230,27,NA,29.54,995.2,4,34,"CLR","   ","   ","   ",NA,NA,NA,NA,"BLDU",NA,NA,NA,43,240,"2011-04-30 00:14",84.34,"KLBB 300053Z 23027G34KT 4SM BLDU CLR 32/M14 A2954 RMK AO2 PK WND 24043/0014 SLP952 T03221139"
"91406","LBB","2011-04-30 01:53:00",-101.8228,33.6636,86,6.98,4.94,220,15,NA,29.56,996,4,23,"CLR","   ","   ","   ",NA,NA,NA,NA,"BLDU",NA,NA,NA,33,230,"2011-04-30 00:56",81.49,"KLBB 300153Z 22015G23KT 4SM BLDU CLR 30/M14 A2956 RMK AO2 PK WND 23033/0056 SLP960 T03001139"
"91407","LBB","2011-04-30 02:53:00",-101.8228,33.6636,82.04,10.04,6.44,200,14,NA,29.59,996.9,6,-99,"CLR","   ","   ","   ",NA,NA,NA,NA,"BLDU",NA,NA,NA,NA,NA,NA,78.81,"KLBB 300253Z 20014KT 6SM BLDU CLR 28/M12 A2959 RMK AO2 SLP969 T02781122 53021"
"91886","LBB","2011-05-18 22:53:00",-101.8228,33.6636,87.08,26.06,10.91,200,21,NA,29.52,994.4,6,29,"FEW","BKN","   ","   ",16000,20000,NA,NA,"BLDU",NA,NA,NA,35,210,"2011-05-18 22:17",83.13,"KLBB 182253Z 20021G29KT 6SM BLDU FEW160 BKN200 31/M03 A2952 RMK AO2 PK WND 21035/2217 SLP944 T03061033"
"92035","LBB","2011-05-24 15:53:00",-101.8228,33.6636,86,10.04,5.67,260,28,NA,29.71,1000.1,5,35,"CLR","   ","   ","   ",NA,NA,NA,NA,"BLDU",NA,NA,NA,35,260,"2011-05-24 15:53",81.57,"KLBB 241553Z 26028G35KT 5SM BLDU CLR 30/M12 A2971 RMK AO2 PK WND 26035/1553 SLP001 T03001122"
"92037","LBB","2011-05-24 17:53:00",-101.8228,33.6636,87.98,15.08,6.65,240,28,NA,29.69,999.5,6,35,"CLR","   ","   ","   ",NA,NA,NA,NA,"BLDU",NA,NA,NA,38,240,"2011-05-24 17:28",83.17,"KLBB 241753Z 24028G35KT 6SM BLDU CLR 31/M09 A2969 RMK AO2 PK WND 24038/1728 SLP995 BLDU ALQDS T03111094 10317 20178 56012"
"92038","LBB","2011-05-24 18:53:00",-101.8228,33.6636,89.96,15.08,6.25,240,28,NA,29.68,999.2,5,39,"FEW","   ","   ","   ",11000,NA,NA,NA,"BLDU",NA,NA,NA,40,240,"2011-05-24 18:40",84.6,"KLBB 241853Z 24028G39KT 5SM BLDU FEW110 32/M09 A2968 RMK AO2 PK WND 24040/1840 SLP992 BLDU SCT000 T03221094"
"92039","LBB","2011-05-24 19:53:00",-101.8228,33.6636,87.98,14,6.34,260,22,NA,29.67,999.2,6,40,"FEW","   ","   ","   ",13000,NA,NA,NA,"BLDU",NA,NA,NA,43,240,"2011-05-24 19:22",83.12,"KLBB 241953Z 26022G40KT 6SM BLDU FEW130 31/M10 A2967 RMK AO2 PK WND 24043/1922 SLP992 BLDU SCT000 T03111100"
"92040","LBB","2011-05-24 21:01:00",-101.8228,33.6636,87.8,6.8,4.63,260,27,NA,29.65,NA,2,41,"FEW","   ","   ","   ",14000,NA,NA,NA,"BLDU",NA,NA,NA,41,260,"2011-05-24 20:57",82.78,"KLBB 242101Z 26027G41KT 2SM BLDU FEW140 31/M14 A2965 RMK AO2 PK WND 26041/2057 BLDU BKN000"
"92041","LBB","2011-05-24 21:20:00",-101.8228,33.6636,87.8,5,4.26,270,31,NA,29.65,NA,3,39,"FEW","   ","   ","   ",14000,NA,NA,NA,"BLDU",NA,NA,NA,41,260,"2011-05-24 20:57",82.74,"KLBB 242120Z 27031G39KT 3SM BLDU FEW140 31/M15 A2965 RMK AO2 PK WND 26041/2057 BLDU SCT000"
"92042","LBB","2011-05-24 21:43:00",-101.8228,33.6636,87.8,1.4,3.61,270,37,NA,29.64,NA,1.5,46,"FEW","   ","   ","   ",14000,NA,NA,NA,"BLDU",NA,NA,NA,46,280,"2011-05-24 21:43",82.67,"KLBB 242143Z 27037G46KT 1 1/2SM BLDU FEW140 31/M17 A2964 RMK AO2 PK WND 28046/2143 TWR VIS 3 BLDU BKN000"
"92043","LBB","2011-05-24 22:00:00",-101.8228,33.6636,87.8,3.2,3.92,270,27,NA,29.65,NA,2,46,"FEW","   ","   ","   ",15000,NA,NA,NA,"BLDU",NA,NA,NA,42,260,"2011-05-24 21:54",82.7,"KLBB 242200Z 27027G46KT 2SM BLDU FEW150 31/M16 A2965 RMK AO2 PK WND 26042/2154 BLDU SCT000"
"92044","LBB","2011-05-24 22:03:00",-101.8228,33.6636,86,1.4,3.82,260,27,NA,29.64,NA,4,42,"FEW","   ","   ","   ",15000,NA,NA,NA,"BLDU",NA,NA,NA,42,260,"2011-05-24 21:54",81.37,"KLBB 242203Z 26027G42KT 4SM BLDU FEW150 30/M17 A2964 RMK AO2 PK WND 26042/2154 BLDU SCT000"
"92045","LBB","2011-05-24 22:53:00",-101.8228,33.6636,86,3.92,4.29,260,25,NA,29.64,998.8,6,36,"FEW","   ","   ","   ",15000,NA,NA,NA,"BLDU",NA,NA,NA,42,250,"2011-05-24 22:12",81.42,"KLBB 242253Z 26025G36KT 6SM BLDU FEW150 30/M16 A2964 RMK AO2 PK WND 25042/2212 SLP988 BLDU SCT000 T03001156"
"92046","LBB","2011-05-24 23:17:00",-101.8228,33.6636,84.2,1.4,4.05,280,32,NA,29.65,NA,2,40,"FEW","   ","   ","   ",15000,NA,NA,NA,"BLDU",NA,NA,NA,40,280,"2011-05-24 23:14",80.08,"KLBB 242317Z 28032G40KT 2SM BLDU FEW150 29/M17 A2965 RMK AO2 PK WND 28040/2314 BLDU BKN000"
"92047","LBB","2011-05-24 23:46:00",-101.8228,33.6636,84.2,3.2,4.4,290,28,NA,29.65,NA,3,36,"FEW","   ","   ","   ",15000,NA,NA,NA,"BLDU",NA,NA,NA,40,280,"2011-05-24 23:14",80.12,"KLBB 242346Z 29028G36KT 3SM BLDU FEW150 29/M16 A2965 RMK AO2 PK WND 28040/2314 SFC VIS 4 BLDU FEW000"
"92048","LBB","2011-05-24 23:53:00",-101.8228,33.6636,84.02,3.92,4.58,280,25,NA,29.66,999.2,3,34,"FEW","   ","   ","   ",15000,NA,NA,NA,"BLDU",NA,NA,NA,40,280,"2011-05-24 23:14",80.01,"KLBB 242353Z 28025G34KT 3SM BLDU FEW150 29/M16 A2966 RMK AO2 PK WND 28040/2314 SFC VIS 4 SLP992 T02891156 10322 20289 53001"
"92049","LBB","2011-05-25 00:53:00",-101.8228,33.6636,82.04,5,5.13,270,21,NA,29.67,999.4,6,33,"CLR","   ","   ","   ",NA,NA,NA,NA,"BLDU",NA,NA,NA,40,280,"2011-05-25 00:21",78.66,"KLBB 250053Z 27021G33KT 6SM BLDU CLR 28/M15 A2967 RMK AO2 PK WND 28040/0021 SLP994 T02781150"
"92166","LBB","2011-05-29 21:53:00",-101.8228,33.6636,102.02,39.02,11.59,190,22,NA,29.61,995.7,7,34,"FEW","   ","   ","   ",8500,NA,NA,NA,"BLDU",NA,NA,NA,42,170,"2011-05-29 21:43",96.79,"KLBB 292153Z 19022G34KT 7SM BLDU FEW085 39/04 A2961 RMK AO2 PK WND 17042/2143 SLP957 T03890039"
"92171","LBB","2011-05-30 02:53:00",-101.8228,33.6636,87.98,55.94,33.75,170,25,NA,29.65,997.6,5,34,"CLR","   ","   ","   ",NA,NA,NA,NA,"BLDU",NA,NA,NA,34,170,"2011-05-30 02:45",86.41,"KLBB 300253Z 17025G34KT 5SM BLDU CLR 31/13 A2965 RMK AO2 PK WND 17034/0245 SLP976 T03110133 53017"
"92172","LBB","2011-05-30 03:53:00",-101.8228,33.6636,84.92,55.94,37.21,170,19,NA,29.68,998.6,6,26,"CLR","   ","   ","   ",NA,NA,NA,NA,"BLDU",NA,NA,NA,37,180,"2011-05-30 03:14",83.77,"KLBB 300353Z 17019G26KT 6SM BLDU CLR 29/13 A2968 RMK AO2 PK WND 18037/0314 SLP986 T02940133"
"92175","LBB","2011-05-30 07:02:00",-101.8228,33.6636,82.4,55.4,39.58,190,25,NA,29.7,NA,2.5,32,"OVC","   ","   ","   ",1100,NA,NA,NA,"BLDU",NA,NA,NA,32,190,"2011-05-30 07:02",82.4,"KLBB 300702Z 19025G32KT 2 1/2SM BLDU OVC011 28/13 A2970 RMK AO2 PK WND 19032/0702 BLDU OVC011 SKY PTLY OBSCURED"
"92176","LBB","2011-05-30 07:43:00",-101.8228,33.6636,80.6,55.4,41.97,180,22,NA,29.7,NA,3,33,"SCT","   ","   ","   ",800,NA,NA,NA,"BLDU",NA,NA,NA,34,180,"2011-05-30 07:23",80.53,"KLBB 300743Z 18022G33KT 3SM BLDU SCT008 27/13 A2970 RMK AO2 PK WND 18034/0723 BLDU SCT008 SKY PTLY OBSCURED"
"92177","LBB","2011-05-30 07:53:00",-101.8228,33.6636,80.96,57.02,43.99,180,24,NA,29.7,998.9,3,33,"SCT","SCT","   ","   ",800,2400,NA,NA,"BLDU",NA,NA,NA,34,180,"2011-05-30 07:23",81.02,"KLBB 300753Z 18024G33KT 3SM BLDU SCT008 SCT024 27/14 A2970 RMK AO2 PK WND 18034/0723 SLP989 SKY PTLY OBSCURED T02720139"
"92178","LBB","2011-05-30 08:53:00",-101.8228,33.6636,78.08,60.08,53.95,180,27,NA,29.71,999.3,6,37,"CLR","   ","   ","   ",NA,NA,NA,NA,"BLDU",NA,NA,NA,37,180,"2011-05-30 08:46",78.08,"KLBB 300853Z 18027G37KT 6SM BLDU CLR 26/16 A2971 RMK AO2 PK WND 18037/0846 SLP993 T02560156 51006"
"92259","LBB","2011-06-02 16:53:00",-101.8228,33.6636,84.02,53.06,34.49,180,23,NA,30.06,1012.2,6,29,"BKN","   ","   ","   ",22000,NA,NA,NA,"BLDU",NA,NA,NA,30,180,"2011-06-02 15:56",82.53,"KLBB 021653Z 18023G29KT 6SM BLDU BKN220 29/12 A3006 RMK AO2 PK WND 18030/1556 SLP122 T02890117"
"92260","LBB","2011-06-02 17:53:00",-101.8228,33.6636,87.08,51.98,30.05,200,23,NA,30.04,1011.3,5,31,"BKN","   ","   ","   ",25000,NA,NA,NA,"BLDU",NA,NA,NA,31,190,"2011-06-02 17:47",84.8,"KLBB 021753Z 20023G31KT 5SM BLDU BKN250 31/11 A3004 RMK AO2 PK WND 19031/1747 SLP113 T03060111 10306 20211 58004"
"92261","LBB","2011-06-02 18:53:00",-101.8228,33.6636,89.96,51.08,26.54,200,18,NA,30.02,1010.4,5,29,"BKN","   ","   ","   ",25000,NA,NA,NA,"BLDU",NA,NA,NA,30,190,"2011-06-02 18:27",87.2,"KLBB 021853Z 20018G29KT 5SM BLDU BKN250 32/11 A3002 RMK AO2 PK WND 19030/1827 SLP104 T03220106"
"92262","LBB","2011-06-02 19:53:00",-101.8228,33.6636,93.02,48.92,22.25,190,21,NA,29.98,1009.2,4,27,"BKN","   ","   ","   ",25000,NA,NA,NA,"BLDU",NA,NA,NA,28,200,"2011-06-02 19:27",89.74,"KLBB 021953Z 19021G27KT 4SM BLDU BKN250 34/09 A2998 RMK AO2 PK WND 20028/1927 SLP092 T03390094"
"92263","LBB","2011-06-02 20:53:00",-101.8228,33.6636,93.92,46.94,20.09,170,18,NA,29.96,1008.5,4,30,"SCT","   ","   ","   ",25000,NA,NA,NA,"BLDU",NA,NA,NA,30,160,"2011-06-02 20:48",90.32,"KLBB 022053Z 17018G30KT 4SM BLDU SCT250 34/08 A2996 RMK AO2 PK WND 16030/2048 SLP085 T03440083 56023"
"92264","LBB","2011-06-02 21:53:00",-101.8228,33.6636,95,41,15.49,190,22,NA,29.93,1007.5,6,30,"FEW","   ","   ","   ",25000,NA,NA,NA,"BLDU",NA,NA,NA,30,160,"2011-06-02 21:49",90.7,"KLBB 022153Z 19022G30KT 6SM BLDU FEW250 35/05 A2993 RMK AO2 PK WND 16030/2149 SLP075 T03500050"
"92287","LBB","2011-06-03 19:53:00",-101.8228,33.6636,93.92,37.94,14.21,180,21,NA,29.99,1009.6,6,31,"SCT","BKN","   ","   ",20000,25000,NA,NA,"BLDU",NA,NA,NA,31,160,"2011-06-03 19:47",89.5,"KLBB 031953Z 18021G31KT 6SM BLDU SCT200 BKN250 34/03 A2999 RMK AO2 PK WND 16031/1947 SLP096 T03440033"
"92288","LBB","2011-06-03 20:53:00",-101.8228,33.6636,95,39.02,14.34,180,19,NA,29.98,1009.2,6,28,"FEW","SCT","BKN","   ",16000,20000,25000,NA,"BLDU",NA,NA,NA,31,180,"2011-06-03 19:56",90.55,"KLBB 032053Z 18019G28KT 6SM BLDU FEW160 SCT200 BKN250 35/04 A2998 RMK AO2 PK WND 18031/1956 SLP092 T03500039 56013"
"92461","LBB","2011-06-10 22:00:00",-101.8228,33.6636,87.8,55.4,33.29,80,17,NA,29.84,NA,2,32,"FEW","SCT","   ","   ",8000,14000,NA,NA,"BLDU",NA,NA,NA,32,80,"2011-06-10 21:54",86.11,"KLBB 102200Z 08017G32KT 2SM R17R/6000VP6000FT BLDU FEW080CB SCT140 31/13 A2984 RMK AO2 PK WND 08032/2154 WSHFT 2142 CB NE-SE MOV NE"
"92522","LBB","2011-06-13 02:17:00",-101.8228,33.6636,89.6,41,18.33,220,14,NA,29.89,NA,0.75,25,"BKN","BKN","   ","   ",300,1200,NA,NA,"BLDU",NA,NA,NA,NA,NA,NA,85.82,"KLBB 130217Z 22014G25KT 3/4SM R17R/P6000FT BLDU BKN003 BKN012 32/05 A2989"
"92523","LBB","2011-06-13 02:34:00",-101.8228,33.6636,87.8,41,19.4,260,8,NA,29.9,NA,1.5,-99,"OVC","   ","   ","   ",300,NA,NA,NA,"BLDU",NA,NA,NA,34,210,"2011-06-13 01:57",84.3,"KLBB 130234Z 26008KT 1 1/2SM BLDU OVC003 31/05 A2990 RMK AO2 PK WND 21034/0157 $"
"92524","LBB","2011-06-13 02:53:00",-101.8228,33.6636,87.98,41,19.29,270,7,NA,29.91,1006.6,1.5,-99,"OVC","   ","   ","   ",500,NA,NA,NA,"BLDU",NA,NA,NA,34,210,"2011-06-13 01:57",84.45,"KLBB 130253Z 27007KT 1 1/2SM BLDU OVC005 31/05 A2991 RMK AO2 PK WND 21034/0157 SLP066 T03110050 53020 $"
"92541","LBB","2011-06-13 16:53:00",-101.8228,33.6636,93.92,46.94,20.09,200,19,NA,29.98,1008.7,5,-99,"CLR","   ","   ","   ",NA,NA,NA,NA,"BLDU",NA,NA,NA,29,200,"2011-06-13 16:16",90.32,"KLBB 131653Z 20019KT 5SM BLDU CLR 34/08 A2998 RMK AO2 PK WND 20029/1616 SLP087 T03440083"
"92542","LBB","2011-06-13 17:53:00",-101.8228,33.6636,98.96,42.08,14.31,200,19,NA,29.97,1008.2,5,26,"SCT","   ","   ","   ",20000,NA,NA,NA,"BLDU",NA,NA,NA,26,210,"2011-06-13 17:49",94.56,"KLBB 131753Z 20019G26KT 5SM BLDU SCT200 37/06 A2997 RMK AO2 PK WND 21026/1749 SLP082 BLDU SCT000 T03720056 10372 20239 58003"
"92671","LBB","2011-06-19 00:32:00",-101.8228,33.6636,98.6,26.6,7.8,210,23,NA,29.8,NA,5,46,"FEW","SCT","BKN","   ",15000,18000,25000,NA,"BLDU SQ",NA,NA,NA,46,210,"2011-06-19 00:30",92.07,"KLBB 190032Z 21023G46KT 5SM BLDU SQ FEW150 SCT180 BKN250 37/M03 A2980 RMK AO2 PK WND 21046/0030"
"92692","LBB","2011-06-19 19:53:00",-101.8228,33.6636,105.08,24.08,5.78,220,27,NA,29.67,997.6,6,38,"FEW","   ","   ","   ",15000,NA,NA,NA,"BLDU",NA,NA,NA,41,250,"2011-06-19 19:25",97.25,"KLBB 191953Z 22027G38KT 6SM BLDU FEW150 41/M04 A2967 RMK AO2 PK WND 25041/1925 SLP976 T04061044"
"92693","LBB","2011-06-19 20:53:00",-101.8228,33.6636,105.98,23,5.38,220,27,NA,29.65,996.8,5,44,"FEW","   ","   ","   ",15000,NA,NA,NA,"BLDU",NA,NA,NA,44,220,"2011-06-19 20:47",97.89,"KLBB 192053Z 22027G44KT 5SM BLDU FEW150 41/M05 A2965 RMK AO2 PK WND 22044/2047 SLP968 T04111050 56027"
"92694","LBB","2011-06-19 21:53:00",-101.8228,33.6636,105.08,21.92,5.28,230,27,NA,29.62,995.9,6,34,"FEW","SCT","   ","   ",13000,20000,NA,NA,"BLDU",NA,NA,NA,39,240,"2011-06-19 21:12",97.05,"KLBB 192153Z 23027G34KT 6SM BLDU FEW130 SCT200 41/M06 A2962 RMK AO2 PK WND 24039/2112 SLP959 T04061056"
"92695","LBB","2011-06-19 22:53:00",-101.8228,33.6636,104,19.94,5.01,230,26,NA,29.6,995.3,5,36,"FEW","BKN","   ","   ",13000,25000,NA,NA,"BLDU",NA,NA,NA,44,230,"2011-06-19 22:29",96,"KLBB 192253Z 23026G36KT 5SM BLDU FEW130 BKN250 40/M07 A2960 RMK AO2 PK WND 23044/2229 SLP953 T04001067"
"92696","LBB","2011-06-19 23:53:00",-101.8228,33.6636,102.02,19.94,5.32,230,22,NA,29.58,995.1,6,29,"SCT","BKN","   ","   ",15000,25000,NA,NA,"BLDU",NA,NA,NA,36,240,"2011-06-19 22:55",94.36,"KLBB 192353Z 23022G29KT 6SM BLDU SCT150 BKN250 39/M07 A2958 RMK AO2 PK WND 24036/2255 SLP951 T03891067 10417 20389 56019"
"92698","LBB","2011-06-20 01:53:00",-101.8228,33.6636,98.06,21.02,6.28,210,16,NA,29.58,994.9,6,24,"SCT","   ","   ","   ",25000,NA,NA,NA,"BLDU",NA,NA,NA,32,220,"2011-06-20 00:58",91.15,"KLBB 200153Z 21016G24KT 6SM BLDU SCT250 37/M06 A2958 RMK AO2 PK WND 22032/0058 SLP949 T03671061"
"92699","LBB","2011-06-20 02:53:00",-101.8228,33.6636,93.92,42.98,17.28,180,17,NA,29.6,995.4,5,23,"BKN","   ","   ","   ",25000,NA,NA,NA,"HZ BLDU",NA,NA,NA,NA,NA,NA,89.86,"KLBB 200253Z 18017G23KT 5SM HZ BLDU BKN250 34/06 A2960 RMK AO2 SLP954 T03440061 53005"
"92700","LBB","2011-06-20 03:53:00",-101.8228,33.6636,91.04,48.02,22.89,180,17,NA,29.61,995.8,6,-99,"SCT","   ","   ","   ",25000,NA,NA,NA,"HZ BLDU",NA,NA,NA,31,190,"2011-06-20 03:00",87.73,"KLBB 200353Z 18017KT 6SM HZ BLDU SCT250 33/09 A2961 RMK AO2 PK WND 19031/0300 SLP958 T03280089"
"92701","LBB","2011-06-20 04:53:00",-101.8228,33.6636,89.06,42.98,20.12,200,23,NA,29.62,996.1,6,33,"SCT","   ","   ","   ",20000,NA,NA,NA,"BLDU",NA,NA,NA,33,190,"2011-06-20 04:53",85.47,"KLBB 200453Z 20023G33KT 6SM BLDU SCT200 32/06 A2962 RMK AO2 PK WND 19033/0453 SLP961 T03170061"
"92702","LBB","2011-06-20 05:53:00",-101.8228,33.6636,86,42.98,22.17,200,22,NA,29.62,996,6,26,"BKN","   ","   ","   ",20000,NA,NA,NA,"BLDU",NA,NA,NA,38,200,"2011-06-20 05:11",82.97,"KLBB 200553Z 20022G26KT 6SM BLDU BKN200 30/06 A2962 RMK AO2 PK WND 20038/0511 SLP960 T03000061 10394 20300 404170239 51007"
"92703","LBB","2011-06-20 06:53:00",-101.8228,33.6636,84.02,44.96,25.48,200,22,NA,29.62,996,6,33,"OVC","   ","   ","   ",25000,NA,NA,NA,"BLDU",NA,NA,NA,33,200,"2011-06-20 06:48",81.62,"KLBB 200653Z 20022G33KT 6SM BLDU OVC250 29/07 A2962 RMK AO2 PK WND 20033/0648 SLP960 T02890072"
"92704","LBB","2011-06-20 07:53:00",-101.8228,33.6636,84.02,46.94,27.47,200,25,NA,29.61,995.5,6,33,"OVC","   ","   ","   ",25000,NA,NA,NA,"BLDU",NA,NA,NA,34,190,"2011-06-20 07:34",81.79,"KLBB 200753Z 20025G33KT 6SM BLDU OVC250 29/08 A2961 RMK AO2 PK WND 19034/0734 SLP955 T02890083"
"92705","LBB","2011-06-20 08:53:00",-101.8228,33.6636,82.94,48.02,29.62,210,26,NA,29.61,995.5,6,35,"OVC","   ","   ","   ",25000,NA,NA,NA,"BLDU",NA,NA,NA,37,200,"2011-06-20 08:06",81.14,"KLBB 200853Z 21026G35KT 6SM BLDU OVC250 28/09 A2961 RMK AO2 PK WND 20037/0806 SLP955 T02830089 58005"
"92706","LBB","2011-06-20 09:53:00",-101.8228,33.6636,82.04,46.94,29.28,210,25,NA,29.61,995.7,4,35,"FEW","   ","   ","   ",25000,NA,NA,NA,"BLDU",NA,NA,NA,35,210,"2011-06-20 09:52",80.46,"KLBB 200953Z 21025G35KT 4SM BLDU FEW250 28/08 A2961 RMK AO2 PK WND 21035/0952 SLP957 T02780083 $"
"92707","LBB","2011-06-20 10:53:00",-101.8228,33.6636,80.96,48.92,32.67,210,19,NA,29.63,996.4,5,29,"FEW","   ","   ","   ",25000,NA,NA,NA,"BLDU",NA,NA,NA,34,210,"2011-06-20 10:17",80.96,"KLBB 201053Z 21019G29KT 5SM BLDU FEW250 27/09 A2963 RMK AO2 PK WND 21034/1017 SLP964 T02720094 $"
"92708","LBB","2011-06-20 11:26:00",-101.8228,33.6636,78.8,48.2,34.13,260,20,NA,29.68,NA,6,29,"FEW","   ","   ","   ",20000,NA,NA,NA,"BLDU",NA,NA,NA,30,220,"2011-06-20 11:12",78.8,"KLBB 201126Z 26020G29KT 6SM BLDU FEW200 26/09 A2968 RMK AO2 PK WND 22030/1112 WSHFT 1109 $"
"92709","LBB","2011-06-20 11:53:00",-101.8228,33.6636,75.92,37.94,25.33,290,15,NA,29.7,999,6,21,"FEW","SCT","   ","   ",20000,25000,NA,NA,"BLDU",NA,NA,NA,30,220,"2011-06-20 11:12",74.4,"KLBB 201153Z 29015G21KT 6SM BLDU FEW200 SCT250 24/03 A2970 RMK AO2 PK WND 22030/1112 WSHFT 1109 SLP990 T02440033 10300 20244 53027 $"
"92714","LBB","2011-06-20 16:53:00",-101.8228,33.6636,89.06,28.04,11.12,260,23,NA,29.7,999,5,32,"CLR","   ","   ","   ",NA,NA,NA,NA,"BLDU",NA,NA,NA,33,280,"2011-06-20 16:42",84.74,"KLBB 201653Z 26023G32KT 5SM BLDU CLR 32/M02 A2970 RMK AO2 PK WND 28033/1642 SLP990 SKY PRLY OBSCD T03171022"
"92715","LBB","2011-06-20 17:53:00",-101.8228,33.6636,91.94,24.98,8.95,260,24,NA,29.7,999.1,4,34,"CLR","   ","   ","   ",NA,NA,NA,NA,"BLDU",NA,NA,NA,35,250,"2011-06-20 17:38",86.63,"KLBB 201753Z 26024G34KT 4SM BLDU CLR 33/M04 A2970 RMK AO2 PK WND 25035/1738 SLP991 SKY PRLY OBSCD T03331039 10333 20228 55005"
"92716","LBB","2011-06-20 18:53:00",-101.8228,33.6636,91.94,15.98,6.1,270,23,NA,29.7,999,4,36,"CLR","   ","   ","   ",NA,NA,NA,NA,"BLDU",NA,NA,NA,38,270,"2011-06-20 18:08",86.08,"KLBB 201853Z 27023G36KT 4SM BLDU CLR 33/M09 A2970 RMK AO2 PK WND 27038/1808 SLP990 SKY PRLY OBSCD T03331089"
"92717","LBB","2011-06-20 19:53:00",-101.8228,33.6636,93.02,15.08,5.68,260,18,NA,29.69,998.6,4,32,"CLR","   ","   ","   ",NA,NA,NA,NA,"BLDU",NA,NA,NA,37,270,"2011-06-20 19:00",86.82,"KLBB 201953Z 26018G32KT 4SM BLDU CLR 34/M09 A2969 RMK AO2 PK WND 27037/1900 SLP986 SKY PRLY OBSCD T03391094"
"92820","LBB","2011-06-25 01:53:00",-101.8228,33.6636,98.06,35.06,11.17,180,19,NA,29.73,1000.1,6,29,"CLR","   ","   ","   ",NA,NA,NA,NA,"BLDU",NA,NA,NA,32,170,"2011-06-25 01:34",92.69,"KLBB 250153Z 18019G29KT 6SM BLDU CLR 37/02 A2973 RMK AO2 PK WND 17032/0134 SLP001 T03670017"
"92899","LBB","2011-06-28 05:53:00",-101.8228,33.6636,87.08,44.96,23.1,220,9,NA,30.04,1010.7,6,-99,"FEW","BKN","   ","   ",9000,20000,NA,NA,"DU",NA,NA,NA,NA,NA,NA,83.96,"KLBB 280553Z 22009KT 6SM DU FEW090 BKN200 31/07 A3004 RMK AO2 SLP107 OCNL LTG DSNT NW CB DSNT NW MOV E T03060072 10394 20272 404170256 50020"
"92902","LBB","2011-06-28 07:24:00",-101.8228,33.6636,82.4,55.4,39.58,10,29,NA,30.08,NA,0.5,36,"OVC","   ","   ","   ",14000,NA,NA,NA,"HZ BLDU",NA,NA,NA,36,20,"2011-06-28 07:22",82.4,"KLBB 280724Z 01029G36KT 1/2SM R17R/P6000FT HZ BLDU OVC140 28/13 A3008 RMK AO2 PK WND 02036/0722"
"92903","LBB","2011-06-28 07:36:00",-101.8228,33.6636,75.2,57.2,53.55,360,19,NA,30.1,NA,2.5,33,"OVC","   ","   ","   ",14000,NA,NA,NA,"BLDU",NA,NA,NA,37,10,"2011-06-28 07:25",75.2,"KLBB 280736Z 36019G33KT 2 1/2SM BLDU OVC140 24/14 A3010 RMK AO2 PK WND 01037/0725"
"92904","LBB","2011-06-28 07:45:00",-101.8228,33.6636,75.2,57.2,53.55,360,16,NA,30.1,NA,4,26,"OVC","   ","   ","   ",14000,NA,NA,NA,"BLDU",NA,NA,NA,37,10,"2011-06-28 07:25",75.2,"KLBB 280745Z 36016G26KT 4SM BLDU OVC140 24/14 A3010 RMK AO2 PK WND 01037/0725"
"93088","LBB","2011-07-05 21:46:00",-101.8228,33.6636,89.6,55.4,31.45,80,19,NA,30.03,NA,2.5,26,"BKN","BKN","   ","   ",9000,16000,NA,NA,"BLDU",NA,NA,NA,26,70,"2011-07-05 21:44",87.78,"KLBB 052146Z 08019G26KT 2 1/2SM BLDU BKN090CB BKN160 32/13 A3003"
"93089","LBB","2011-07-05 21:46:00",-101.8228,33.6636,89.6,55.4,31.45,80,19,NA,30.03,NA,2.5,26,"BKN","BKN","   ","   ",9000,16000,NA,NA,"BLDU",NA,NA,NA,26,70,"2011-07-05 21:44",87.78,"KLBB 052146Z 08019G26KT 2 1/2SM BLDU BKN090CB BKN160 32/13 A3003 RMK AO2 PK WND 07026/2144 CB N-E-SE MOV SW"
"93090","LBB","2011-07-05 21:53:00",-101.8228,33.6636,86,57.2,37.62,80,23,NA,30.03,1011.3,3,30,"BKN","BKN","   ","   ",9000,16000,NA,NA,"BLDU",NA,NA,NA,30,70,"2011-07-05 21:51",84.97,"KLBB 052153Z 08023G30KT 3SM BLDU BKN090CB BKN160 30/14 A3003"
"93091","LBB","2011-07-05 21:53:00",-101.8228,33.6636,86,57.02,37.62,80,23,NA,30.03,1011.3,3,30,"BKN","BKN","   ","   ",9000,16000,NA,NA,"BLDU",NA,NA,NA,30,70,"2011-07-05 21:51",84.97,"KLBB 052153Z 08023G30KT 3SM BLDU BKN090CB BKN160 30/14 A3003 RMK AO2 PK WND 07030/2151 SLP113 CB OHD MOV SW T03000139"
"93092","LBB","2011-07-05 21:53:00",-101.8228,33.6636,86,57.2,37.62,80,23,NA,30.03,1011.3,3,30,"BKN","BKN","   ","   ",9000,16000,NA,NA,"BLDU",NA,NA,NA,30,70,"2011-07-05 21:51",84.97,"KLBB 052153Z 08023G30KT 3SM BLDU BKN090CB BKN160 30/14 A3003"
"93093","LBB","2011-07-05 22:00:00",-101.8228,33.6636,86,55.4,35.25,80,19,NA,30.03,NA,3,30,"BKN","BKN","   ","   ",9000,16000,NA,NA,"BLDU",NA,NA,NA,NA,NA,NA,84.54,"KLBB 052200Z 08019G30KT 3SM BLDU BKN090CB BKN160 30/13 A3003 RMK AO2 WSHFT 2140 CB OHD MOV SW"
"93094","LBB","2011-07-05 22:11:00",-101.8228,33.6636,82.4,57.2,42.25,80,20,NA,30.03,NA,1.5,31,"BKN","OVC","   ","   ",8000,13000,NA,NA,"BLDU",NA,NA,NA,31,80,"2011-07-05 22:07",82.08,"KLBB 052211Z 08020G31KT 1 1/2SM BLDU BKN080CB OVC130 28/14 A3003 RMK AO2 PK WND 08031/2207 WSHFT 2140 CB OHD MOV SW"
"93095","LBB","2011-07-05 22:21:00",-101.8228,33.6636,82.4,57.2,42.25,100,13,NA,30.03,NA,3,27,"BKN","OVC","   ","   ",8000,13000,NA,NA,"-TSRA BLDU",NA,NA,NA,31,80,"2011-07-05 22:07",82.08,"KLBB 052221Z 10013G27KT 3SM -TSRA BLDU BKN080CB OVC130 28/14 A3003 RMK AO2 PK WND 08031/2207 WSHFT 2140 TSB21RAB15 OCNL LTGICCG OHD TS OHD MOV SW P0000"
"93096","LBB","2011-07-05 22:40:00",-101.8228,33.6636,86,53.6,33.01,140,23,NA,30.01,NA,6,32,"SCT","BKN","   ","   ",8000,15000,NA,NA,"-TSRA BLDU",NA,NA,NA,32,130,"2011-07-05 22:38",84.18,"KLBB 052240Z 14023G32KT 6SM -TSRA BLDU SCT080CB BKN150 30/12 A3001 RMK AO2 PK WND 13032/2238 WSHFT 2220 TSB21RAB15 OCNL LTGIC SE-S TS SE-S MOV SW CB DSNT SW-NW P0000"
"93276","LBB","2011-07-13 01:08:00",-101.8228,33.6636,91.4,57.2,31.72,190,22,NA,29.92,NA,2,26,"BKN","BKN","OVC","   ",9000,12000,16000,NA,"TS BLDU",NA,NA,NA,26,180,"2011-07-13 01:07",90.06,"KLBB 130108Z 19022G26KT 2SM TS BLDU BKN090CB BKN120 OVC160 33/14 A2992 RMK AO2 PK WND 18026/0107 TSB08 OCNL LTGICCG SE-SW-NW TS SE-SW-NW MOV N $"
"93277","LBB","2011-07-13 01:21:00",-101.8228,33.6636,82.4,62.6,51.21,190,35,NA,29.95,NA,1,46,"BKN","OVC","   ","   ",9000,12000,NA,NA,"-TSRA BLDU",NA,NA,NA,46,190,"2011-07-13 01:20",83.41,"KLBB 130121Z 19035G46KT 1SM R17R/P6000FT -TSRA BLDU BKN090CB OVC120 28/17 A2995 RMK AO2 PK WND 19046/0120 TSB08RAB21 PRESRR OCNL LTGICCG SE-SW-NW TS SE-SW-NW MOV N P0000 $"
"93278","LBB","2011-07-13 01:25:00",-101.8228,33.6636,78.8,64.4,61.36,200,27,NA,29.95,NA,3,46,"BKN","OVC","   ","   ",9000,12000,NA,NA,"-TSRA BLDU",NA,NA,NA,46,190,"2011-07-13 01:20",80.56,"KLBB 130125Z 20027G46KT 3SM -TSRA BLDU BKN090CB OVC120 26/18 A2995 RMK AO2 PK WND 19046/0120 TSB08RAB21 OCNL LTGICCG SE-SW-NW TS SE-SW-NW MOV N P0000 $"
"93689","LBB","2011-07-29 23:53:00",-101.8228,33.6636,91.04,57.02,31.87,160,18,NA,30,1010.1,4,26,"SCT","SCT","BKN","   ",9500,14000,23000,NA,"BLDU",NA,NA,NA,26,160,"2011-07-29 23:51",89.64,"KLBB 292353Z 16018G26KT 4SM BLDU SCT095TCU SCT140 BKN230 33/14 A3000 RMK AO2 PK WND 16026/2351 SLP101 CB DSNT NW-NE MOV NW TCU W-N-E T03280139 10372 20328 55002"
"94009","LBB","2011-08-12 02:08:00",-101.8228,33.6636,73.4,64.4,73.44,220,17,NA,29.93,NA,3,40,"BKN","BKN","BKN","   ",6000,7500,9500,NA,"TS BLDU",NA,NA,NA,40,230,"2011-08-12 02:01",73.4,"KLBB 120208Z 22017G40KT 3SM TS BLDU BKN060CB BKN075 BKN095 23/18 A2993 RMK AO2 PK WND 23040/0201 SFC VIS 4 CONS LTGICCG S-W-OHD TS S-W-OHD MOV NE"
"94331","LBB","2011-08-25 06:53:00",-101.8228,33.6636,82.94,57.92,42.61,10,13,NA,30.08,1012.2,6,17,"FEW","SCT","OVC","   ",9000,15000,20000,NA,"BLDU",NA,NA,NA,NA,NA,NA,82.64,"KLBB 250653Z 01013G17KT 6SM BLDU FEW090 SCT150 OVC200 28/14 A3008      RMK AO2 SLP122 OCNL LTGICCG DSNT NW-N CB DSNT NW-N MOV SW      T02830144"
"94349","LBB","2011-08-25 23:53:00",-101.8228,33.6636,91.94,57.02,30.99,130,22,NA,30.02,1010.4,3,27,"BKN","BKN","BKN","   ",9000,15000,22000,NA,"TS BLDU",NA,NA,NA,27,130,"2011-08-25 23:51",90.55,"KLBB 252353Z 13022G27KT 3SM TS BLDU BKN090CB BKN150 BKN220 33/14      A3002 RMK AO2 PK WND 13027/2351 TSB47 SLP104 OCNL LTGICCG      E-SE TS E-SE MOV W T03330139 10383 20333 55010"
"94478","LBB","2011-08-31 05:53:00",-101.8228,33.6636,78.08,48.92,35.91,110,6,NA,29.94,1007.4,6,-99,"SCT","BKN","   ","   ",20000,25000,NA,NA,"DU HZ",NA,NA,NA,NA,NA,NA,78.08,"KLBB 310553Z 11006KT 6SM DU HZ SCT200 BKN250 26/09 A2994 RMK AO2      SLP074 T02560094 10344 20256 404000228 51014"
"94568","LBB","2011-09-03 23:51:00",-101.8228,33.6636,87.8,57.2,35.53,360,24,NA,29.92,NA,2,32,"BKN","BKN","   ","   ",10000,18000,NA,NA,"HZ BLDU",NA,NA,NA,32,10,"2011-09-03 23:51",86.58,"KLBB 032351Z 36024G32KT 2SM HZ BLDU BKN100 BKN180 31/14 A2992 RMK      AO2 PK WND 01032/2351 PRESRR"
"94569","LBB","2011-09-03 23:51:00",-101.8228,33.6636,87.8,57.2,35.53,360,24,NA,29.92,NA,2,32,"BKN","BKN","   ","   ",10000,18000,NA,NA,"HZ BLDU",NA,NA,NA,32,10,"2011-09-03 23:51",86.58,"KLBB 032351Z 36024G32KT 2SM HZ BLDU BKN100 BKN180 31/14 A2992"
"94570","LBB","2011-09-03 23:51:00",-101.8228,33.6636,87.8,57.2,35.53,360,24,NA,29.92,NA,2,32,"BKN","BKN","   ","   ",10000,18000,NA,NA,"HZ BLDU",NA,NA,NA,32,10,"2011-09-03 23:51",86.58,"KLBB 032351Z 36024G32KT 2SM HZ BLDU BKN100 BKN180 31/14 A2992"
"94571","LBB","2011-09-03 23:51:00",-101.8228,33.6636,87.8,57.2,35.53,360,24,NA,29.92,NA,2,32,"BKN","BKN","   ","   ",10000,18000,NA,NA,"HZ BLDU",NA,NA,NA,32,10,"2011-09-03 23:51",86.58,"KLBB 032351Z 36024G32KT 2SM HZ BLDU BKN100 BKN180 31/14 A2992"
"94572","LBB","2011-09-03 23:58:00",-101.8228,33.6636,80.6,60.8,50.95,360,29,NA,29.93,NA,0.75,40,"FEW","BKN","OVC","   ",700,10000,12000,NA,"-RA BLDU",NA,NA,NA,40,360,"2011-09-03 23:56",81.46,"KLBB 032358Z 36029G40KT 3/4SM R17R/6000VP6000FT -RA BLDU FEW007 BKN100 OVC120 27/16 A2993"
"94573","LBB","2011-09-03 23:58:00",-101.8228,33.6636,80.6,60.8,50.95,360,29,NA,29.93,NA,0.75,40,"FEW","BKN","OVC","   ",700,10000,12000,NA,"-RA BLDU",NA,NA,NA,40,360,"2011-09-03 23:56",81.46,"KLBB 032358Z 36029G40KT 3/4SM R17R/6000VP6000FT -RA BLDU FEW007 BKN100 OVC120 27/16 A2993"
"94574","LBB","2011-09-03 23:58:00",-101.8228,33.6636,80.6,60.8,50.95,360,29,NA,29.93,NA,0.75,40,"FEW","BKN","OVC","   ",700,10000,12000,NA,"-RA BLDU",NA,NA,NA,40,360,"2011-09-03 23:56",81.46,"KLBB 032358Z 36029G40KT 3/4SM R17R/6000VP6000FT -RA BLDU FEW007      BKN100 OVC120 27/16 A2993 RMK AO2 PK WND 36040/2356 RAB57      P0000"
"94575","LBB","2011-09-03 23:58:00",-101.8228,33.6636,80.6,60.8,50.95,360,29,NA,29.93,NA,0.75,40,"FEW","BKN","OVC","   ",700,10000,12000,NA,"-RA BLDU",NA,NA,NA,40,360,"2011-09-03 23:56",81.46,"KLBB 032358Z 36029G40KT 3/4SM R17R/6000VP6000FT -RA BLDU FEW007 BKN100 OVC120 27/16 A2993"
"94576","LBB","2011-09-04 00:02:00",-101.8228,33.6636,78.8,62.6,57.6,10,22,NA,29.93,NA,1,40,"FEW","OVC","   ","   ",1600,10000,NA,NA,"-RA BLDU",NA,NA,NA,40,360,"2011-09-03 23:56",80.31,"KLBB 040002Z 01022G40KT 1SM R17R/6000VP6000FT -RA BLDU FEW016      OVC100 26/17 A2993 RMK AO2 PK WND 36040/2356 WSHFT 2347      RAB2357 P0000"
"95426","LBB","2011-10-06 19:53:00",-101.8228,33.6636,82.94,59,44.29,180,23,NA,29.82,1005,6,32,"FEW","   ","   ","   ",3200,NA,NA,NA,"BLDU",NA,NA,NA,33,160,"2011-10-06 19:36",82.89,"KLBB 061953Z 18023G32KT 6SM BLDU FEW032 28/15 A2982 RMK AO2 PK WND      16033/1936 SLP050 T02830150"
"95427","LBB","2011-10-06 20:53:00",-101.8228,33.6636,82.04,59,45.6,160,27,NA,29.81,1004.8,5,32,"CLR","   ","   ","   ",NA,NA,NA,NA,"BLDU",NA,NA,NA,33,170,"2011-10-06 20:38",82.19,"KLBB 062053Z 16027G32KT 5SM BLDU CLR 28/15 A2981 RMK AO2 PK WND      17033/2038 SLP048 T02780150 56021"
"95428","LBB","2011-10-06 21:53:00",-101.8228,33.6636,82.94,57.92,42.61,160,20,NA,29.79,1004,4,30,"CLR","   ","   ","   ",NA,NA,NA,NA,"BLDU",NA,NA,NA,34,170,"2011-10-06 21:16",82.64,"KLBB 062153Z 16020G30KT 4SM BLDU CLR 28/14 A2979 RMK AO2 PK WND      17034/2116 SLP040 T02830144"
"95429","LBB","2011-10-06 22:53:00",-101.8228,33.6636,82.94,55.94,39.67,170,22,NA,29.78,1003.8,5,30,"CLR","   ","   ","   ",NA,NA,NA,NA,"BLDU",NA,NA,NA,36,160,"2011-10-06 21:56",82.94,"KLBB 062253Z 17022G30KT 5SM BLDU CLR 28/13 A2978 RMK AO2 PK WND      16036/2156 SLP038 T02830133"
"95430","LBB","2011-10-06 23:53:00",-101.8228,33.6636,80.96,55.04,40.94,170,22,NA,29.79,1004.1,6,29,"FEW","   ","   ","   ",18000,NA,NA,NA,"BLDU",NA,NA,NA,32,170,"2011-10-06 23:43",80.71,"KLBB 062353Z 17022G29KT 6SM BLDU FEW180 27/13 A2979 RMK AO2 PK WND      17032/2343 SLP041 T02720128 10289 20239 55006"
"95453","LBB","2011-10-07 20:53:00",-101.8228,33.6636,84.02,57.92,41.15,170,22,NA,29.85,1005.7,5,31,"FEW","   ","   ","   ",4500,NA,NA,NA,"BLDU",NA,NA,NA,31,150,"2011-10-07 20:48",83.49,"KLBB 072053Z 17022G31KT 5SM BLDU FEW045 29/14 A2985 RMK AO2 PK WND      15031/2048 SLP057 T02890144 56026"
"95454","LBB","2011-10-07 21:53:00",-101.8228,33.6636,84.02,57.02,39.83,160,23,NA,29.85,1005.6,8,29,"FEW","   ","   ","   ",5000,NA,NA,NA,"BLDU",NA,NA,NA,30,150,"2011-10-07 21:19",84.02,"KLBB 072153Z 16023G29KT 8SM BLDU FEW050 29/14 A2985 RMK AO2 PK WND      15030/2119 SLP056 BLDU ALQDS T02890139"
"95455","LBB","2011-10-07 22:53:00",-101.8228,33.6636,84.02,55.04,37.08,170,22,NA,29.84,1005.4,10,32,"FEW","   ","   ","   ",5000,NA,NA,NA,"BLDU",NA,NA,NA,NA,NA,NA,82.88,"KLBB 072253Z 17022G32KT 10SM BLDU FEW050 29/13 A2984 RMK AO2 PK      WND 15033/2243 SLP054 T02890128"
"95727","LBB","2011-10-17 18:53:00",-101.8228,33.6636,91.04,28.94,10.84,270,25,NA,29.78,1002.8,5,30,"CLR","   ","   ","   ",NA,NA,NA,NA,"BLDU",NA,NA,NA,30,270,"2011-10-17 18:52",86.31,"KLBB 171853Z 27025G30KT 5SM BLDU CLR 33/M02 A2978 RMK AO2 PK WND      27030/1852 SLP028 BLDU ALQDS T03281017"
"95728","LBB","2011-10-17 19:53:00",-101.8228,33.6636,91.04,26.06,9.63,290,23,NA,29.74,1001.9,5,29,"CLR","   ","   ","   ",NA,NA,NA,NA,"BLDU",NA,NA,NA,33,270,"2011-10-17 19:36",86.05,"KLBB 171953Z 29023G29KT 5SM BLDU CLR 33/M03 A2974 RMK AO2 PK WND      27033/1936 SLP019 T03281033"
"95729","LBB","2011-10-17 20:53:00",-101.8228,33.6636,89.96,30.02,11.72,290,22,NA,29.75,1002.2,5,33,"FEW","   ","   ","   ",4000,NA,NA,NA,"BLDU",NA,NA,NA,NA,NA,NA,85.6,"KLBB 172053Z 29022G33KT 5SM BLDU FEW040 32/M01 A2975 RMK AO2 PK      WND 29038/2035 SLP022 T03221011 55018"
"95730","LBB","2011-10-17 21:53:00",-101.8228,33.6636,89.06,26.96,10.64,290,26,NA,29.76,1003,5,34,"SCT","   ","   ","   ",3500,NA,NA,NA,"BLDU",NA,NA,NA,NA,NA,NA,84.64,"KLBB 172153Z 29026G34KT 5SM BLDU SCT035 32/M03 A2976 RMK AO2 PK      WND 29045/2111 SLP030 T03171028"
"95731","LBB","2011-10-17 22:36:00",-101.8228,33.6636,86,28.4,12.44,350,42,NA,29.77,NA,1,55,"SCT","BKN","   ","   ",3000,5000,NA,NA,"BLDU SQ",NA,NA,NA,55,330,"2011-10-17 22:35",82.54,"KLBB 172236Z 35042G55KT 1SM BLDU SQ SCT030 BKN050 30/M02 A2977 RMK      AO2 PK WND 33055/2235 RVRNO"
"95732","LBB","2011-10-17 22:38:00",-101.8228,33.6636,82.4,33.8,NA,0,NA,NA,29.73,NA,0.25,-99,"SCT","BKN","   ","   ",3000,5000,NA,NA,"HZ BLDU",NA,NA,NA,NA,NA,NA,NA,"KLBB 172238Z 1/4SM HZ BLDU SCT030 BKN050 28/01 A2973 RMK AO2      RAB37E38 PRESFR P0000 RVRNO $"
"95734","LBB","2011-10-17 22:53:00",-101.8228,33.6636,73.04,39.92,30.14,10,34,NA,29.83,1006.5,0.25,53,"SCT","BKN","   ","   ",3000,5000,NA,NA,"HZ BLDU",NA,NA,NA,56,20,"2011-10-17 22:41",71.46,"KLBB 172253Z 01034G53KT 1/4SM R17R/3000V5000FT HZ BLDU SCT030      BKN050 23/04 A2983 RMK AO2 PK WND 02056/2241 TWR VIS 1/4      RAB37E38 SLP065 P0000 T02280044 $"
"95735","LBB","2011-10-17 23:45:00",-101.8228,33.6636,68,39.2,34.8,10,26,NA,29.91,NA,0.75,36,"SCT","BKN","   ","   ",3000,5000,NA,NA,"HZ BLDU",NA,NA,NA,46,10,"2011-10-17 23:29",68,"KLBB 172345Z 01026G36KT 3/4SM R17R/P6000FT HZ BLDU SCT030 BKN050      20/04 A2991 RMK AO2 PK WND 01046/2329 SFC VIS 1"
"95736","LBB","2011-10-17 23:53:00",-101.8228,33.6636,68,39.92,35.79,10,26,NA,29.92,1010.3,0.75,37,"SCT","BKN","   ","   ",3000,5000,NA,NA,"HZ BLDU",NA,NA,NA,46,10,"2011-10-17 23:29",68,"KLBB 172353Z 01026G37KT 3/4SM R17R/P6000FT HZ BLDU SCT030 BKN050      20/04 A2992 RMK AO2 PK WND 01046/2329 SFC VIS 1 SLP103 60000      T02000044 10328 20200 53052"
"95737","LBB","2011-10-18 00:35:00",-101.8228,33.6636,64.4,39.2,39.43,20,26,NA,29.98,NA,4,35,"SCT","BKN","   ","   ",3000,5000,NA,NA,"HZ BLDU",NA,NA,NA,36,20,"2011-10-18 00:16",64.4,"KLBB 180035Z 02026G35KT 4SM HZ BLDU SCT030 BKN050 18/04 A2998 RMK      AO2 PK WND 02036/0016"
"95738","LBB","2011-10-18 00:53:00",-101.8228,33.6636,62.96,39.92,42.65,10,17,NA,29.98,1012.5,4,30,"SCT","BKN","   ","   ",3000,5000,NA,NA,"HZ BLDU",NA,NA,NA,36,20,"2011-10-18 00:16",62.96,"KLBB 180053Z 01017G30KT 4SM HZ BLDU SCT030 BKN050 17/04 A2998 RMK      AO2 PK WND 02036/0016 SLP125 T01720044"
"96116","LBB","2011-11-02 17:53:00",-101.8228,33.6636,50,33.08,52.02,340,27,NA,30.14,1018.2,6,36,"CLR","   ","   ","   ",NA,NA,NA,NA,"BLDU",NA,NA,NA,38,340,"2011-11-02 17:29",41.88,"KLBB 021753Z 34027G36KT 6SM BLDU CLR 10/01 A3014 RMK AO2 PK WND      34038/1729 SLP182 T01000006 10139 20083 51037"
"96117","LBB","2011-11-02 18:37:00",-101.8228,33.6636,50,32,49.81,350,28,NA,30.16,NA,4,39,"BKN","BKN","   ","   ",1900,3100,NA,NA,"BLDU",NA,NA,NA,40,350,"2011-11-02 18:12",41.73,"KLBB 021837Z COR 35028G39KT 4SM BLDU BKN019 BKN031 10/00 A3016 RMK      AO2 PK WND 35040/1812"
"96118","LBB","2011-11-02 18:53:00",-101.8228,33.6636,48.02,30.92,51.34,350,31,NA,30.17,1019.4,5,42,"SCT","SCT","   ","   ",2100,3100,NA,NA,"BLDU",NA,NA,NA,42,330,"2011-11-02 18:46",38.59,"KLBB 021853Z 35031G42KT 5SM BLDU SCT021 SCT031 09/M01 A3017 RMK      AO2 PK WND 33042/1846 SLP194 T00891006"
"96119","LBB","2011-11-02 19:53:00",-101.8228,33.6636,48.92,28.94,45.79,340,31,NA,30.19,1020.3,3,39,"SCT","   ","   ","   ",2400,NA,NA,NA,"BLDU",NA,NA,NA,NA,NA,NA,39.83,"KLBB 021953Z 34031G39KT 3SM BLDU SCT024 09/M02 A3019 RMK AO2 PK      WND 35042/1855 SLP203 T00941017"
"96120","LBB","2011-11-02 20:53:00",-101.8228,33.6636,48.02,28.04,45.65,350,30,NA,30.23,1021.8,3,43,"FEW","   ","   ","   ",2400,NA,NA,NA,"BLDU",NA,NA,NA,NA,NA,NA,38.73,"KLBB 022053Z 35030G43KT 3SM BLDU FEW024 09/02 A3023 RMK AO2 PKWND      35043/2045 SLP218 T00891022 53028"
"96121","LBB","2011-11-02 21:53:00",-101.8228,33.6636,46.04,26.06,45.33,360,23,NA,30.28,1023.5,5,35,"SCT","   ","   ","   ",2400,NA,NA,NA,"BLDU",NA,NA,NA,NA,NA,NA,37.19,"KLBB 022153Z 36023G35KT 5SM BLDU SCT024 08/M03 A3028 RMK AO2 PK      WND 35041/2120 SLP235 T00781033"
"96122","LBB","2011-11-02 22:25:00",-101.8228,33.6636,44.6,26.6,48.96,360,30,NA,30.29,NA,1.5,42,"SCT","   ","   ","   ",2700,NA,NA,NA,"BLDU",NA,NA,NA,42,350,"2011-11-02 22:18",34.03,"KLBB 022225Z 36030G42KT 1 1/2SM BLDU SCT027 07/M03 A3029 RMK AO2      PK WND 35042/2218"
"96123","LBB","2011-11-02 22:28:00",-101.8228,33.6636,44.6,26.6,48.96,360,25,NA,30.3,NA,3,41,"SCT","   ","   ","   ",2700,NA,NA,NA,"BLDU",NA,NA,NA,NA,NA,NA,34.87,"KLBB 022228Z 36025G41KT 3SM BLDU SCT027 07/M03 A3030 RMK AO2 PK      WND 35042/2218"
"96124","LBB","2011-11-02 22:38:00",-101.8228,33.6636,44.6,26.6,48.96,10,29,NA,30.3,NA,2,40,"SCT","   ","   ","   ",2500,NA,NA,NA,"BLDU",NA,NA,NA,NA,NA,NA,34.19,"KLBB 022238Z 01029G40KT 2SM BLDU SCT025 07/M03 A3030 RMK AO2 PK      WND 35042/2218"
"96125","LBB","2011-11-02 22:53:00",-101.8228,33.6636,44.96,26.06,47.23,360,23,NA,30.31,1024.7,2.5,37,"FEW","   ","   ","   ",2500,NA,NA,NA,"BLDU",NA,NA,NA,42,350,"2011-11-02 22:18",35.73,"KLBB 022253Z 36023G37KT 2 1/2SM BLDU FEW025 07/M03 A3031 RMK AO2      PK WND 35042/2218 SLP247 T00721033"
"96126","LBB","2011-11-02 23:44:00",-101.8228,33.6636,42.8,26.6,52.45,360,25,NA,30.35,NA,5,37,"FEW","   ","   ","   ",3000,NA,NA,NA,"BLDU",NA,NA,NA,NA,NA,NA,32.43,"KLBB 022344Z 36025G37KT 5SM BLDU FEW030 06/M03 A3035 RMK AO2 PK      WND 36040/2323"
"96127","LBB","2011-11-02 23:53:00",-101.8228,33.6636,41,26.06,54.97,10,22,NA,30.34,1026.1,5,32,"FEW","   ","   ","   ",3000,NA,NA,NA,"BLDU",NA,NA,NA,NA,NA,NA,30.63,"KLBB 022353Z 01022G32KT 5SM BLDU FEW030 05/M03 A3034 RMK AO2 PK      WND 36040/2323 SLP261 T00501033 10100 20050 51034"
"96128","LBB","2011-11-03 00:53:00",-101.8228,33.6636,39.92,26.06,57.33,10,17,NA,30.35,1026.5,6,33,"CLR","   ","   ","   ",NA,NA,NA,NA,"BLDU",NA,NA,NA,NA,NA,NA,30.45,"KLBB 030053Z 01017G33KT 6SM BLDU CLR 04/M03 A3035 RMK AO2 PK WND      36036/0002 SLP265 T00441033"
"96191","LBB","2011-11-05 17:53:00",-101.8228,33.6636,64.94,28.94,25.68,190,19,NA,29.75,1004.7,4,30,"SCT","SCT","   ","   ",2000,25000,NA,NA,"BLDU",NA,NA,NA,30,190,"2011-11-05 17:50",64.94,"KLBB 051753Z 19019G30KT 4SM BLDU SCT020 SCT250 18/M02 A2975 RMK      AO2 PK WND 19030/1750 SLP047 T01831017 10183 20056 58009"
"96192","LBB","2011-11-05 18:19:00",-101.8228,33.6636,66.2,30.2,25.88,200,19,NA,29.74,NA,4,28,"OVC","   ","   ","   ",2200,NA,NA,NA,"BLDU",NA,NA,NA,NA,NA,NA,66.2,"KLBB 051819Z 20019G28KT 4SM BLDU OVC022 19/M01 A2974 RMK AO2 PK      WND 20028/1812"
"96193","LBB","2011-11-05 18:53:00",-101.8228,33.6636,69.08,30.92,24.13,190,21,NA,29.71,1003.3,4,29,"OVC","   ","   ","   ",2200,NA,NA,NA,"BLDU",NA,NA,NA,NA,NA,NA,69.08,"KLBB 051853Z 19021G29KT 4SM BLDU OVC022 21/M01 A2971 RMK AO2 PK      WND 18029/1845 SLP033 T02061006"
"96194","LBB","2011-11-05 19:53:00",-101.8228,33.6636,73.04,30.02,20.33,190,19,NA,29.69,1002,4,29,"OVC","   ","   ","   ",2400,NA,NA,NA,"BLDU",NA,NA,NA,NA,NA,NA,71,"KLBB 051953Z 19019G29KT 4SM BLDU OVC024 23/M01 A2969 RMK AO2 PK      WND 19029/1950 SLP020 T02281011"
"96195","LBB","2011-11-05 20:53:00",-101.8228,33.6636,75.92,28.04,17.03,200,19,NA,29.68,1001.6,5,27,"BKN","BKN","   ","   ",2600,25000,NA,NA,"BLDU",NA,NA,NA,30,190,"2011-11-05 20:01",74.01,"KLBB 052053Z 20019G27KT 5SM BLDU BKN026 BKN250 24/M02 A2968 RMK      AO2 PK WND 19030/2001 SLP016 T02441022 56022"
"96196","LBB","2011-11-05 21:12:00",-101.8228,33.6636,77,24.8,14.37,210,24,NA,29.67,NA,7,30,"BKN","BKN","BKN","   ",3100,13000,25000,NA,"BLDU",NA,NA,NA,NA,NA,NA,75.08,"KLBB 052112Z 21024G30KT 7SM BLDU BKN031 BKN130 BKN250 25/M04 A2967      RMK PKWND 20030/2112 BLDU ALQDS"
"96202","LBB","2011-11-05 23:53:00",-101.8228,33.6636,66.02,35.96,32.81,0,0,NA,29.72,1003.8,6,NA,"BKN","BKN","   ","   ",4300,11000,NA,NA,"HZ DU",NA,NA,NA,NA,NA,NA,66.02,"KLBB 052353Z 00000KT 6SM HZ DU BKN043 BKN110 19/02 A2972 RMK AO2      WSHFT 2253 SLP038 BLDU ALQDS T01890022 10250 20183 53014"
"96368","LBB","2011-11-12 20:00:00",-101.8228,33.6636,75.2,12.2,8.88,270,26,NA,29.81,NA,5,35,"BKN","BKN","BKN","   ",2600,20000,25000,NA,"BLDU",NA,NA,NA,35,280,"2011-11-12 19:55",72.84,"KLBB 122000Z 27026G35KT 5SM BLDU BKN026 BKN200 BKN250 24/M11 A2981      RMK AO2 PK WND 28035/1955"
"96369","LBB","2011-11-12 20:16:00",-101.8228,33.6636,73.4,14,10.21,270,26,NA,29.8,NA,7,35,"SCT","SCT","BKN","   ",2800,20000,25000,NA,"BLDU",NA,NA,NA,35,260,"2011-11-12 20:16",70.92,"KLBB 122016Z 27026G35KT 7SM BLDU SCT028 SCT200 BKN250 23/M10 A2980      RMK AO2 PK WND 26035/2016"
"96539","LBB","2011-11-19 18:53:00",-101.8228,33.6636,71.96,21.92,15.07,240,22,NA,29.79,1005.2,6,27,"SCT","BKN","   ","   ",18000,25000,NA,NA,"BLDU",NA,NA,NA,28,250,"2011-11-19 18:14",69.56,"KLBB 191853Z 24022G27KT 6SM BLDU SCT180 BKN250 22/M06 A2979 RMK      AO2 PK WND 25028/1814 SLP052 SKY PTLY OBSCD T02221056"
"96771","LBB","2011-11-26 15:42:00",-101.8228,33.6636,39.2,26.6,60.29,360,33,NA,30.24,NA,5,48,"FEW","BKN","BKN","   ",3000,10000,14000,NA,"BLDU",NA,NA,NA,NA,NA,NA,26.08,"KLBB 261542Z 36033G48KT 5SM BLDU FEW030 BKN100 BKN140 04/M03 A3024      RMK AO2 PK WND 36048/1538"
"96773","LBB","2011-11-26 16:06:00",-101.8228,33.6636,42.8,26.6,52.45,10,35,NA,30.26,NA,2.5,49,"FEW","OVC","   ","   ",1000,10000,NA,NA,"BLDU",NA,NA,NA,NA,NA,NA,30.78,"KLBB 261606Z COR 01035G49KT 2 1/2SM BLDU FEW010 OVC100 06/M03      A3026 RMK AO2 PK WND 01049/1603 BLDU FEW010"
"96774","LBB","2011-11-26 16:21:00",-101.8228,33.6636,42.8,26.6,52.45,360,29,NA,30.26,NA,3,45,"FEW","BKN","   ","   ",1700,10000,NA,NA,"BLDU",NA,NA,NA,NA,NA,NA,31.72,"KLBB 261621Z 36029G45KT 3SM BLDU FEW017 BKN100 06/M03 A3026 RMK      AO2 PK WND 01049/1603 SKY PTLY OBSCD"
"96775","LBB","2011-11-26 16:53:00",-101.8228,33.6636,44.06,23,43.02,350,30,NA,30.28,1024.3,3,44,"SCT","BKN","   ","   ",1100,10000,NA,NA,"BLDU",NA,NA,NA,NA,NA,NA,33.28,"KLBB 261653Z 35030G44KT 3SM BLDU SCT011 BKN100 07/M05 A3028 RMK      AO2 PK WND 01049/1603 SLP243 SKY PTLY OBSCD T00671050"
"96776","LBB","2011-11-26 17:53:00",-101.8228,33.6636,46.04,17.06,30.97,350,31,NA,30.28,1024.4,5,42,"BKN","BKN","   ","   ",3100,11000,NA,NA,"BLDU",NA,NA,NA,NA,NA,NA,35.86,"KLBB 261753Z 35031G42KT 5SM BLDU BKN031 BKN110 08/M08 A3028 RMK      AO2 PK WND 36043/1706 SLP244 BLDU BKN031 T00781083 10083      20039 50026"
"96777","LBB","2011-11-26 18:53:00",-101.8228,33.6636,46.94,19.04,32.6,350,28,NA,30.28,1024.2,5,40,"SCT","BKN","   ","   ",3500,4700,NA,NA,"BLDU",NA,NA,NA,NA,NA,NA,37.55,"KLBB 261853Z 35028G40KT 5SM BLDU SCT035 BKN047 08/M07 A3028 RMK      AO2 PK WND 35041/1830 SLP242 BLDU SCT035 AND BKN047      T00831072"
"96778","LBB","2011-11-26 19:53:00",-101.8228,33.6636,46.94,17.06,29.94,350,26,NA,30.27,1024.3,6,37,"BKN","   ","   ","   ",3400,NA,NA,NA,"BLDU",NA,NA,NA,NA,NA,NA,37.87,"KLBB 261953Z 35026G37KT 6SM BLDU BKN034 08/M08 A3027 RMK AO2 PK      WND 34041/1939 SLP243 BLDU BKN034 T00831083"
"96779","LBB","2011-11-26 20:53:00",-101.8228,33.6636,46.94,17.06,29.94,350,30,NA,30.26,1023.8,6,40,"SCT","BKN","   ","   ",3000,4300,NA,NA,"BLDU",NA,NA,NA,NA,NA,NA,37.24,"KLBB 262053Z COR 35030G40KT 6SM BLDU SCT030 BKN043 08/M08 A3026      RMK AO2 PK WND 35040/2051 SLP238 BLDU SCT030 AND BKN043      T00831083 58005"
"96780","LBB","2011-11-26 21:53:00",-101.8228,33.6636,46.94,17.06,29.94,360,28,NA,30.28,1024.6,6,38,"SCT","BKN","   ","   ",3200,4200,NA,NA,"BLDU",NA,NA,NA,NA,NA,NA,37.55,"KLBB 262153Z COR 36028G38KT 6SM BLDU SCT032 BKN042 08/M08 A3028      RMK AO2 PK WND 36043/2102 SLP246 BLDU SCT032 AND BKN042      T00831083"
"98172","LBB","2012-01-11 18:53:00",-101.8228,33.6636,50,28.94,43.99,350,28,NA,29.77,1007.4,6,35,"FEW","BKN","   ","   ",2400,25000,NA,NA,"BLDU",NA,NA,NA,37,340,"2012-01-11 18:16",41.73,"KLBB 111853Z 35028G35KT 6SM BLDU FEW024 BKN250 10/M02 A2977 RMK AO2 PK WND 34037/1816 SLP074 T01001017"
"98173","LBB","2012-01-11 19:53:00",-101.8228,33.6636,48.92,30.92,49.64,360,26,NA,29.79,1008,6,34,"FEW","   ","   ","   ",25000,NA,NA,NA,"BLDU",NA,NA,NA,37,350,"2012-01-11 19:09",40.56,"KLBB 111953Z 36026G34KT 6SM BLDU FEW250 09/M01 A2979 RMK AO2 PK WND 35037/1909 SLP080 T00941006"
"98295","LBB","2012-01-16 19:53:00",-101.8228,33.6636,71.96,33.08,23.86,250,30,NA,29.84,1007.1,3,46,"SCT","BKN","BKN","   ",5000,25000,30000,NA,"BLDU",NA,NA,NA,46,240,"2012-01-16 19:48",69.98,"KLBB 161953Z 25030G46KT 3SM BLDU SCT050 BKN250 BKN300 22/01 A2984 RMK AO2 PK WND 24046/1948 SLP071 BLDU SCT000 T02220006"
"98296","LBB","2012-01-16 20:53:00",-101.8228,33.6636,71.96,33.08,23.86,240,31,NA,29.81,1006,4,42,"SCT","BKN","   ","   ",3000,3900,NA,NA,"BLDU",NA,NA,NA,49,230,"2012-01-16 20:36",69.98,"KLBB 162053Z 24031G42KT 4SM BLDU SCT030 BKN039 22/01 A2981 RMK AO2 PK WND 23049/2036 SLP060 BLDU SCT000 T02220006 56032"
"98297","LBB","2012-01-16 21:40:00",-101.8228,33.6636,71.6,33.8,24.86,250,32,NA,29.81,NA,2,47,"SCT","BKN","   ","   ",3500,8000,NA,NA,"BLDU",NA,NA,NA,47,240,"2012-01-16 21:36",69.63,"KLBB 162140Z 25032G47KT 2SM BLDU SCT035 BKN080 22/01 A2981 RMK AO2 PK WND 24047/2136 BLDU SCT 000"
"98298","LBB","2012-01-16 21:53:00",-101.8228,33.6636,69.08,33.98,27.29,240,29,NA,29.81,1006.3,2.5,44,"BKN","   ","   ","   ",8000,NA,NA,NA,"BLDU",NA,NA,NA,47,240,"2012-01-16 21:36",69.08,"KLBB 162153Z 24029G44KT 2 1/2SM BLDU BKN080 21/01 A2981 RMK AO2 PK WND 24047/2136 SLP063 BLDU SCT 000 T02060011"
"98299","LBB","2012-01-16 22:37:00",-101.8228,33.6636,68,33.8,28.11,250,31,NA,29.82,NA,3,39,"SCT","   ","   ","   ",8000,NA,NA,NA,"BLDU",NA,NA,NA,42,250,"2012-01-16 22:17",68,"KLBB 162237Z 25031G39KT 3SM BLDU SCT080 20/01 A2982 RMK AO2 PK WND 25042/2217 BLDU SCT 000"
"98300","LBB","2012-01-16 22:53:00",-101.8228,33.6636,68,33.98,28.32,250,32,NA,29.83,1006.9,3,41,"SCT","   ","   ","   ",8000,NA,NA,NA,"BLDU",NA,NA,NA,43,240,"2012-01-16 22:40",68,"KLBB 162253Z 25032G41KT 3SM BLDU SCT080 20/01 A2983 RMK AO2 PK WND 24043/2240 SLP069 BLDU FEW 000 T02000011"
"98301","LBB","2012-01-16 23:53:00",-101.8228,33.6636,64.94,33.98,31.48,240,22,NA,29.84,1007.4,6,32,"FEW","   ","   ","   ",9000,NA,NA,NA,"BLDU",NA,NA,NA,42,250,"2012-01-16 22:59",64.94,"KLBB 162353Z 24022G32KT 6SM BLDU FEW090 18/01 A2984 RMK AO2 PK WND 25042/2259 SLP074 T01830011 10228 20006 53007"
"98437","LBB","2012-01-22 13:13:00",-101.8228,33.6636,53.6,28.4,37.67,300,30,0,29.61,NA,3,47,"BKN","OVC","   ","   ",5000,7000,NA,NA,"BLDU",NA,NA,NA,47,300,"2012-01-22 13:10",53.6,"KLBB 221313Z 30030G47KT 3SM BLDU BKN050 OVC070 12/M02 A2961 RMK AO2 PK WND 30047/1310 VIS DECREASING RAPIDLY"
"98438","LBB","2012-01-22 13:16:00",-101.8228,33.6636,51.8,28.4,40.25,290,30,0,29.62,NA,2.5,47,"BKN","OVC","   ","   ",5000,7000,NA,NA,"BLDU",NA,NA,NA,47,300,"2012-01-22 13:10",51.8,"KLBB 221316Z 29030G47KT 2 1/2SM BLDU BKN050 OVC070 11/M02 A2962 RMK AO2 PK WND 30047/1310 WSHFT 1302 PRESRR VIS DECREASING RAPIDLY"
"98439","LBB","2012-01-22 13:39:00",-101.8228,33.6636,50,26.6,39.95,280,27,0,29.63,NA,4,35,"SCT","OVC","   ","   ",2900,7000,NA,NA,"BLDU",NA,NA,NA,47,300,"2012-01-22 13:10",41.88,"KLBB 221339Z 28027G35KT 4SM BLDU SCT029 OVC070 10/M03 A2963 RMK AO2 PK WND 30047/1310 WSHFT 1302 SKY PTLY OBSCD"
"98442","LBB","2012-01-22 15:28:00",-101.8228,33.6636,51.8,17.6,25.56,270,32,0,29.63,NA,2.5,46,"BKN","   ","   ","   ",9500,NA,NA,NA,"BLDU",NA,NA,NA,46,270,"2012-01-22 15:24",51.8,"KLBB 221528Z 27032G46KT 2 1/2SM BLDU BKN095 11/M08 A2963 RMK AO2 PK WND 27046/1524 BLDU SCT000 $"
"98443","LBB","2012-01-22 15:36:00",-101.8228,33.6636,51.8,15.8,23.65,270,33,0,29.64,NA,1.25,42,"SCT","   ","   ","   ",9500,NA,NA,NA,"BLDU",NA,NA,NA,46,270,"2012-01-22 15:24",51.8,"KLBB 221536Z 27033G42KT 1 1/4SM R17R/4000VP6000FT BLDU SCT095 11/M09 A2964 RMK AO2 PK WND 27046/1524 TWR VIS 2 BLDU SCT000 $"
"98444","LBB","2012-01-22 15:53:00",-101.8228,33.6636,53.06,15.98,22.75,270,39,0,29.64,1001.5,1.5,47,"BKN","   ","   ","   ",9500,NA,NA,NA,"BLDU",NA,NA,NA,47,270,"2012-01-22 15:52",53.06,"KLBB 221553Z 27039G47KT 1 1/2SM R17R/3000VP6000FT BLDU BKN095 12/M09 A2964 RMK AO2 PK WND 27047/1552 SFC VIS 2 SLP015 BLDU BKN000 T01171089 $"
"98445","LBB","2012-01-22 16:23:00",-101.8228,33.6636,53.6,15.8,22.13,270,34,0,29.65,NA,0.75,49,"BKN","   ","   ","   ",3600,NA,NA,NA,"BLDU",NA,NA,NA,50,270,"2012-01-22 16:13",53.6,"KLBB 221623Z 27034G49KT 3/4SM R17R/3500VP6000FT BLDU BKN036 12/M09 A2965 RMK AO2 PK WND 27050/1613 TWR VIS 1 1/2 BLDU BKN000 $"
"98446","LBB","2012-01-22 16:53:00",-101.8228,33.6636,53.96,17.06,23.07,260,38,0,29.64,1001.1,0.75,47,"BKN","   ","   ","   ",3400,NA,NA,NA,"BLDU",NA,NA,NA,50,270,"2012-01-22 16:13",53.96,"KLBB 221653Z 26038G47KT 3/4SM R17R/3500VP6000FT BLDU BKN034 12/M08 A2964 RMK AO2 PK WND 27050/1613 SLP011 BLDU BKN000 T01221083 $"
"98447","LBB","2012-01-22 17:20:00",-101.8228,33.6636,55.4,17.6,22.41,260,37,0,29.63,NA,0.5,50,"BKN","   ","   ","   ",3300,NA,NA,NA,"DS",NA,NA,NA,50,270,"2012-01-22 17:14",55.4,"KLBB 221720Z 26037G50KT 1/2SM R17R/3000V4500FT DS BKN033 13/M08 A2963 RMK AO2 PK WND 27050/1714 TWR VIS 3/4 BLDU BKN000 $"
"98448","LBB","2012-01-22 17:53:00",-101.8228,33.6636,55.94,17.96,22.32,280,39,0,29.65,1001.4,0.5,50,"OVC","   ","   ","   ",3200,NA,NA,NA,"DS",NA,NA,NA,50,280,"2012-01-22 17:50",55.94,"KLBB 221753Z 28039G50KT 1/2SM R17R/3000V4000FT DS OVC032 13/M08 A2965 RMK AO2 PK WND 28050/1750 SLP014 BLDU BKN000 AND OVC032 T01331078 10144 20089 53001 $"
"98449","LBB","2012-01-22 18:00:00",-101.8228,33.6636,55.4,17.6,22.41,280,40,0,29.65,NA,0.5,48,"VV ","   ","   ","   ",1400,NA,NA,NA,"DS",NA,NA,NA,48,280,"2012-01-22 18:00",55.4,"KLBB 221800Z 28040G48KT 1/2SM R17R/3000V4000FT DS VV014 13/M08 A2965 RMK AO2 PK WND 28048/1800 SFC VIS 3/4 BLDU BKN000 $"
"98450","LBB","2012-01-22 18:21:00",-101.8228,33.6636,57.2,19.4,22.68,280,39,0,29.64,NA,0.5,46,"BKN","OVC","   ","   ",1400,3000,NA,NA,"DS",NA,NA,NA,48,280,"2012-01-22 18:00",57.2,"KLBB 221821Z 28039G46KT 1/2SM R17R/3500V5500FT DS BKN014 OVC030 14/M07 A2964 RMK AO2 PK WND 28048/1800 SFC VIS 3/4 $"
"98451","LBB","2012-01-22 18:53:00",-101.8228,33.6636,59,19.04,20.94,280,36,0,29.65,1000.9,0.5,52,"BKN","OVC","   ","   ",1400,3200,NA,NA,"BLDU",NA,NA,NA,52,280,"2012-01-22 18:44",59,"KLBB 221853Z 28036G52KT 1/2SM R17R/3000VP6000FT BLDU BKN014 OVC032 15/M07 A2965 RMK AO2 PK WND 28052/1844 SFC VIS 3/4 SLP009 BLDU BKN000 AND BKN014 OVC032 T01501072 $"
"98452","LBB","2012-01-22 19:06:00",-101.8228,33.6636,60.8,19.4,19.94,280,34,0,29.65,NA,0.5,46,"OVC","   ","   ","   ",2000,NA,NA,NA,"BLDU",NA,NA,NA,46,280,"2012-01-22 18:57",60.8,"KLBB 221906Z 28034G46KT 1/2SM R17R/5500VP6000FT BLDU OVC020 16/M07 A2965 RMK AO2 PK WND 28046/1857 SFC VIS 1 BLDU BKN000 AND OVC020 $"
"98453","LBB","2012-01-22 19:53:00",-101.8228,33.6636,62.06,19.04,18.78,290,31,0,29.67,1001.6,0.5,42,"BKN","OVC","   ","   ",2400,3300,NA,NA,"BLDU",NA,NA,NA,46,280,"2012-01-22 18:57",62.06,"KLBB 221953Z 29031G42KT 1/2SM BLDU BKN024 OVC033 17/M07 A2967 RMK AO2 PK WND 28046/1857 SFC VIS 1 1/2 SLP016 BLDU SCT000 AND BKN024 OVC033 T01671072 $"
"98454","LBB","2012-01-22 20:36:00",-101.8228,33.6636,62.6,21.2,20.2,350,31,0,29.69,NA,2.5,36,"BKN","OVC","   ","   ",2800,3700,NA,NA,"BLDU",NA,NA,NA,46,290,"2012-01-22 20:00",62.6,"KLBB 222036Z 35031G36KT 2 1/2SM BLDU BKN028 OVC037 17/M06 A2969 RMK AO2 PK WND 29046/2000 BLDU FEW000 AND BKN028 OVC037 $"
"98455","LBB","2012-01-22 20:53:00",-101.8228,33.6636,57.92,32,37.28,350,27,0,29.71,1003.4,2,34,"BKN","OVC","   ","   ",2800,3700,NA,NA,"BLDU",NA,NA,NA,46,290,"2012-01-22 20:00",57.92,"KLBB 222053Z 35027G34KT 2SM BLDU BKN028 OVC037 14/00 A2971 RMK AO2 PK WND 29046/2000 TWR VIS 2 1/2 SLP034 BLDU FEW000 AND BKN028 OVC037 T01440000 53020 $"
"98456","LBB","2012-01-22 21:08:00",-101.8228,33.6636,57.2,30.2,35.57,360,19,0,29.72,NA,2.5,30,"BKN","OVC","   ","   ",3000,3900,NA,NA,"BLDU",NA,NA,NA,31,350,"2012-01-22 20:57",57.2,"KLBB 222108Z 36019G30KT 2 1/2SM BLDU BKN030 OVC039 14/M01 A2972 RMK AO2 PK WND 35031/2057 SFC VIS 3 BLDU FEW000 AND BKN030 OVC039 $"
"98457","LBB","2012-01-22 21:34:00",-101.8228,33.6636,57.2,32,38.26,350,18,0,29.75,NA,6,28,"BKN","OVC","   ","   ",3000,3900,NA,NA,"BLDU",NA,NA,NA,31,360,"2012-01-22 21:16",57.2,"KLBB 222134Z 35018G28KT 6SM BLDU BKN030 OVC039 14/00 A2975 RMK AO2 PK WND 36031/2116 BLDU BKN030 OVC039 $"
"98458","LBB","2012-01-22 21:53:00",-101.8228,33.6636,57.92,32,37.28,360,15,0,29.76,1005.2,9,26,"BKN","OVC","   ","   ",3000,3900,NA,NA,"BLDU",NA,NA,NA,31,360,"2012-01-22 21:16",57.92,"KLBB 222153Z 36015G26KT 9SM BLDU BKN030 OVC039 14/00 A2976 RMK AO2 PK WND 36031/2116 SLP052 BLDU BKN030 OVC039 T01440000 $"
"99332","LBB","2012-02-20 18:53:00",-101.8228,33.6636,55.04,19.04,24.15,280,34,0,29.92,1011.5,4,44,"FEW",NA,NA,NA,3200,NA,NA,NA,"BLDU",NA,NA,NA,44,290,"2012-02-20 18:53",55.04,"KLBB 201853Z 28034G44KT 4SM BLDU FEW032 13/M07 A2992 RMK AO2 PK WND 29044/1853 SLP115 SKY PRLY OBSCD T01281072"
"99333","LBB","2012-02-20 19:04:00",-101.8228,33.6636,53.6,10.4,17.45,290,38,0,29.92,NA,1.5,47,"CLR",NA,NA,NA,NA,NA,NA,NA,"BLDU",NA,NA,NA,47,290,"2012-02-20 19:03",53.6,"KLBB 201904Z 29038G47KT 1 1/2SM R17R/4000VP6000FT BLDU CLR 12/M12 A2992 RMK AO2 PK WND 29047/1903 SKY MSTLY OBSD"
"99334","LBB","2012-02-20 19:09:00",-101.8228,33.6636,53.6,6.8,14.84,280,39,0,29.93,NA,0.75,55,"CLR",NA,NA,NA,NA,NA,NA,NA,"BLDU",NA,NA,NA,55,280,"2012-02-20 19:05",53.6,"KLBB 201909Z 28039G55KT 3/4SM R17R/4000VP6000FT BLDU CLR 12/M14 A2993 RMK AO2 PK WND 28055/1905 TWR VIS 1 SKY MSTLY OBSD $"
"99335","LBB","2012-02-20 19:34:00",-101.8228,33.6636,53.6,3.2,12.59,280,37,0,29.92,NA,1,45,"CLR",NA,NA,NA,NA,NA,NA,NA,"BLDU",NA,NA,NA,55,280,"2012-02-20 19:05",53.6,"KLBB 201934Z 28037G45KT 1SM R17R/P6000FT BLDU CLR 12/M16 A2992 RMK AO2 PK WND 28055/1905 SKY MSTLY OBSD"
"99336","LBB","2012-02-20 19:53:00",-101.8228,33.6636,53.06,-2.92,9.63,280,35,0,29.91,1011.2,1,50,"CLR",NA,NA,NA,NA,NA,NA,NA,"BLDU",NA,NA,NA,55,280,"2012-02-20 19:05",53.06,"KLBB 201953Z 28035G50KT 1SM R17R/4500VP6000FT BLDU CLR 12/M19 A2991 RMK AO2 PK WND 28055/1905 SLP112 SKY MSTLY OBSD T01171194"
"99337","LBB","2012-02-20 20:08:00",-101.8228,33.6636,53.6,-2.2,9.77,280,37,0,29.91,NA,0.75,45,"CLR",NA,NA,NA,NA,NA,NA,NA,"BLDU",NA,NA,NA,45,270,"2012-02-20 20:08",53.6,"KLBB 202008Z 28037G45KT 3/4SM R17R/5000VP6000FT BLDU CLR 12/M19 A2991 RMK AO2 PK WND 27045/2008 TWR VIS 1 SKY MSTLY OBSCD"
"99338","LBB","2012-02-20 20:17:00",-101.8228,33.6636,53.6,-0.4,10.64,270,33,0,29.9,NA,1,45,"CLR",NA,NA,NA,NA,NA,NA,NA,"BLDU",NA,NA,NA,45,270,"2012-02-20 20:08",53.6,"KLBB 202017Z 27033G45KT 1SM BLDU CLR 12/M18 A2990 RMK AO2 PK WND 27045/2008 SFC VIS 1 1/4 SKY MSTLY OBSCD"
"99339","LBB","2012-02-20 20:53:00",-101.8228,33.6636,53.96,3.02,12.32,290,27,0,29.93,1011.9,1,40,"CLR",NA,NA,NA,NA,NA,NA,NA,"BLDU",NA,NA,NA,45,300,"2012-02-20 20:31",53.96,"KLBB 202053Z 29027G40KT 1SM BLDU CLR 12/M16 A2993 RMK AO2 PK WND 30045/2031 SFC VIS 2 1/2 SLP119 SKY MSTLY OBSCD T01221161 53007"
"99340","LBB","2012-02-20 21:53:00",-101.8228,33.6636,55.04,1.04,10.8,290,29,0,29.93,1011.8,1,37,"BKN","OVC",NA,NA,3500,4500,NA,NA,"BLDU",NA,NA,NA,44,300,"2012-02-20 21:23",55.04,"KLBB 202153Z 29029G37KT 1SM BLDU BKN035 OVC045 13/M17 A2993 RMK AO2 PK WND 30044/2123 SFC VIS 4 SLP118 T01281172"
"99341","LBB","2012-02-20 22:27:00",-101.8228,33.6636,55.4,-0.4,9.97,290,21,0,29.94,NA,6,35,"CLR",NA,NA,NA,NA,NA,NA,NA,"BLDU",NA,NA,NA,37,300,"2012-02-20 22:08",55.4,"KLBB 202227Z 29021G35KT 6SM BLDU CLR 13/M18 A2994 RMK AO2 PK WND 30037/2208"
"99405","LBB","2012-02-23 12:53:00",-101.8228,33.6636,55.94,24.08,28.93,270,21,0,29.52,996.1,4,27,"FEW",NA,NA,NA,25000,NA,NA,NA,"BLDU",NA,NA,NA,28,280,"2012-02-23 12:41",55.94,"KLBB 231253Z 27021G27KT 4SM BLDU FEW250 13/M04 A2952 RMK AO2 PK WND 28028/1241 SLP961 SKY PTLY OBSCD T01331044"
"99406","LBB","2012-02-23 13:53:00",-101.8228,33.6636,57.02,23,26.59,280,23,0,29.52,996.6,6,31,"FEW",NA,NA,NA,20000,NA,NA,NA,"BLDU",NA,NA,NA,31,280,"2012-02-23 13:44",57.02,"KLBB 231353Z 28023G31KT 6SM BLDU FEW200 14/M05 A2952 RMK AO2 PK WND 28031/1344 SLP966 T01391050"
"99408","LBB","2012-02-23 15:34:00",-101.8228,33.6636,66.2,24.8,20.72,290,32,0,29.55,NA,2.5,42,"FEW","BKN",NA,NA,20000,28000,NA,NA,"BLDU",NA,NA,NA,42,290,"2012-02-23 15:29",66.2,"KLBB 231534Z 29032G42KT 2 1/2SM BLDU FEW200 BKN280 19/M04 A2955 RMK AO2 PK WND 29042/1529"
"99409","LBB","2012-02-23 15:43:00",-101.8228,33.6636,68,24.8,19.47,280,28,0,29.57,NA,4,38,"FEW","BKN",NA,NA,20000,28000,NA,NA,"BLDU",NA,NA,NA,42,290,"2012-02-23 15:29",68,"KLBB 231543Z 28028G38KT 4SM BLDU FEW200 BKN280 20/M04 A2957 RMK AO2 PK WND 29042/1529"
"99410","LBB","2012-02-23 15:53:00",-101.8228,33.6636,68,23,18.06,290,34,0,29.56,997,3,42,"FEW","BKN",NA,NA,20000,28000,NA,NA,"BLDU",NA,NA,NA,42,280,"2012-02-23 15:50",68,"KLBB 231553Z 29034G42KT 3SM BLDU FEW200 BKN280 20/M05 A2956 RMK AO2 PK WND 28042/1550 SLP970 T02001050"
"99411","LBB","2012-02-23 16:02:00",-101.8228,33.6636,69.8,21.2,15.73,280,35,0,29.56,NA,1.5,46,"FEW","BKN",NA,NA,20000,30000,NA,NA,"BLDU",NA,NA,NA,46,280,"2012-02-23 15:59",69.8,"KLBB 231602Z 28035G46KT 1 1/2SM BLDU FEW200 BKN300 21/M06 A2956 RMK AO2 PK WND 28046/1559 TWR VIS 3 SKY PRLY OBSCD"
"99412","LBB","2012-02-23 16:20:00",-101.8228,33.6636,69.8,21.2,15.73,290,34,0,29.56,NA,2,47,"FEW","BKN",NA,NA,20000,30000,NA,NA,"BLDU",NA,NA,NA,47,280,"2012-02-23 16:15",69.8,"KLBB 231620Z 29034G47KT 2SM BLDU FEW200 BKN300 21/M06 A2956 RMK AO2 PK WND 28047/1615 TWR VIS 3 SKY PRLY OBSCD"
"99413","LBB","2012-02-23 16:43:00",-101.8228,33.6636,69.8,21.2,15.73,280,31,0,29.56,NA,3,43,"FEW","BKN",NA,NA,20000,30000,NA,NA,"BLDU",NA,NA,NA,47,280,"2012-02-23 16:15",69.8,"KLBB 231643Z 28031G43KT 3SM BLDU FEW200 BKN300 21/M06 A2956 RMK AO2 PK WND 28047/1615 SKY PRLY OBSCD"
"99414","LBB","2012-02-23 16:53:00",-101.8228,33.6636,71.96,19.94,13.86,280,35,0,29.57,997,3,42,"FEW","BKN",NA,NA,20000,30000,NA,NA,"BLDU",NA,NA,NA,47,280,"2012-02-23 16:15",69.51,"KLBB 231653Z 28035G42KT 3SM BLDU FEW200 BKN300 22/M07 A2957 RMK AO2 PK WND 28047/1615 SFC VIS 3 SLP970 SKY PRLY OBSCD T02221067"
"99415","LBB","2012-02-23 17:53:00",-101.8228,33.6636,73.04,21.02,13.99,300,29,0,29.59,998,3,37,"SCT","OVC",NA,NA,20000,30000,NA,NA,"BLDU",NA,NA,NA,42,290,"2012-02-23 17:03",70.7,"KLBB 231753Z 30029G37KT 3SM BLDU SCT200 OVC300 23/M06 A2959 RMK AO2 PK WND 29042/1703 SFC VIS 5 SLP980 SKY PRLY OBSCD T02281061 10228 20117 53014"
"99416","LBB","2012-02-23 18:53:00",-101.8228,33.6636,75.02,21.92,13.6,300,26,0,29.57,997.2,3,39,"SCT","OVC",NA,NA,20000,30000,NA,NA,"BLDU",NA,NA,NA,41,300,"2012-02-23 18:29",72.86,"KLBB 231853Z 30026G39KT 3SM BLDU SCT200 OVC300 24/M06 A2957 RMK AO2 PK WND 30041/1829 SFC VIS 5 SLP972 SKY PRLY OBSCD T02391056"
"99417","LBB","2012-02-23 19:17:00",-101.8228,33.6636,68,28.4,22.59,10,26,0,29.59,NA,3,42,"SCT","OVC",NA,NA,20000,25000,NA,NA,"BLDU",NA,NA,NA,42,330,"2012-02-23 19:09",68,"KLBB 231917Z 01026G42KT 3SM BLDU SCT200 OVC250 20/M02 A2959 RMK AO2 PK WND 33042/1909 WSHFT 1901 SFC VIS 5 PRESRR SKY PRLY OBSCD"
"99418","LBB","2012-02-23 19:53:00",-101.8228,33.6636,64.94,30.92,27.84,20,22,0,29.61,999.5,10,31,"SCT","BKN",NA,NA,20000,25000,NA,NA,"BLDU",NA,NA,NA,42,330,"2012-02-23 19:09",64.94,"KLBB 231953Z 02022G31KT 10SM BLDU SCT200 BKN250 18/M01 A2961 RMK AO2 PK WND 33042/1909 WSHFT 1901 SLP995 SKY PRLY OBSCD T01831006"
"99422","LBB","2012-02-23 23:53:00",-101.8228,33.6636,53.96,24.98,32.28,30,21,0,29.73,1004.4,6,28,"CLR",NA,NA,NA,NA,NA,NA,NA,"BLDU",NA,NA,NA,31,30,"2012-02-23 23:26",53.96,"KLBB 232353Z 03021G28KT 6SM BLDU CLR 12/M04 A2973 RMK AO2 PK WND 03031/2326 SLP044 T01221039 10244 20122 53027"
"99466","LBB","2012-02-25 19:53:00",-101.8228,33.6636,59,17.96,19.99,180,28,0,30.09,1017.5,6,34,"CLR",NA,NA,NA,NA,NA,NA,NA,"BLDU",NA,NA,NA,34,180,"2012-02-25 19:48",59,"KLBB 251953Z 18028G34KT 6SM BLDU CLR 15/M08 A3009 RMK AO2 PK WND 18034/1948 SLP175 T01501078"
"99563","LBB","2012-02-28 19:53:00",-101.8228,33.6636,75.92,28.94,17.66,240,30,0,29.77,1004.2,2.5,45,"SCT",NA,NA,NA,2100,NA,NA,NA,"BLDU",NA,NA,NA,NA,NA,NA,74.04,"KLBB 281953Z 24030G45KT 2 1/2SM BLDU SCT021 24/M02 A2977 RMK AO2 PK WND 23045/1951 SLP042 T02441017"
"99564","LBB","2012-02-28 20:53:00",-101.8228,33.6636,77,24.08,13.94,230,26,0,29.75,1003.6,2.5,41,"CLR",NA,NA,NA,NA,NA,NA,NA,"BLDU",NA,NA,NA,NA,NA,NA,75.06,"KLBB 282053Z 23026G41KT 2 1/2SM BLDU CLR 25/M04 A2975 RMK AO2 PK WND 22044/2027 SLP036 SKY MSTLY OBSCD T02501044 56037"
"99565","LBB","2012-02-28 21:53:00",-101.8228,33.6636,75.92,19.94,12.13,240,36,0,29.75,1003.6,2,43,"CLR",NA,NA,NA,NA,NA,NA,NA,"BLDU",NA,NA,NA,NA,NA,NA,73.78,"KLBB 282153Z 24036G43KT 2SM BLDU CLR 24/M07 A2975 RMK AO2 PK WND 25044/2138 SLP036 SKY MSTLY OBSCD T02441067"
"99566","LBB","2012-02-28 22:08:00",-101.8228,33.6636,75.2,15.8,10.4,230,37,0,29.75,NA,1.25,47,"CLR",NA,NA,NA,NA,NA,NA,NA,"BLDU",NA,NA,NA,NA,NA,NA,72.91,"KLBB 282208Z 23037G47KT 1 1/4SM BLDU CLR 24/M09 A2975 RMK AO2 PK WND 23047/2207 VIS 1V2 1/2 SKY MSTLY OBSCD"
"99567","LBB","2012-02-28 22:53:00",-101.8228,33.6636,75.02,17.06,11.05,240,36,0,29.77,1004.3,1.5,45,"CLR",NA,NA,NA,NA,NA,NA,NA,"BLDU",NA,NA,NA,NA,NA,NA,72.74,"KLBB 282253Z 24036G45KT 1 1/2SM BLDU CLR 24/M08 A2977 RMK AO2 PK WND 23047/2207 SLP043 VIS 1V3 SKY MSTLY OBSCD T02391083"
"99568","LBB","2012-02-28 23:53:00",-101.8228,33.6636,71.96,8.06,8.23,250,32,0,29.8,1005.6,1.25,49,"CLR",NA,NA,NA,NA,NA,NA,NA,"BLDU",NA,NA,NA,NA,NA,NA,69.24,"KLBB 282353Z 25032G49KT 1 1/4SM BLDU CLR 22/M13 A2980 RMK AO2 PK WND 24049/2346 SLP056 VIS 1V2 T02221133 10250 20189 53016"
"99569","LBB","2012-02-29 00:27:00",-101.8228,33.6636,69.8,8.6,9.08,250,25,0,29.83,NA,2.5,36,"CLR",NA,NA,NA,NA,NA,NA,NA,"BLDU",NA,NA,NA,44,250,"2012-02-28 23:57",69.8,"KLBB 290027Z 25025G36KT 2 1/2SM BLDU CLR 21/M13 A2983 RMK AO2 PK WND 25044/2357 SKY MSTLY OBSCD"
"99570","LBB","2012-02-29 00:48:00",-101.8228,33.6636,68,8.6,9.65,250,22,0,29.84,NA,3,33,"CLR",NA,NA,NA,NA,NA,NA,NA,"BLDU",NA,NA,NA,44,250,"2012-02-28 23:57",68,"KLBB 290048Z 25022G33KT 3SM BLDU CLR 20/M13 A2984 RMK AO2 PK WND 25044/2357 SKY PTLY OBSCD"
"99571","LBB","2012-02-29 00:53:00",-101.8228,33.6636,68,10.04,10.3,270,24,0,29.86,1007.6,3,33,"CLR",NA,NA,NA,NA,NA,NA,NA,"BLDU",NA,NA,NA,44,250,"2012-02-28 23:57",68,"KLBB 290053Z 27024G33KT 3SM BLDU CLR 20/M12 A2986 RMK AO2 PK WND 25044/2357 PRESRR SLP076 SKY PTLY OBSCD T02001122"
"99572","LBB","2012-02-29 01:53:00",-101.8228,33.6636,57.02,17.06,20.64,310,18,0,29.92,1010.6,4,29,"CLR",NA,NA,NA,NA,NA,NA,NA,"BLDU",NA,NA,NA,35,310,"2012-02-29 01:20",57.02,"KLBB 290153Z 31018G29KT 4SM BLDU CLR 14/M08 A2992 RMK AO2 PK WND 31035/0120 SLP106 T01391083"
"99573","LBB","2012-02-29 02:53:00",-101.8228,33.6636,53.06,12.92,19.9,310,14,0,29.95,1011.8,5,NA,"CLR",NA,NA,NA,NA,NA,NA,NA,"BLDU",NA,NA,NA,26,310,"2012-02-29 02:00",53.06,"KLBB 290253Z 31014KT 5SM BLDU CLR 12/M11 A2995 RMK AO2 PK WND 31026/0200 SLP118 T01171106 51046"
"99611","LBB","2012-03-01 16:53:00",-101.8228,33.6636,71.06,8.06,8.49,260,24,0,29.82,1006.7,5,29,"CLR",NA,NA,NA,NA,NA,NA,NA,"BLDU",NA,NA,NA,31,260,"2012-03-01 16:43",68.26,"KLBB 011653Z 26024G29KT 5SM BLDU CLR 22/M13 A2982 RMK AO2 PK WND 26031/1643 SLP067 SKY PRLY OBSCD T02171133"
"99612","LBB","2012-03-01 17:53:00",-101.8228,33.6636,73.94,6.98,7.33,270,20,0,29.8,1006.2,6,29,"CLR",NA,NA,NA,NA,NA,NA,NA,"BLDU",NA,NA,NA,29,260,"2012-03-01 17:50",71.38,"KLBB 011753Z 27020G29KT 6SM BLDU CLR 23/M14 A2980 RMK AO2 PK WND 26029/1750 SLP062 SKY PRLY OBSCD T02331139 10233 20000 58018"
"99617","LBB","2012-03-01 22:53:00",-101.8228,33.6636,78.08,1.04,4.86,230,25,0,29.6,999.6,6,31,"CLR",NA,NA,NA,NA,NA,NA,NA,"BLDU",NA,NA,NA,31,240,"2012-03-01 22:53",75.82,"KLBB 012253Z 23025G31KT 6SM BLDU CLR 26/M17 A2960 RMK AO2 PK WND 24031/2253 SLP996 SKY PTLY OBSCD T02561172"
"99618","LBB","2012-03-01 23:53:00",-101.8228,33.6636,75.02,3.02,5.9,230,27,0,29.6,999.6,4,35,"CLR",NA,NA,NA,NA,NA,NA,NA,"BLDU",NA,NA,NA,35,220,"2012-03-01 23:48",72.5,"KLBB 012353Z 23027G35KT 4SM BLDU CLR 24/M16 A2960 RMK AO2 PK WND 22035/2348 SLP996 SKY PTLY OBSCD T02391161 10267 20233 56023"
"99736","LBB","2012-03-06 20:53:00",-101.8228,33.6636,75.92,37.04,24.45,180,26,0,29.79,1005,6,33,"FEW","SCT",NA,NA,18000,25000,NA,NA,"BLDU",NA,NA,NA,33,180,"2012-03-06 20:46",74.36,"KLBB 062053Z 18026G33KT 6SM BLDU FEW180 SCT250 24/03 A2979 RMK AO2 PK WND 18033/2046 SLP050 SKY PRLY OBSCD T02440028 58037"
"99737","LBB","2012-03-06 21:53:00",-101.8228,33.6636,77,37.04,23.59,180,24,0,29.77,1004.3,5,33,"FEW",NA,NA,NA,18000,NA,NA,NA,"BLDU",NA,NA,NA,33,190,"2012-03-06 21:48",75.51,"KLBB 062153Z 18024G33KT 5SM BLDU FEW180 25/03 A2977 RMK AO2 PK WND 19033/2148 SLP043 SKY PRLY OBSCD T02500028"
"99738","LBB","2012-03-06 22:53:00",-101.8228,33.6636,73.04,41,31.43,170,27,0,29.76,1004.1,6,32,"CLR",NA,NA,NA,NA,NA,NA,NA,"BLDU",NA,NA,NA,33,200,"2012-03-06 22:21",71.52,"KLBB 062253Z 17027G32KT 6SM BLDU CLR 23/05 A2976 RMK AO2 PK WND 20033/2221 SLP041 SKY PTLY OBSCD T02280050"
"99739","LBB","2012-03-06 23:53:00",-101.8228,33.6636,69.08,42.98,38.81,180,24,0,29.77,1004.8,6,30,"CLR",NA,NA,NA,NA,NA,NA,NA,"BLDU",NA,NA,NA,36,170,"2012-03-06 23:22",69.08,"KLBB 062353Z 18024G30KT 6SM BLDU CLR 21/06 A2977 RMK AO2 PK WND 17036/2322 SLP048 SKY PTLY OBSCD T02060061 10256 20206 55007"
"99783","LBB","2012-03-08 11:53:00",-101.8228,33.6636,42.08,32,67.22,30,28,0,30.01,1013.2,6,37,"OVC",NA,NA,NA,1600,NA,NA,NA,"BLDU",NA,NA,NA,37,30,"2012-03-08 11:49",30.9,"KLBB 081153Z 03028G37KT 6SM BLDU OVC016 06/00 A3001 RMK AO2 PK WND 03037/1149 SLP132 SKY PTLY OBSCD T00560000 10172 20056 53029"
"99784","LBB","2012-03-08 12:32:00",-101.8228,33.6636,39.2,33.8,80.79,20,30,0,30.05,NA,6,39,"OVC",NA,NA,NA,1400,NA,NA,NA,"BLDU",NA,NA,NA,40,30,"2012-03-08 12:18",26.6,"KLBB 081232Z 02030G39KT 6SM BLDU OVC014 04/01 A3005 RMK AO2 PK WND 03040/1218 SKY PTLY OBSCD"
"99785","LBB","2012-03-08 12:53:00",-101.8228,33.6636,37.94,33.08,82.46,30,33,0,30.07,1015.8,6,47,"OVC",NA,NA,NA,1000,NA,NA,NA,"BLDU",NA,NA,NA,47,30,"2012-03-08 12:47",24.34,"KLBB 081253Z 03033G47KT 6SM BLDU OVC010 03/01 A3007 RMK AO2 PK WND 03047/1247 SLP158 -RA BLDU AT AP T00330006"
"99787","LBB","2012-03-08 14:53:00",-101.8228,33.6636,37.04,28.94,72.24,30,30,0,30.17,1020,6,43,"OVC",NA,NA,NA,1400,NA,NA,NA,"BLDU",NA,NA,NA,45,30,"2012-03-08 14:06",23.63,"KLBB 081453Z 03030G43KT 6SM BLDU OVC014 03/M02 A3017 RMK AO2 PK WND 03045/1406 SLP200 60000 T00281017 51051"
"99790","LBB","2012-03-08 15:49:00",-101.8228,33.6636,37.4,26.6,64.7,30,30,0,30.2,NA,2.5,46,"SCT","BKN","BKN",NA,2200,4400,6000,NA,"BLDU",NA,NA,NA,46,30,"2012-03-08 15:45",24.12,"KLBB 081549Z 03030G46KT 2 1/2SM BLDU SCT022 BKN044 BKN060 03/M03 A3020 RMK AO2 PK WND 03046/1545 VIS NE 1/4 VIS 2 1/2V7"
"99791","LBB","2012-03-08 15:53:00",-101.8228,33.6636,37.94,26.06,61.94,30,35,0,30.21,1021.2,5,47,"SCT","BKN","BKN",NA,2200,4700,6000,NA,"BLDU",NA,NA,NA,47,30,"2012-03-08 15:50",24,"KLBB 081553Z 03035G47KT 5SM BLDU SCT022 BKN047 BKN060 03/M03 A3021 RMK AO2 PK WND 03047/1550 SLP212 VIS 2 1/2V7 T00331033"
"99792","LBB","2012-03-08 16:10:00",-101.8228,33.6636,37.4,24.8,60.04,30,39,0,30.21,NA,5,48,"BKN","OVC",NA,NA,2800,4700,NA,NA,"BLDU",NA,NA,NA,48,30,"2012-03-08 16:10",22.63,"KLBB 081610Z 03039G48KT 5SM BLDU BKN028 OVC047 03/M04 A3021 RMK AO2 PK WND 03048/1610 VIS 3V7"
"99793","LBB","2012-03-08 16:21:00",-101.8228,33.6636,39.2,23,51.89,30,33,0,30.22,NA,1.5,47,"OVC",NA,NA,NA,2800,NA,NA,NA,"BLDU",NA,NA,NA,48,30,"2012-03-08 16:10",26.08,"KLBB 081621Z 03033G47KT 1 1/2SM BLDU OVC028 04/M05 A3022 RMK AO2 PK WND 03048/1610 VIS 1 1/2V7 SKY PTLY OBSCD BINOVC"
"99794","LBB","2012-03-08 16:46:00",-101.8228,33.6636,39.2,21.2,48.1,30,31,0,30.24,NA,3,40,"OVC",NA,NA,NA,2800,NA,NA,NA,"BLDU",NA,NA,NA,48,30,"2012-03-08 16:10",26.42,"KLBB 081646Z 03031G40KT 3SM BLDU OVC028 04/M06 A3024 RMK AO2 PK WND 03048/1610 VIS 1 1/2V6 SKY PTLY OBSCD BINOVC"
"99795","LBB","2012-03-08 16:53:00",-101.8228,33.6636,39.02,21.92,49.93,30,33,0,30.24,1022.3,3,43,"OVC",NA,NA,NA,2800,NA,NA,NA,"BLDU",NA,NA,NA,48,30,"2012-03-08 16:10",25.83,"KLBB 081653Z 03033G43KT 3SM BLDU OVC028 04/M06 A3024 RMK AO2 PK WND 03048/1610 SLP223 VIS 1 1/2V7 SKY PTLY OBSCD BINOVC T00391056"
"99796","LBB","2012-03-08 17:10:00",-101.8228,33.6636,39.2,21.2,48.1,30,36,0,30.24,NA,3,47,"BKN","OVC",NA,NA,3000,6000,NA,NA,"BLDU",NA,NA,NA,47,30,"2012-03-08 17:07",25.61,"KLBB 081710Z 03036G47KT 3SM BLDU BKN030 OVC060 04/M06 A3024 RMK AO2 PK WND 03047/1707 BINOVC SKY PTLY OBSCD"
"99797","LBB","2012-03-08 17:53:00",-101.8228,33.6636,42.08,21.02,42.69,30,32,0,30.23,1021.8,3,45,"FEW","OVC",NA,NA,4800,6500,NA,NA,"BLDU",NA,NA,NA,47,30,"2012-03-08 17:07",30.23,"KLBB 081753Z 03032G45KT 3SM BLDU FEW048 OVC065 06/M06 A3023 RMK AO2 PK WND 03047/1707 SLP218 VIS S-W 2 SKY PTLY OBSCD 60000 T00561061 10056 20022 50017"
"100512","LBB","2012-04-02 21:53:00",-101.8228,33.6636,78.98,17.96,10.07,230,29,0,29.56,996.4,4,37,"FEW",NA,NA,NA,14000,NA,NA,NA,"BLDU",NA,NA,NA,37,220,"2012-04-02 21:52",77.05,"KLBB 022153Z 23029G37KT 4SM BLDU FEW140 26/M08 A2956 RMK AO2 PK WND 22037/2152 SLP964 VIS NW 2 1/4 SKY PTLY OBSCD T02611078"
"100513","LBB","2012-04-02 22:53:00",-101.8228,33.6636,73.04,12.02,9.47,230,32,0,29.6,998.1,4,41,"CLR",NA,NA,NA,NA,NA,NA,NA,"BLDU",NA,NA,NA,41,220,"2012-04-02 22:47",70.49,"KLBB 022253Z 23032G41KT 4SM BLDU CLR 23/M11 A2960 RMK AO2 PK WND 22041/2247 SLP981 SKY PTLY OBSCD T02281111"
"100635","LBB","2012-04-07 17:53:00",-101.8228,33.6636,66.92,51.08,56.73,10,20,0,30.18,1018.5,6,29,"SCT","BKN","OVC",NA,3200,18000,21000,NA,"BLDU",NA,NA,NA,30,10,"2012-04-07 17:28",66.92,"KLBB 071753Z 01020G29KT 6SM BLDU SCT032 BKN180 OVC210 19/11 A3018 RMK AO2 PK WND 01030/1728 SLP185 T01940106 10211 20144 51023"
"100826","LBB","2012-04-14 18:15:00",-101.8228,33.6636,82.4,46.4,28.36,200,26,0,29.63,NA,6,34,"BKN",NA,NA,NA,2600,NA,NA,NA,"BLDU",NA,NA,NA,34,180,"2012-04-14 18:14",80.64,"KLBB 141815Z 20026G34KT 6SM BLDU BKN026 28/08 A2963 RMK AO2 PK WND 18034/1814 BLDU ALQDS $"
"100827","LBB","2012-04-14 18:53:00",-101.8228,33.6636,84.92,44.96,24.75,200,25,0,29.61,997.3,5,37,"BKN",NA,NA,NA,3100,NA,NA,NA,"BLDU",NA,NA,NA,37,200,"2012-04-14 18:49",82.28,"KLBB 141853Z 20025G37KT 5SM BLDU BKN031 29/07 A2961 RMK AO2 PK WND 20037/1849 SLP973 T02940072 $"
"100828","LBB","2012-04-14 19:53:00",-101.8228,33.6636,86,39.02,19.02,200,24,0,29.57,995.8,5,35,"BKN",NA,NA,NA,3100,NA,NA,NA,"BLDU",NA,NA,NA,41,200,"2012-04-14 19:38",82.78,"KLBB 141953Z 20024G35KT 5SM BLDU BKN031 30/04 A2957 RMK AO2 PK WND 20041/1938 SLP958 T03000039 $"
"100829","LBB","2012-04-14 20:48:00",-101.8228,33.6636,87.8,30.2,12.64,220,23,0,29.54,NA,6,39,"BKN","BKN","BKN",NA,2900,3900,8000,NA,"BLDU",NA,NA,NA,39,210,"2012-04-14 20:43",84.01,"KLBB 142048Z 22023G39KT 6SM BLDU BKN029 BKN039 BKN080 31/M01 A2954 RMK AO2 PK WND 21039/2043 BLDU BKN029 AND BKN039 $"
"100830","LBB","2012-04-14 20:53:00",-101.8228,33.6636,87.08,30.02,12.84,230,28,0,29.54,994.8,6,35,"BKN","BKN","BKN",NA,2900,3700,8000,NA,"BLDU",NA,NA,NA,39,210,"2012-04-14 20:43",83.46,"KLBB 142053Z 23028G35KT 6SM BLDU BKN029 BKN037 BKN080 31/M01 A2954 RMK AO2 PK WND 21039/2043 SLP948 BLDU BKN029 AND BKN037 T03061011 56022 $"
"100831","LBB","2012-04-14 21:16:00",-101.8228,33.6636,87.8,26.6,10.91,210,26,0,29.52,NA,6,35,"BKN","BKN",NA,NA,3100,8000,NA,NA,"BLDU",NA,NA,NA,35,210,"2012-04-14 21:16",83.69,"KLBB 142116Z 21026G35KT 6SM BLDU BKN031 BKN080 31/M03 A2952 RMK AO2 PK WND 21035/2116 BLDU BKN031 $"
"100832","LBB","2012-04-14 21:53:00",-101.8228,33.6636,87.08,23,9.6,210,26,0,29.5,993.3,6,34,"BKN","BKN","BKN",NA,3300,4600,8000,NA,"BLDU",NA,NA,NA,37,200,"2012-04-14 21:30",82.91,"KLBB 142153Z 21026G34KT 6SM BLDU BKN033 BKN046 BKN080 31/M05 A2950 RMK AO2 PK WND 20037/2130 SLP933 BLDU BKN033 AND BKN046 T03061050 $"
"100833","LBB","2012-04-14 22:53:00",-101.8228,33.6636,87.08,12.92,6.22,220,30,0,29.48,992.7,5,40,"BKN","BKN",NA,NA,3300,30000,NA,NA,"BLDU",NA,NA,NA,40,210,"2012-04-14 22:52",82.44,"KLBB 142253Z 22030G40KT 5SM BLDU BKN033 BKN300 31/M11 A2948 RMK AO2 PK WND 21040/2252 SLP927 VIS NE-SE 3 BLDU BKN033 T03061106 $"
"100834","LBB","2012-04-14 23:53:00",-101.8228,33.6636,86,12.92,6.44,210,23,0,29.48,992.8,6,37,"BKN","BKN",NA,NA,3100,4500,NA,NA,"BLDU",NA,NA,NA,41,220,"2012-04-14 22:54",81.67,"KLBB 142353Z 21023G37KT 6SM BLDU BKN031 BKN045 30/M11 A2948 RMK AO2 PK WND 22041/2254 SLP928 BLDU BKN031 AND BKN045 T03001106 10311 20278 55018 $"
"100835","LBB","2012-04-15 00:53:00",-101.8228,33.6636,84.02,12.02,6.6,230,21,0,29.49,993.1,6,32,"BKN",NA,NA,NA,3300,NA,NA,NA,"BLDU",NA,NA,NA,34,210,"2012-04-15 00:29",80.24,"KLBB 150053Z 23021G32KT 6SM BLDU BKN033 29/M11 A2949 RMK AO2 PK WND 21034/0029 SLP931 BLDU BKN033 T02891111 $"
"100836","LBB","2012-04-15 01:53:00",-101.8228,33.6636,80.06,44.06,28,180,21,0,29.52,994.4,6,30,"BKN",NA,NA,NA,3900,NA,NA,NA,"BLDU",NA,NA,NA,33,230,"2012-04-15 00:58",80.06,"KLBB 150153Z 18021G30KT 6SM BLDU BKN039 27/07 A2952 RMK AO2 PK WND 23033/0058 SLP944 BLDU BKN039 T02670067 $"
"100837","LBB","2012-04-15 02:53:00",-101.8228,33.6636,75.92,53.06,44.97,170,19,0,29.52,994.4,6,30,"FEW","SCT",NA,NA,2600,7000,NA,NA,"BLDU",NA,NA,NA,36,180,"2012-04-15 02:34",75.92,"KLBB 150253Z 17019G30KT 6SM BLDU FEW026 SCT070 24/12 A2952 RMK AO2 PK WND 18036/0234 SLP944 T02440117 51012 $"
"100838","LBB","2012-04-15 03:02:00",-101.8228,33.6636,75.2,55.4,50.17,180,25,0,29.5,NA,6,33,"SCT","BKN",NA,NA,2400,7000,NA,NA,"TS BLDU",NA,NA,NA,33,170,"2012-04-15 03:01",75.2,"KLBB 150302Z 18025G33KT 6SM TS BLDU SCT024 BKN070CB 24/13 A2950 RMK AO2 PK WND 17033/0301 TSB02 FRQ LTGIC W-N TS W-N MOV NE $"
"100841","LBB","2012-04-15 03:34:00",-101.8228,33.6636,62.6,39.2,42,310,18,0.07,29.61,NA,3,24,"BKN","OVC",NA,NA,3500,5000,NA,NA,"-TSRA BLDU",NA,NA,NA,33,170,"2012-04-15 03:01",62.6,"KLBB 150334Z 31018G24KT 3SM -TSRA BLDU BKN035 OVC050 17/04 A2961 RMK AO2 PK WND 17033/0301 WSHFT 0258 TSB02RAB08GRB09E33 FRQ LTGIC N-E-S TS N-E-S MOV NE P0007 $"
"100842","LBB","2012-04-15 03:45:00",-101.8228,33.6636,62.6,35.6,36.45,310,30,0.07,29.62,NA,4,36,"OVC",NA,NA,NA,3900,NA,NA,NA,"HZ BLDU SQ",NA,NA,NA,36,310,"2012-04-15 03:44",62.6,"KLBB 150345Z 31030G36KT 4SM HZ BLDU SQ OVC039 17/02 A2962 RMK AO2 PK WND 31036/0344 WSHFT 0326 TSB02E45RAB08E45GRB09E33 FRQ LTGIC DSNT NE-SE CB DSNT NE-SE MOV NE P0007 $"
"100843","LBB","2012-04-15 03:53:00",-101.8228,33.6636,60.98,33.98,36.19,300,23,0.07,29.64,999.5,4,36,"OVC",NA,NA,NA,4100,NA,NA,NA,"BLDU",NA,NA,NA,36,310,"2012-04-15 03:44",60.98,"KLBB 150353Z 30023G36KT 4SM BLDU OVC041 16/01 A2964 RMK AO2 PK WND 31036/0344 WSHFT 0326 TSB02E45RAB08E45GRB09E33 SLP995 FRQ LTGIC DSNT NE-SE CB DSNT NE-SE MOV NE P0007 T01610011 $"
"100844","LBB","2012-04-15 04:53:00",-101.8228,33.6636,57.02,28.94,34.01,310,31,0,29.67,1000.3,6,37,"BKN","OVC",NA,NA,3000,6000,NA,NA,"BLDU",NA,NA,NA,40,310,"2012-04-15 04:17",57.02,"KLBB 150453Z 31031G37KT 6SM BLDU BKN030 OVC060 14/M02 A2967 RMK AO2 PK WND 31040/0417 SLP003 FRQ LTGIC DSNT NE-SE CB DSNT NE-SE MOV NE T01391017 $"
"100845","LBB","2012-04-15 05:53:00",-101.8228,33.6636,55.04,26.96,33.69,290,24,0,29.66,1000.2,8,33,"OVC",NA,NA,NA,6500,NA,NA,NA,"BLDU",NA,NA,NA,37,300,"2012-04-15 04:57",55.04,"KLBB 150553Z 29024G33KT 8SM BLDU OVC065 13/M03 A2966 RMK AO2 PK WND 30037/0457 SLP002 60007 T01281028 10300 20128 403110128 50045 $"
"100846","LBB","2012-04-15 06:53:00",-101.8228,33.6636,53.06,23,30.71,300,21,0,29.66,1000.2,9,30,"OVC",NA,NA,NA,7500,NA,NA,NA,"BLDU",NA,NA,NA,38,300,"2012-04-15 06:11",53.06,"KLBB 150653Z 30021G30KT 9SM BLDU OVC075 12/M05 A2966 RMK AO2 PK WND 30038/0611 SLP002 T01171050 $"
"100847","LBB","2012-04-15 07:53:00",-101.8228,33.6636,51.08,23,33.04,300,17,0,29.7,1001.4,10,26,"OVC",NA,NA,NA,7500,NA,NA,NA,"BLDU",NA,NA,NA,35,300,"2012-04-15 07:32",51.08,"KLBB 150753Z 30017G26KT 10SM BLDU OVC075 11/M05 A2970 RMK AO2 PK WND 30035/0732 SLP014 T01061050 $"
"100854","LBB","2012-04-15 14:04:00",-101.8228,33.6636,51.8,17.6,25.56,280,28,0,29.75,NA,2,38,"CLR",NA,NA,NA,NA,NA,NA,NA,"BLDU",NA,NA,NA,38,290,"2012-04-15 13:57",51.8,"KLBB 151404Z 28028G38KT 2SM BLDU CLR 11/M08 A2975 RMK AO2 PK WND 29038/1357 $"
"100855","LBB","2012-04-15 14:24:00",-101.8228,33.6636,51.8,17.6,25.56,280,34,0,29.75,NA,1,40,"CLR",NA,NA,NA,NA,NA,NA,NA,"BLDU",NA,NA,NA,42,280,"2012-04-15 14:06",51.8,"KLBB 151424Z 28034G40KT 1SM R17R/P6000FT BLDU CLR 11/M08 A2975 RMK AO2 PK WND 28042/1406 $"
"100856","LBB","2012-04-15 14:53:00",-101.8228,33.6636,53.96,17.06,23.07,280,32,0,29.75,1003.7,1,44,"CLR",NA,NA,NA,NA,NA,NA,NA,"BLDU",NA,NA,NA,47,280,"2012-04-15 14:35",53.96,"KLBB 151453Z 28032G44KT 1SM R17R/6000VP6000FT BLDU CLR 12/M08 A2975 RMK AO2 PK WND 28047/1435 SLP037 T01221083 55007 $"
"100857","LBB","2012-04-15 15:53:00",-101.8228,33.6636,57.92,17.06,19.99,270,24,0,29.79,1005.6,3,39,"CLR",NA,NA,NA,NA,NA,NA,NA,"BLDU",NA,NA,NA,40,270,"2012-04-15 15:29",57.92,"KLBB 151553Z 27024G39KT 3SM BLDU CLR 14/M08 A2979 RMK AO2 PK WND 27040/1529 SLP056 T01441083 $"
"100858","LBB","2012-04-15 16:53:00",-101.8228,33.6636,60.08,17.96,19.23,260,33,0,29.8,1006.1,3,42,"CLR",NA,NA,NA,NA,NA,NA,NA,"BLDU",NA,NA,NA,44,280,"2012-04-15 16:43",60.08,"KLBB 151653Z 26033G42KT 3SM BLDU CLR 16/M08 A2980 RMK AO2 PK WND 28044/1643 SLP061 T01561078 $"
"100859","LBB","2012-04-15 17:53:00",-101.8228,33.6636,62.06,17.06,17.25,270,27,0,29.81,1006.3,3,37,"CLR",NA,NA,NA,NA,NA,NA,NA,"BLDU",NA,NA,NA,43,270,"2012-04-15 17:08",62.06,"KLBB 151753Z 27027G37KT 3SM BLDU CLR 17/M08 A2981 RMK AO2 PK WND 27043/1708 SFC VIS 5 SLP063 T01671083 10172 20072 53004 $"
"100860","LBB","2012-04-15 18:53:00",-101.8228,33.6636,64.94,17.06,15.59,260,29,0,29.79,1005.9,5,38,"CLR",NA,NA,NA,NA,NA,NA,NA,"BLDU",NA,NA,NA,41,260,"2012-04-15 18:20",64.94,"KLBB 151853Z 26029G38KT 5SM BLDU CLR 18/M08 A2979 RMK AO2 PK WND 26041/1820 SLP059 T01831083 $"
"100861","LBB","2012-04-15 19:53:00",-101.8228,33.6636,66.02,17.96,15.61,270,27,0,29.79,1005.9,4,39,"CLR",NA,NA,NA,NA,NA,NA,NA,"BLDU",NA,NA,NA,41,280,"2012-04-15 19:43",66.02,"KLBB 151953Z 27027G39KT 4SM BLDU CLR 19/M08 A2979 RMK AO2 PK WND 28041/1943 SLP059 T01891078 $"
"100862","LBB","2012-04-15 20:53:00",-101.8228,33.6636,68,19.04,15.27,280,28,0,29.79,1005.9,6,35,"FEW","SCT",NA,NA,3500,9000,NA,NA,"BLDU",NA,NA,NA,41,270,"2012-04-15 20:34",68,"KLBB 152053Z 28028G35KT 6SM BLDU FEW035 SCT090 20/M07 A2979 RMK AO2 PK WND 27041/2034 SLP059 BLDU FEW035 T02001072 56003 $"
"100967","LBB","2012-04-19 23:28:00",-101.8228,33.6636,78.8,39.2,24.19,40,15,0,29.79,NA,6,23,"FEW","BKN",NA,NA,9000,19000,NA,NA,"BLDU",NA,NA,NA,29,300,"2012-04-19 23:12",77.52,"KLBB 192328Z 04015G23KT 6SM BLDU FEW090 BKN190 26/04 A2979 RMK AO2 PK WND 30029/2312 WSHFT 2310"
"101154","LBB","2012-04-27 14:53:00",-101.8228,33.6636,71.06,30.92,22.55,290,20,0,29.82,1004.9,3,36,"CLR",NA,NA,NA,NA,NA,NA,NA,"BLDU",NA,NA,NA,NA,NA,NA,68.93,"KLBB 271453Z 29020G36KT 3SM BLDU CLR 22/M01 A2982 RMK AO2 PK WND 30036/1447 SLP049 SKY PRLY OBSCD T02171006 50007"
"101155","LBB","2012-04-27 15:53:00",-101.8228,33.6636,73.94,28.94,18.87,290,29,0,29.81,1004.5,5,37,"CLR",NA,NA,NA,NA,NA,NA,NA,"BLDU",NA,NA,NA,NA,NA,NA,71.92,"KLBB 271553Z 29029G37KT 5SM BLDU CLR 23/M02 A2981 RMK AO2 PK WND 27041/1526 SLP045 SKY PRLY OBSCD T02331017"
"101156","LBB","2012-04-27 16:30:00",-101.8228,33.6636,77,26.6,15.48,270,31,0,29.8,NA,2.5,41,"CLR",NA,NA,NA,NA,NA,NA,NA,"BLDU",NA,NA,NA,NA,NA,NA,75.13,"KLBB 271630Z 27031G41KT 2 1/2SM BLDU CLR 25/M03 A2980 RMK AO2 PK WND 28041/1626 SKY PRLY OBSCD"
"101157","LBB","2012-04-27 16:41:00",-101.8228,33.6636,77,26.6,15.48,280,30,0,29.8,NA,3,39,"CLR",NA,NA,NA,NA,NA,NA,NA,"BLDU",NA,NA,NA,NA,NA,NA,75.13,"KLBB 271641Z 28030G39KT 3SM BLDU CLR 25/M03 A2980 RMK AO2 PK WND 28041/1626 SKY PRLY OBSCD"
"101158","LBB","2012-04-27 16:53:00",-101.8228,33.6636,78.98,26.06,14.18,260,30,0,29.79,1003.5,2,41,"CLR",NA,NA,NA,NA,NA,NA,NA,"BLDU",NA,NA,NA,NA,NA,NA,77.24,"KLBB 271653Z 26030G41KT 2SM BLDU CLR 26/M03 A2979 RMK AO2 PK WND 27041/1647 TWR VIS 3 SLP035 SKY PRLY OBSCD T02611033"
"101159","LBB","2012-04-27 17:53:00",-101.8228,33.6636,82.04,23,11.29,270,33,0,29.78,1003.1,3,40,"CLR",NA,NA,NA,NA,NA,NA,NA,"BLDU",NA,NA,NA,NA,NA,NA,79.43,"KLBB 271753Z 27033G40KT 3SM BLDU CLR 28/M05 A2978 RMK AO2 PK WND 28041/1719 SLP031 SKY MSTLY OBSCD T02781050 10278 20139 58013"
"101160","LBB","2012-04-27 18:53:00",-101.8228,33.6636,84.92,23,10.29,270,30,0,29.76,1002.4,5,39,"CLR",NA,NA,NA,NA,NA,NA,NA,"BLDU",NA,NA,NA,NA,NA,NA,81.38,"KLBB 271853Z 27030G39KT 5SM BLDU CLR 29/M05 A2976 RMK AO2 PK WND 27041/1822 SLP024 SKY PRLY OBSCD T02941050"
"101248","LBB","2012-05-01 01:53:00",-101.8228,33.6636,69.08,59,70.26,140,26,0,29.83,1006.1,6,34,"FEW","BKN",NA,NA,3800,30000,NA,NA,"BLDU",NA,NA,NA,NA,NA,NA,69.08,"KLBB 010153Z 14026G34KT 6SM BLDU FEW038 BKN300 21/15 A2983 RMK AO2 PK WND 16041/0127 SLP061 CB DSNT SE MOV E SKY PTLY OBSCD T02060150"
"101274","LBB","2012-05-02 03:53:00",-101.8228,33.6636,78.08,57.02,48.35,190,22,0,29.77,1002.5,5,32,"CLR",NA,NA,NA,NA,NA,NA,NA,"BLDU",NA,NA,NA,NA,NA,NA,78.08,"KLBB 020353Z 19022G32KT 5SM BLDU CLR 26/14 A2977 RMK AO2 PK WND 19032/0347 SLP025 SKY PTLY OBSCD T02560139"
"101275","LBB","2012-05-02 04:53:00",-101.8228,33.6636,75.02,60.08,59.72,190,21,0,29.78,1002.9,6,28,"CLR",NA,NA,NA,NA,NA,NA,NA,"BLDU",NA,NA,NA,NA,NA,NA,75.02,"KLBB 020453Z 19021G28KT 6SM BLDU CLR 24/16 A2978 RMK AO2 PK WND 20032/0426 SLP029 T02390156"
"101932","LBB","2012-05-26 00:53:00",-101.8228,33.6636,93.02,41,16.47,180,27,0,29.79,1002.7,6,34,"FEW",NA,NA,NA,17000,NA,NA,NA,"BLDU",NA,NA,NA,34,180,"2012-05-26 00:52",88.87,"KLBB 260053Z 18027G34KT 6SM BLDU FEW170 34/05 A2979 RMK AO2 PK WND 18034/0052 SLP027 T03390050"
"102057","LBB","2012-05-31 01:37:00",-101.8228,33.6636,86,26.6,11.55,50,27,0,29.73,NA,0.5,34,"FEW",NA,NA,NA,2100,NA,NA,NA,"HZ DS",NA,NA,NA,34,50,"2012-05-31 01:37",82.39,"KLBB 310137Z 05027G34KT 1/2SM R17R/P6000FT HZ DS FEW021 30/M03 A2973 RMK AO2 PK WND 05034/0137 PRESRR SKY MOSTLY OBSCD $"
"102058","LBB","2012-05-31 01:44:00",-101.8228,33.6636,80.6,55.4,41.97,50,26,0,29.74,NA,0.5,34,"CLR",NA,NA,NA,NA,NA,NA,NA,"BLDU",NA,NA,NA,34,50,"2012-05-31 01:37",80.53,"KLBB 310144Z 05026G34KT 1/2SM R17R/P6000FT BLDU CLR 27/13 A2974 RMK AO2 PK WND 05034/0137 WSHFT 0128 SFC VIS 1 SKY MOSTLY OBSCD $"
"102059","LBB","2012-05-31 01:53:00",-101.8228,33.6636,78.08,55.94,46.49,70,21,0,29.75,1002,3,33,"FEW",NA,NA,NA,30000,NA,NA,NA,"BLDU",NA,NA,NA,34,50,"2012-05-31 01:37",78.08,"KLBB 310153Z 07021G33KT 3SM BLDU FEW300 26/13 A2975 RMK AO2 PK WND 05034/0137 WSHFT 0128 SLP020 SKY PTLY OBSCD T02560133"
"102138","LBB","2012-06-03 04:12:00",-101.8228,33.6636,77,50,38.74,360,21,0,29.95,NA,2,36,"OVC",NA,NA,NA,20000,NA,NA,NA,"BLDU",NA,NA,NA,36,360,"2012-06-03 04:10",77,"KLBB 030412Z 36021G36KT 2SM BLDU OVC200 25/10 A2995 RMK AO2 PK WND 36036/0410 PRESRR"
"102187","LBB","2012-06-04 23:07:00",-101.8228,33.6636,80.6,50,34.41,340,12,0,29.86,NA,3,18,"SCT","BKN",NA,NA,9500,30000,NA,NA,"BLDU",NA,NA,NA,NA,NA,NA,80.6,"KLBB 042307Z 34012G18KT 3SM BLDU SCT095 BKN300 27/10 A2986 RMK AO2 TSE04 OCNL LTGCG SW-NW-NE CB SW-NW-NE TCU E SKY PTLY OBSCD"
"102190","LBB","2012-06-04 23:53:00",-101.8228,33.6636,75.02,53.06,46.34,310,29,1e-04,29.89,1007.3,3,36,"FEW","SCT","OVC",NA,1000,10000,30000,NA,"-TSRA BLDU",NA,NA,NA,36,310,"2012-06-04 23:53",75.02,"KLBB 042353Z 31029G36KT 3SM -TSRA BLDU FEW010 SCT100 OVC300 24/12 A2989 RMK AO2 PK WND 31036/2353 TSE04B29RAB44 SLP073 FRQ LTGCG SW-NW-N TS SW-NW-N P0000 60000 T02390117 10361 20239 53007 $"
"102191","LBB","2012-06-04 23:59:00",-101.8228,33.6636,73.4,53.6,49.9,320,27,1e-04,29.89,NA,0.25,44,"FEW","SCT","OVC",NA,1000,10000,30000,NA,"-TSRA BLDU",NA,NA,NA,44,310,"2012-06-04 23:56",73.4,"KLBB 042359Z 32027G44KT 1/4SM R17R/P6000FT -TSRA BLDU FEW010 SCT100 OVC300 23/12 A2989 RMK AO2 PK WND 31044/2356 FRQ LTGCGIC SW-NW-N TS SW-NW-N P0000 $"
"102192","LBB","2012-06-05 00:19:00",-101.8228,33.6636,71.6,57.2,60.44,320,23,1e-04,29.89,NA,5,38,"FEW","BKN","BKN","OVC",5000,9000,11000,30000,"-TSRA BLDU",NA,NA,NA,NA,NA,NA,71.6,"KLBB 050019Z 32023G38KT 5SM -TSRA BLDU FEW050 BKN090 BKN110 OVC300 22/14 A2989 RMK AO2 PK WND 31044/2356 OCNL LTGCGIC SW-NW-N TS SW-NW-N P0000 $"
"102428","LBB","2012-06-12 13:53:00",-101.8228,33.6636,73.04,53.96,51.18,40,24,0,30.17,1016.5,6,30,"SCT","BKN",NA,NA,4900,26000,NA,NA,"BLDU",NA,NA,NA,32,50,"2012-06-12 13:40",73.04,"KLBB 121353Z 04024G30KT 6SM BLDU SCT049 BKN260 23/12 A3017 RMK AO2 PK WND 05032/1340 SLP165 T02280122"
"102429","LBB","2012-06-12 14:53:00",-101.8228,33.6636,71.06,50,47.29,60,22,0,30.2,1017.6,7,31,"OVC",NA,NA,NA,4900,NA,NA,NA,"BLDU",NA,NA,NA,31,60,"2012-06-12 14:49",71.06,"KLBB 121453Z 06022G31KT 7SM BLDU OVC049 22/10 A3020 RMK AO2 PK WND 06031/1449 SLP176 T02170100 53012"
"102430","LBB","2012-06-12 15:21:00",-101.8228,33.6636,71.6,53.6,53.03,70,20,0,30.2,NA,3,37,"BKN","BKN",NA,NA,5500,26000,NA,NA,"BLDU",NA,NA,NA,37,60,"2012-06-12 15:15",71.6,"KLBB 121521Z 07020G37KT 3SM BLDU BKN055 BKN260 22/12 A3020 RMK AO2 PK WND 06037/1515 SKY PRLY OBSCD"
"102431","LBB","2012-06-12 15:53:00",-101.8228,33.6636,75.92,57.02,51.94,80,20,0,30.18,1017.1,3,33,"BKN","BKN",NA,NA,5500,26000,NA,NA,"BLDU",NA,NA,NA,37,60,"2012-06-12 15:15",75.92,"KLBB 121553Z 08020G33KT 3SM BLDU BKN055 BKN260 24/14 A3018 RMK AO2 PK WND 06037/1515 SLP171 SKY PRLY OBSCD T02440139 $"
"102432","LBB","2012-06-12 16:53:00",-101.8228,33.6636,80.06,53.06,39.22,70,24,0,30.15,1015.6,3,32,"SCT","SCT",NA,NA,6000,30000,NA,NA,"BLDU",NA,NA,NA,35,70,"2012-06-12 16:27",80.06,"KLBB 121653Z 07024G32KT 3SM BLDU SCT060 SCT300 27/12 A3015 RMK AO2 PK WND 07035/1627 SLP156 SKY PRLY OBSCD T02670117"
"102433","LBB","2012-06-12 17:53:00",-101.8228,33.6636,82.94,55.94,39.67,110,22,0,30.15,1015.5,5,NA,"FEW","SCT","SCT",NA,6500,20000,30000,NA,"HZ BLDU",NA,NA,NA,34,70,"2012-06-12 16:54",82.94,"KLBB 121753Z 11022KT 5SM HZ BLDU FEW065 SCT200 SCT300 28/13 A3015 RMK AO2 PK WND 07034/1654 SLP155 SKY PRLY OBSCD T02830133 10283 20200 56016"
"102435","LBB","2012-06-12 18:50:00",-101.8228,33.6636,84.2,55.4,37.35,120,23,0,30.12,NA,4,31,"SCT","SCT","SCT",NA,2500,3200,20000,NA,"BLDU",NA,NA,NA,31,110,"2012-06-12 18:45",83.09,"KLBB 121850Z 12023G31KT 4SM BLDU SCT025 SCT032 SCT200 29/13 A3012 RMK AO2 PK WND 11031/1845 SKY PRLY OBSCD"
"102436","LBB","2012-06-12 18:53:00",-101.8228,33.6636,84.02,55.04,37.08,120,27,0,30.12,1014.4,4,32,"SCT","SCT","SCT",NA,2500,3200,20000,NA,"BLDU",NA,NA,NA,32,120,"2012-06-12 18:52",82.88,"KLBB 121853Z 12027G32KT 4SM BLDU SCT025 SCT032 SCT200 29/13 A3012 RMK AO2 PK WND 12032/1852 SLP144 SKY PRLY OBSCD T02890128"
"102437","LBB","2012-06-12 19:53:00",-101.8228,33.6636,84.02,53.96,35.64,130,23,0,30.09,1013.7,4,31,"FEW","SCT",NA,NA,7000,20000,NA,NA,"BLDU",NA,NA,NA,34,120,"2012-06-12 18:54",82.68,"KLBB 121953Z 13023G31KT 4SM BLDU FEW070 SCT200 29/12 A3009 RMK AO2 PK WND 12034/1854 SLP137 SKY PRLY OBSCD T02890122"
"102506","LBB","2012-06-15 00:28:00",-101.8228,33.6636,86,57.2,37.62,30,18,0,29.86,NA,0.25,23,"SCT","BKN",NA,NA,11000,17000,NA,NA,"HZ BLDU",NA,NA,NA,NA,NA,NA,84.97,"KLBB 150028Z 03018G23KT 1/4SM R17R/5500VP6000FT HZ BLDU SCT110 BKN170 30/14 A2986 RMK AO2 BLDU ALQDS"
"102507","LBB","2012-06-15 00:44:00",-101.8228,33.6636,77,50,38.74,30,29,0,29.84,NA,0.25,38,"SCT","BKN",NA,NA,2300,11000,NA,NA,"BLDU",NA,NA,NA,38,20,"2012-06-15 00:42",77,"KLBB 150044Z 03029G38KT 1/4SM R17R/3000VP6000FT BLDU SCT023 BKN110 25/10 A2984 RMK AO2 PK WND 02038/0042 WSHFT 0027 SKY PRLY OBSCD"
"102508","LBB","2012-06-15 00:53:00",-101.8228,33.6636,75.02,51.98,44.53,30,26,1e-04,29.88,1007.1,0.25,42,"BKN","OVC",NA,NA,2500,11000,NA,NA,"-RA BLDU",NA,NA,NA,42,30,"2012-06-15 00:47",75.02,"KLBB 150053Z 03026G42KT 1/4SM R17R/P6000FT -RA BLDU BKN025 OVC110CB 24/11 A2988 RMK AO2 PK WND 03042/0047 WSHFT 0027 TWR VIS 3/4 RAB52 SLP071 OCNL LTGIC TS OHD MOV NESKY PRLY OBSCD -RA AT AP P0000 T02390111"
"102509","LBB","2012-06-15 01:00:00",-101.8228,33.6636,69.8,55.4,60.21,30,22,0.01,29.89,NA,0.25,38,"BKN","OVC",NA,NA,2700,11000,NA,NA,"-RA BLDU",NA,NA,NA,38,20,"2012-06-15 00:55",69.8,"KLBB 150100Z 03022G38KT 1/4SM R17R/P6000FT -RA BLDU BKN027 OVC110CB 21/13 A2989 RMK AO2 PK WND 02038/0055 TWR VIS 2 PRESRR OCNL LTGIC TS OHD MOV NE P0001"
"102510","LBB","2012-06-15 01:09:00",-101.8228,33.6636,69.8,57.2,64.26,20,19,0.01,29.9,NA,2,30,"FEW","BKN","OVC",NA,3800,9500,11000,NA,"-RA BLDU",NA,NA,NA,38,20,"2012-06-15 00:55",69.8,"KLBB 150109Z 02019G30KT 2SM -RA BLDU FEW038 BKN095 OVC110CB 21/14 A2990 RMK AO2 PK WND 02038/0055 SFC VIS 3 OCNL LTGICCG TS NE MOV NE P0001"
"102511","LBB","2012-06-15 01:18:00",-101.8228,33.6636,69.8,57.2,64.26,30,31,0.01,29.88,NA,2,37,"FEW","BKN","OVC",NA,3800,9500,11000,NA,"BLDU",NA,NA,NA,38,20,"2012-06-15 00:55",69.8,"KLBB 150118Z 03031G37KT 2SM BLDU FEW038 BKN095 OVC110CB 21/14 A2988 RMK AO2 PK WND 02038/0055 RAE16 OCNL LTGIC NE TS NE MOV NE P0001"
"102512","LBB","2012-06-15 01:26:00",-101.8228,33.6636,68,57.2,68.35,30,31,0.01,29.88,NA,5,39,"FEW","BKN","OVC",NA,3800,9500,11000,NA,"-RA BLDU",NA,NA,NA,39,30,"2012-06-15 01:24",68,"KLBB 150126Z 03031G39KT 5SM -RA BLDU FEW038 BKN095 OVC110CB 20/14 A2988 RMK AO2 PK WND 03039/0124 OCNL LTGIC NE CB NE MOV NE P0001 $"
"102517","LBB","2012-06-15 04:24:00",-101.8228,33.6636,77,55.4,47.25,230,15,0,29.88,NA,8,30,"FEW","SCT","OVC",NA,7000,11000,13000,NA,"TS BLDU",NA,NA,NA,34,120,"2012-06-15 04:09",77,"KLBB 150424Z 23015G30KT 8SM TS BLDU FEW070CB SCT110 OVC130 25/13 A2988 RMK AO2 PK WND 12034/0409 WSHFT 0410 CONS LTGICCCCACG DSNT SE-S CB DSNT SE-S MOV SE"
"102542","LBB","2012-06-16 02:47:00",-101.8228,33.6636,75.2,53.6,46.98,300,25,0,29.99,NA,4,32,"SCT","BKN",NA,NA,7000,30000,NA,NA,"TS BLDU SQ",NA,NA,NA,32,300,"2012-06-16 02:42",75.2,"KLBB 160247Z 30025G32KT 4SM TS BLDU SQ SCT070CB BKN300 24/12 A2999 RMK AO2 PK WND 30032/0242 TSB42 PRESRR FRQ LTGICCC S-W-N TS S-W-N MOV NE"
"102543","LBB","2012-06-16 02:53:00",-101.8228,33.6636,73.94,53.06,48.04,290,26,0,30.02,1011.7,3,38,"BKN","OVC",NA,NA,7000,30000,NA,NA,"TS BLDU",NA,NA,NA,38,290,"2012-06-16 02:49",73.94,"KLBB 160253Z 29026G38KT 3SM TS BLDU BKN070CB OVC300 23/12 A3002 RMK AO2 PK WND 29038/0249 TSB42 PRESRR SLP117 FRQ LTGICCCCG ALQDS TS ALQDS MOV NE T02330117 53033"
"102544","LBB","2012-06-16 03:01:00",-101.8228,33.6636,73.4,53.6,49.9,310,21,0,30.03,NA,6,35,"BKN","OVC",NA,NA,7000,30000,NA,NA,"TS BLDU",NA,NA,NA,NA,NA,NA,73.4,"KLBB 160301Z 31021G35KT 6SM TS BLDU BKN070CB OVC300 23/12 A3003 RMK AO2 PK WND 31032/0255 WSHFT 0241 FRQ LTGICCCCG ALQDS TS ALQDS MOV E"
"102570","LBB","2012-06-17 01:12:00",-101.8228,33.6636,77,60.8,57.36,120,23,0,30.06,NA,4,33,"BKN","BKN","BKN",NA,5000,15000,26000,NA,"BLDU SQ",NA,NA,NA,33,130,"2012-06-17 01:07",77,"KLBB 170112Z 12023G33KT 4SM BLDU SQ BKN050 BKN150 BKN260 25/16 A3006 RMK AO2 PK WND 13033/0107 PRESRR CB DSNT W MOV N $"
"102637","LBB","2012-06-19 16:48:00",-101.8228,33.6636,84.2,62.6,48.32,180,20,0,29.8,NA,6,NA,"SCT",NA,NA,NA,2300,NA,NA,NA,"BLDU",NA,NA,NA,NA,NA,NA,85.03,"KLBB 191648Z 18020KT 6SM BLDU SCT023 29/17 A2980 RMK AO2 PK WND 17026/1627 BLDU SCT023"
"102638","LBB","2012-06-19 16:53:00",-101.8228,33.6636,86,62.96,46.19,170,20,0,29.8,1003.1,6,25,"SCT",NA,NA,NA,2300,NA,NA,NA,"BLDU",NA,NA,NA,26,170,"2012-06-19 16:27",86.87,"KLBB 191653Z 17020G25KT 6SM BLDU SCT023 30/17 A2980 RMK AO2 PK WND 17026/1627 SLP031 BLDU SCT023 T03000172"
"102639","LBB","2012-06-19 17:53:00",-101.8228,33.6636,89.06,62.06,40.6,180,20,0,29.8,1002.9,3,30,"CLR",NA,NA,NA,NA,NA,NA,NA,"BLDU",NA,NA,NA,NA,NA,NA,89.52,"KLBB 191753Z 18020G30KT 3SM BLDU CLR 32/17 A2980 RMK AO2 PK WND 18030/1751 SLP029 SKY PRLY OBSCD T03170167 10317 20222 56005"
"102640","LBB","2012-06-19 18:53:00",-101.8228,33.6636,91.04,62.06,38.15,180,19,0,29.78,1002.1,4,24,"CLR",NA,NA,NA,NA,NA,NA,NA,"BLDU",NA,NA,NA,31,160,"2012-06-19 18:32",91.04,"KLBB 191853Z 18019G24KT 4SM BLDU CLR 33/17 A2978 RMK AO2 PK WND 16031/1832 SLP021 SKY PRLY OBSCD T03280167"
"102641","LBB","2012-06-19 19:53:00",-101.8228,33.6636,93.02,60.98,34.52,170,18,0,29.76,1001.5,6,27,"CLR",NA,NA,NA,NA,NA,NA,NA,"BLDU",NA,NA,NA,30,160,"2012-06-19 19:11",93.02,"KLBB 191953Z 17018G27KT 6SM BLDU CLR 34/16 A2976 RMK AO2 PK WND 16030/1911 SLP015 T03390161"
"102666","LBB","2012-06-20 17:43:00",-101.8228,33.6636,87.8,60.8,40.41,170,20,0,29.88,NA,5,27,"FEW",NA,NA,NA,2900,NA,NA,NA,"BLDU",NA,NA,NA,30,170,"2012-06-20 17:25",87.75,"KLBB 201743Z 17020G27KT 5SM BLDU FEW029 31/16 A2988 RMK AO2 PK WND 17030/1725"
"102667","LBB","2012-06-20 17:53:00",-101.8228,33.6636,86,60.98,43.07,170,20,0,29.88,1005.9,4,26,"FEW",NA,NA,NA,2700,NA,NA,NA,"BLDU",NA,NA,NA,30,170,"2012-06-20 17:25",86.11,"KLBB 201753Z 17020G26KT 4SM BLDU FEW027 30/16 A2988 RMK AO2 PK WND 17030/1725 SLP059 T03000161 10306 20228 50002"
"102668","LBB","2012-06-20 18:53:00",-101.8228,33.6636,89.96,59,35.4,190,19,0,29.87,1005.3,4,28,"CLR",NA,NA,NA,NA,NA,NA,NA,"BLDU",NA,NA,NA,29,190,"2012-06-20 18:21",89.96,"KLBB 201853Z 19019G28KT 4SM BLDU CLR 32/15 A2987 RMK AO2 PK WND 19029/1821 SLP053 SKY PRLY OBSCD T03220150"
"102669","LBB","2012-06-20 19:53:00",-101.8228,33.6636,91.94,57.92,32.01,170,15,0,29.86,1005,5,22,"CLR",NA,NA,NA,NA,NA,NA,NA,"BLDU",NA,NA,NA,30,190,"2012-06-20 19:02",90.85,"KLBB 201953Z 17015G22KT 5SM BLDU CLR 33/14 A2986 RMK AO2 PK WND 19030/1902 SLP050 SKY PRLY OBSCD T03330144"
"102670","LBB","2012-06-20 20:53:00",-101.8228,33.6636,93.02,57.02,29.96,170,21,0,29.85,1004.7,6,28,"CLR",NA,NA,NA,NA,NA,NA,NA,"BLDU",NA,NA,NA,28,160,"2012-06-20 20:52",91.66,"KLBB 202053Z 17021G28KT 6SM BLDU CLR 34/14 A2985 RMK AO2 PK WND 16028/2052 SLP047 T03390139 56009"
"102697","LBB","2012-06-21 23:53:00",-101.8228,33.6636,84.02,62.06,47.68,110,19,0,30.06,1012.9,6,NA,"SCT","BKN","BKN",NA,7500,11000,30000,NA,"BLDU",NA,NA,NA,NA,NA,NA,84.68,"KLBB 212353Z 11019KT 6SM BLDU SCT075TCU BKN110 BKN300 29/17 A3006 RMK AO2 PK WND 11026/2343 SLP129 CB DSNT NE-SE-S AND W-NW MOV SW TCU ALQDS T02890167 10322 20289 56012"
"102699","LBB","2012-06-22 00:11:00",-101.8228,33.6636,80.6,64.4,57.84,110,25,0,30.05,NA,5,33,"SCT","SCT","BKN",NA,7500,11000,30000,NA,"BLDU",NA,NA,NA,33,120,"2012-06-22 00:07",82.27,"KLBB 220011Z 11025G33KT 5SM BLDU SCT075CB SCT110 BKN300 27/18 A3005 RMK AO2 PK WND 12033/0007 FRQ LTGICCG NE TS NE MOV SW CB NW MOV SW"
"103019","LBB","2012-07-05 02:00:00",-101.8228,33.6636,84.2,60.8,45.34,220,30,0,29.94,NA,1.75,38,"FEW","BKN",NA,NA,7000,7500,NA,NA,"BLDU",NA,NA,NA,NA,NA,NA,84.43,"KLBB 050200Z 22030G38KT 1 3/4SM BLDU FEW070 BKN075TCU 29/16 A2994 RMK AO2 PK WND 21038/0200 TWR VIS 2 CB DSNT SW-W AND N STNRY TCU OHD"
"103020","LBB","2012-07-05 02:14:00",-101.8228,33.6636,80.6,62.6,54.3,210,26,1e-04,29.96,NA,1.75,32,"BKN","BKN","BKN",NA,7000,8000,9500,NA,"-RA BLDU",NA,NA,NA,NA,NA,NA,81.84,"KLBB 050214Z 21026G32KT 1 3/4SM -RA BLDU BKN070CB BKN080 BKN095 27/17 A2996 RMK AO2 PK WND 21038/0200 SFC VIS 5 RAB13 CB DSNT SW-W AND N STNRY TCU ALQDS P0000"
"103021","LBB","2012-07-05 02:24:00",-101.8228,33.6636,78.8,62.6,57.6,210,18,1e-04,29.96,NA,7,27,"SCT","BKN",NA,NA,7000,11000,NA,NA,"-RA BLDU",NA,NA,NA,NA,NA,NA,80.31,"KLBB 050224Z 21018G27KT 7SM -RA BLDU SCT070CB BKN110 26/17 A2996 RMK AO2 PK WND 21038/0200 RAB13 CB SE-SW MOV N SLOW PCPN VERY LIGHT P0000"
"103046","LBB","2012-07-06 02:06:00",-101.8228,33.6636,82.4,57.2,42.25,180,26,0,30.03,NA,1.5,37,"FEW","SCT","SCT",NA,5000,6500,30000,NA,"HZ BLDU",NA,NA,NA,37,170,"2012-07-06 02:06",82.08,"KLBB 060206Z 18026G37KT 1 1/2SM HZ BLDU FEW050 SCT065 SCT300 28/14 A3003 RMK AO2 PK WND 17037/0206"
"103047","LBB","2012-07-06 02:17:00",-101.8228,33.6636,80.6,59,47.79,200,20,0,30.03,NA,3,29,"SCT","SCT","SCT",NA,2800,6500,30000,NA,"BLDU",NA,NA,NA,37,170,"2012-07-06 02:06",81.11,"KLBB 060217Z 20020G29KT 3SM BLDU SCT028 SCT065 SCT300 27/15 A3003 RMK AO2 PK WND 17037/0206 SKY PTLY OBSCD"
"103048","LBB","2012-07-06 02:53:00",-101.8228,33.6636,78.98,57.92,48.48,200,15,0,30.04,1011.8,4,NA,"SCT","SCT","SCT",NA,2800,6500,30000,NA,"BLDU",NA,NA,NA,37,170,"2012-07-06 02:06",78.98,"KLBB 060253Z 20015KT 4SM BLDU SCT028 SCT065 SCT300 26/14 A3004 RMK AO2 PK WND 17037/0206 SLP118 SKY PTLY OBSCD T02610144 52015"
"103049","LBB","2012-07-06 03:53:00",-101.8228,33.6636,78.08,57.92,49.94,200,11,0,30.06,1012.3,6,NA,"CLR",NA,NA,NA,NA,NA,NA,NA,"DU",NA,NA,NA,NA,NA,NA,78.08,"KLBB 060353Z 20011KT 6SM DU CLR 26/14 A3006 RMK AO2 SLP123 T02560144"
"103050","LBB","2012-07-06 04:53:00",-101.8228,33.6636,75.92,57.92,53.65,170,6,0,30.08,1013,5,NA,"CLR",NA,NA,NA,NA,NA,NA,NA,"DU",NA,NA,NA,NA,NA,NA,75.92,"KLBB 060453Z 17006KT 5SM DU CLR 24/14 A3008 RMK AO2 SLP130 T02440144"
"103051","LBB","2012-07-06 05:53:00",-101.8228,33.6636,73.04,57.92,59.08,180,5,0,30.08,1013.1,5,NA,"CLR",NA,NA,NA,NA,NA,NA,NA,"DU",NA,NA,NA,NA,NA,NA,73.04,"KLBB 060553Z 18005KT 5SM DU CLR 23/14 A3008 RMK AO2 SLP131 T02280144 10328 20228 403440217 51013"
"103116","LBB","2012-07-08 20:45:00",-101.8228,33.6636,93.2,53.6,26.31,60,16,0,30.07,NA,2,24,"BKN","OVC",NA,NA,9500,12000,NA,NA,"TS HZ BLDU",NA,NA,NA,NA,NA,NA,90.86,"KLBB 082045Z 06016G24KT 360V100 2SM TS HZ BLDU BKN095CB OVC120 34/12 A3007 RMK AO2 TSB45 OCNL LTGIC NW TS NW MOV SW $"
"103117","LBB","2012-07-08 20:53:00",-101.8228,33.6636,89.96,55.94,31.71,50,20,0,30.07,1012.3,0.25,25,"BKN","BKN",NA,NA,9500,12000,NA,NA,"TS HZ BLDU",NA,NA,NA,NA,NA,NA,88.27,"KLBB 082053Z 05020G25KT 1/4SM R17R/P6000FT TS HZ BLDU BKN095CB BKN120 32/13 A3007 RMK AO2 TSB45 SLP123 OCNL LTGIC NW TS NW MOV SW T03220133 56014 $"
"103118","LBB","2012-07-08 20:58:00",-101.8228,33.6636,89.6,55.4,31.45,50,18,0,30.08,NA,7,25,"BKN","BKN","BKN",NA,9500,12000,20000,NA,"TS BLDU",NA,NA,NA,NA,NA,NA,87.78,"KLBB 082058Z 05018G25KT 7SM TS BLDU BKN095CB BKN120 BKN200 32/13 A3008 RMK AO2 OCNL LTGIC SW-NW TS SW-NW MOV SW BLDU ALQDS $"
"103500","LBB","2012-07-24 01:53:00",-101.8228,33.6636,84.92,59,41.55,140,23,0,30.06,1012.1,6,29,"BKN","BKN","BKN",NA,11000,14000,30000,NA,"BLDU",NA,NA,NA,29,140,"2012-07-24 01:51",84.52,"KLBB 240153Z 14023G29KT 6SM BLDU BKN110 BKN140 BKN300 29/15 A3006 RMK AO2 PK WND 14029/0151 SLP121 CB DSNT NE AND SE MOV W BLDU ALQDS T02940150"
"104037","LBB","2012-08-14 23:16:00",-101.8228,33.6636,84.2,57.2,39.86,320,18,1e-04,29.9,NA,2,27,"FEW","SCT","OVC",NA,6500,8000,10000,NA,"-TSRA BLDU",NA,NA,NA,27,310,"2012-08-14 23:12",84.2,"KLBB 142316Z 32018G27KT 2SM -TSRA BLDU FEW065CB SCT080 OVC100 29/14 A2990 RMK AO2 PK WND 31027/2312 RAB13 FRQ LTGICCG W-N TS W-N MOV SE BLDU ALQDS P0000"
"104045","LBB","2012-08-15 02:20:00",-101.8228,33.6636,82.4,57.2,42.25,280,20,0,29.9,NA,6,29,"FEW","BKN","BKN","BKN",7000,15000,17000,30000,"TS BLDU",NA,NA,NA,29,270,"2012-08-15 02:13",82.08,"KLBB 150220Z 28020G29KT 6SM TS BLDU FEW070CB BKN150 BKN170 BKN300 28/14 A2990 RMK AO2 PK WND 27029/0213 WSHFT 0201 TSB20 CONS LTGICCACG SW-NW TS SW-NW MOV SE"
"104153","LBB","2012-08-19 00:53:00",-101.8228,33.6636,80.96,64.04,56.45,80,16,0,29.92,1007.9,6,27,"BKN","BKN","BKN",NA,7500,15000,25000,NA,"BLDU",NA,NA,NA,27,70,"2012-08-19 00:47",82.52,"KLBB 190053Z 08016G27KT 6SM BLDU BKN075TCU BKN150 BKN250 27/18 A2992 RMK AO2 PK WND 07027/0047 SLP079 TCU OHD AND ALQDS VIS NW-NE 2 BLDU NW-NE T02720178"
"104625","LBB","2012-09-06 01:17:00",-101.8228,33.6636,71.6,66.2,83.09,10,22,0.01,29.98,NA,2,35,"BKN","BKN","BKN",NA,9500,12000,30000,NA,"+TSRA BLDU",NA,NA,NA,35,350,"2012-09-06 01:13",71.6,"KLBB 060117Z 01022G35KT 2SM +TSRA BLDU BKN095CB BKN120 BKN300 22/19 A2998 RMK AO2 PK WND 35035/0113 RAB13 FRQ LTGICCG ALQDS TS ALQDS MOV E BLDU S P0001"
"104626","LBB","2012-09-06 01:23:00",-101.8228,33.6636,71.6,66.2,83.09,10,17,0.07,30,NA,2,34,"BKN","BKN","BKN",NA,9500,12000,30000,NA,"+TSRA BLDU",NA,NA,NA,35,350,"2012-09-06 01:13",71.6,"KLBB 060123Z 01017G34KT 2SM +TSRA BLDU BKN095CB BKN120 BKN300 22/19 A3000 RMK AO2 PK WND 35035/0113 WSHFT 0106 RAB13 PRESRR FRQ LTGICCG ALQDS TS ALQDS MOV E BLDU S P0007"
"104673","LBB","2012-09-07 20:35:00",-101.8228,33.6636,89.6,57.2,33.56,360,17,0,29.96,NA,3,27,"FEW","SCT","BKN",NA,3100,10000,30000,NA,"TS BLDU",NA,NA,NA,27,10,"2012-09-07 20:30",88.28,"KLBB 072035Z 36017G27KT 3SM TS BLDU FEW031 SCT100CB BKN300 32/14 A2996 RMK AO2 PK WND 01027/2030 WSHFT 2018 TSB17 OCNL LTGIC W-NW TS W-NW MOV S BLDU FEW031"
"104677","LBB","2012-09-07 22:53:00",-101.8228,33.6636,82.94,57.92,42.61,20,20,0,29.98,1009.6,6,28,"SCT","BKN",NA,NA,15000,30000,NA,NA,"HZ BLDU",NA,NA,NA,28,10,"2012-09-07 22:50",82.64,"KLBB 072253Z 02020G28KT 6SM HZ BLDU SCT150 BKN300 28/14 A2998 RMK AO2 PK WND 01028/2250 SLP096 CB DSNT SE-SW MOV S BLDU ALQDS T02830144"
"104678","LBB","2012-09-07 23:53:00",-101.8228,33.6636,82.04,57.92,43.87,10,14,0,30.03,1011.4,10,NA,"SCT","BKN",NA,NA,16000,30000,NA,NA,"BLDU",NA,NA,NA,29,10,"2012-09-07 22:55",81.96,"KLBB 072353Z 01014KT 10SM BLDU SCT160 BKN300 28/14 A3003 RMK AO2 PK WND 01029/2255 SLP114 T02780144 10372 20278 53021"
"105176","LBB","2012-09-26 22:25:00",-101.8228,33.6636,75.2,60.8,60.9,250,30,1e-04,29.98,NA,2,38,"BKN","BKN","OVC",NA,6000,7000,17000,NA,"-TSRA BLDU",NA,NA,NA,38,260,"2012-09-26 22:25",75.2,"KLBB 262225Z 25030G38KT 2SM -TSRA BLDU BKN060CB BKN070 OVC170 24/16 A2998 RMK AO2 PK WND 26038/2225 RAB21 PRESRR CONS LTGICCG SW-NW TS SW-NW MOV NE P0000"
"105177","LBB","2012-09-26 22:29:00",-101.8228,33.6636,69.8,62.6,77.9,270,22,1e-04,30,NA,4,38,"FEW","BKN","OVC",NA,2300,6000,7000,NA,"+TSRA BLDU SQ",NA,NA,NA,38,260,"2012-09-26 22:25",69.8,"KLBB 262229Z 27022G38KT 4SM +TSRA BLDU SQ FEW023 BKN060CB OVC070 21/17 A3000 RMK AO2 PK WND 26038/2225 RAB21 PRESRR CONS LTGICCG SW-NW TS SW-NW MOV NE P0000"
"105178","LBB","2012-09-26 22:36:00",-101.8228,33.6636,66.2,62.6,88.18,330,23,0.05,30,NA,2.5,35,"SCT","BKN","OVC",NA,1800,3700,6000,NA,"+TSRA BR BLDU",NA,NA,NA,38,260,"2012-09-26 22:25",66.2,"KLBB 262236Z 33023G35KT 2 1/2SM R17R/5500VP6000FT +TSRA BR BLDU SCT018 BKN037 OVC060 19/17 A3000 RMK AO2 PK WND 26038/2225 WSHFT 2220 RAB21 CONS LTGICCG SW-OHD-N TS SW-OHD-N MOV NE P0005"
"106360","LBB","2012-11-10 19:53:00",-101.8228,33.6636,82.04,39.02,21.61,210,25,0,29.7,1000.9,5,38,"SCT","SCT","SCT",NA,3400,8000,26000,NA,"BLDU",NA,NA,NA,38,200,"2012-11-10 19:50",79.97,"KLBB 101953Z 21025G38KT 5SM BLDU SCT034 SCT080 SCT260 28/04 A2970 RMK AO2 PK WND 20038/1950 SLP009 LYR BLDU SCT034 T02780039"
"106361","LBB","2012-11-10 20:53:00",-101.8228,33.6636,82.04,35.06,18.49,220,23,0,29.67,999.9,3,35,"SCT","SCT","SCT",NA,2900,3700,8500,NA,"BLDU",NA,NA,NA,40,200,"2012-11-10 20:40",79.83,"KLBB 102053Z 22023G35KT 3SM BLDU SCT029 SCT037 SCT085 28/02 A2967 RMK AO2 PK WND 20040/2040 SFC VIS 4 SLP999 SKY MSTLY OBSCD T02780017 56034"
"106387","LBB","2012-11-11 19:53:00",-101.8228,33.6636,55.94,3.92,11.95,280,23,0,30.01,1013.7,6,30,"CLR",NA,NA,NA,NA,NA,NA,NA,"BLDU",NA,NA,NA,34,270,"2012-11-11 19:10",55.94,"KLBB 111953Z 28023G30KT 6SM BLDU CLR 13/M16 A3001 RMK AO2 PK WND 27034/1910 SLP137 SKY PTLY OBSCD T01331156"
"106389","LBB","2012-11-11 21:53:00",-101.8228,33.6636,53.96,-0.94,10.24,300,22,0,30.04,1015.4,5,30,"SCT","BKN",NA,NA,3200,4300,NA,NA,"HZ BLDU",NA,NA,NA,35,310,"2012-11-11 21:23",53.96,"KLBB 112153Z 30022G30KT 5SM HZ BLDU SCT032 BKN043 12/M18 A3004 RMK AO2 PK WND 31035/2123 SLP154 SKY PRTLY OBSCD T01221183"
"106918","LBB","2012-12-03 17:53:00",-101.8228,33.6636,75.92,24.98,15,270,22,0,29.96,1010.7,6,27,"FEW","BKN",NA,NA,25000,30000,NA,NA,"BLDU",NA,NA,NA,27,270,"2012-12-03 17:49",73.92,"KLBB 031753Z 27022G27KT 6SM BLDU FEW250 BKN300 24/M04 A2996 RMK AO2 PK WND 27027/1749 SLP107 T02441039 10244 20078 50001"
"107197","LBB","2012-12-14 17:59:00",-101.8228,33.6636,57.2,48.2,71.83,170,23,0,29.8,NA,4,31,"SCT","BKN",NA,NA,1900,25000,NA,NA,"BLDU",NA,NA,NA,31,170,"2012-12-14 17:58",57.2,"KLBB 141759Z 17023G31KT 4SM BLDU SCT019 BKN250 14/09 A2980 RMK AO2 PK WND 17031/1758"
"107198","LBB","2012-12-14 18:53:00",-101.8228,33.6636,60.98,48.92,64.46,170,22,0,29.74,1004.4,5,32,"SCT","BKN",NA,NA,2200,26000,NA,NA,"BLDU",NA,NA,NA,33,180,"2012-12-14 18:26",60.98,"KLBB 141853Z 17022G32KT 5SM BLDU SCT022 BKN260 16/09 A2974 RMK AO2 PK WND 18033/1826 PRESFR SLP044 T01610094"
"107199","LBB","2012-12-14 19:53:00",-101.8228,33.6636,64.04,48.92,57.87,190,31,0,29.68,1002.3,3,42,"SCT","BKN",NA,NA,3000,26000,NA,NA,"BLDU",NA,NA,NA,42,190,"2012-12-14 19:52",64.04,"KLBB 141953Z 19031G42KT 3SM BLDU SCT030 BKN260 18/09 A2968 RMK AO2 PK WND 19042/1952 PRESFR SLP023 T01780094"
"107200","LBB","2012-12-14 20:53:00",-101.8228,33.6636,64.94,48.92,56.08,180,25,0,29.66,1001.2,3,35,"FEW","SCT","BKN",NA,2900,26000,30000,NA,"BLDU",NA,NA,NA,40,180,"2012-12-14 20:21",64.94,"KLBB 142053Z 18025G35KT 3SM BLDU FEW029 SCT260 BKN300 18/09 A2966 RMK AO2 PK WND 18040/2021 SLP012 SKY PTLY OBSCD T01830094 56048"
"107201","LBB","2012-12-14 21:53:00",-101.8228,33.6636,64.04,48.92,57.87,190,24,0,29.63,1000.3,3,35,"BKN","BKN",NA,NA,3300,27000,NA,NA,"BLDU",NA,NA,NA,43,180,"2012-12-14 21:20",64.04,"KLBB 142153Z 19024G35KT 3SM BLDU BKN033 BKN270 18/09 A2963 RMK AO2 PK WND 18043/2120 SLP003 CB DSNT SW-W MOV E SKY PTLY OBSCD T01780094"
"107202","LBB","2012-12-14 22:00:00",-101.8228,33.6636,64.4,48.2,55.63,190,29,1e-04,29.64,NA,1.5,37,"BKN","OVC",NA,NA,3300,27000,NA,NA,"-TSRA BLDU",NA,NA,NA,37,200,"2012-12-14 21:59",64.4,"KLBB 142200Z 19029G37KT 1 1/2SM -TSRA BLDU BKN033CB OVC270 18/09 A2964 RMK AO2 PK WND 20037/2159 SFC VIS 3 TSB00RAB00 FRQ LTGIC SW-W TS SW-W MOV NE SKY AND LTG PTLY OBSCD P0000"
"107260","LBB","2012-12-17 04:53:00",-101.8228,33.6636,44.06,21.92,41.1,280,24,0,29.87,1009.7,4,35,"SCT",NA,NA,NA,26000,NA,NA,NA,"BLDU",NA,NA,NA,35,280,"2012-12-17 04:44",34.33,"KLBB 170453Z 28024G35KT 4SM BLDU SCT260 07/M06 A2987 RMK AO2 PK WND 28035/0444 SLP097 T00671056"
"107272","LBB","2012-12-17 16:53:00",-101.8228,33.6636,48.92,21.02,32.93,290,26,0,29.9,1011.3,4,33,"SCT",NA,NA,NA,30000,NA,NA,NA,"BLDU",NA,NA,NA,33,300,"2012-12-17 16:49",40.56,"KLBB 171653Z 29026G33KT 4SM BLDU SCT300 09/M06 A2990 RMK AO2 PK WND 30033/1649 SLP113 T00941061"
"107275","LBB","2012-12-17 19:53:00",-101.8228,33.6636,57.92,19.94,22.61,280,20,0,29.82,1008.2,2,29,"BKN",NA,NA,NA,30000,NA,NA,NA,"BLDU",NA,NA,NA,29,280,"2012-12-17 19:51",57.92,"KLBB 171953Z 28020G29KT 2SM BLDU BKN300 14/M07 A2982 RMK AO2 PK WND 28029/1951 SLP082 SKY PTLY OBSCD T01441067"
"107276","LBB","2012-12-17 20:53:00",-101.8228,33.6636,60.98,21.02,21.23,270,22,0,29.81,1007.5,2.5,27,"SCT",NA,NA,NA,30000,NA,NA,NA,"BLDU",NA,NA,NA,29,280,"2012-12-17 20:24",60.98,"KLBB 172053Z 27022G27KT 2 1/2SM BLDU SCT300 16/M06 A2981 RMK AO2 PK WND 28029/2024 SLP075 SKY PTLY OBSCD T01611061 56028"
"107277","LBB","2012-12-17 21:46:00",-101.8228,33.6636,60.8,21.2,21.53,280,18,0,29.8,NA,4,27,"FEW",NA,NA,NA,30000,NA,NA,NA,"BLDU",NA,NA,NA,30,270,"2012-12-17 21:29",60.8,"KLBB 172146Z 28018G27KT 4SM BLDU FEW300 16/M06 A2980 RMK AO2 PK WND 27030/2129"
"107278","LBB","2012-12-17 21:53:00",-101.8228,33.6636,60.98,21.02,21.23,280,17,0,29.8,1007.5,4,24,"FEW",NA,NA,NA,30000,NA,NA,NA,"BLDU",NA,NA,NA,30,270,"2012-12-17 21:29",60.98,"KLBB 172153Z 28017G24KT 4SM BLDU FEW300 16/M06 A2980 RMK AO2 PK WND 27030/2129 SLP075 T01611061"
"107279","LBB","2012-12-17 22:18:00",-101.8228,33.6636,60.8,21.2,21.53,300,22,0,29.8,NA,2.5,28,"CLR",NA,NA,NA,NA,NA,NA,NA,"BLDU",NA,NA,NA,28,300,"2012-12-17 22:13",60.8,"KLBB 172218Z 30022G28KT 2 1/2SM BLDU CLR 16/M06 A2980 RMK AO2 PK WND 30028/2213"
"107280","LBB","2012-12-17 22:47:00",-101.8228,33.6636,60.8,19.4,19.94,290,21,0,29.8,NA,4,29,"CLR",NA,NA,NA,NA,NA,NA,NA,"BLDU",NA,NA,NA,30,280,"2012-12-17 22:37",60.8,"KLBB 172247Z 29021G29KT 4SM BLDU CLR 16/M07 A2980 RMK AO2 PK WND 28030/2237"
"107281","LBB","2012-12-17 22:53:00",-101.8228,33.6636,60.08,19.94,20.93,280,18,0,29.81,1007.7,4,28,"CLR",NA,NA,NA,NA,NA,NA,NA,"BLDU",NA,NA,NA,30,280,"2012-12-17 22:37",60.08,"KLBB 172253Z 28018G28KT 4SM BLDU CLR 16/M07 A2981 RMK AO2 PK WND 28030/2237 SLP077 T01561067"
"107282","LBB","2012-12-17 23:53:00",-101.8228,33.6636,55.94,21.92,26.42,280,15,0,29.82,1008.5,9,22,"CLR",NA,NA,NA,NA,NA,NA,NA,"BLDU",NA,NA,NA,32,270,"2012-12-17 23:19",55.94,"KLBB 172353Z 28015G22KT 9SM BLDU CLR 13/M06 A2982 RMK AO2 PK WND 27032/2319 SLP085 T01331056 10167 20117 53003"
"107325","LBB","2012-12-19 18:30:00",-101.8228,33.6636,64.4,21.2,18.96,250,28,0,29.59,NA,2,38,"SCT","OVC",NA,NA,1700,25000,NA,NA,"BLDU",NA,NA,NA,38,250,"2012-12-19 18:29",64.4,"KLBB 191830Z 25028G38KT 2SM R17R/6000VP6000FT BLDU SCT017 OVC250 18/M06 A2959 RMK AO2 PK WND 25038/1829 SKY PRLY OBSCD"
"107326","LBB","2012-12-19 18:34:00",-101.8228,33.6636,64.4,21.2,18.96,250,32,0,29.58,NA,0.75,39,"SCT","OVC",NA,NA,1700,25000,NA,NA,"BLDU",NA,NA,NA,39,250,"2012-12-19 18:34",64.4,"KLBB 191834Z 25032G39KT 3/4SM BLDU SCT017 OVC250 18/M06 A2958 RMK AO2 PK WND 25039/1834 SFC VIS 1 SKY PRLY OBSCD RVRNO"
"107327","LBB","2012-12-19 18:53:00",-101.8228,33.6636,66.02,23,19.34,250,39,0,29.57,997.7,0.5,48,"OVC",NA,NA,NA,1700,NA,NA,NA,"BLDU",NA,NA,NA,49,250,"2012-12-19 18:42",66.02,"KLBB 191853Z 25039G48KT 1/2SM BLDU OVC017 19/M05 A2957 RMK AO2 PK WND 25049/1842 TWR VIS 3/4 SLP977 SKY MSTLY OBSCD T01891050 RVRNO $"
"107328","LBB","2012-12-19 19:00:00",-101.8228,33.6636,66.2,24.8,20.72,240,45,0,29.56,NA,0.25,53,"VV ",NA,NA,NA,1000,NA,NA,NA,"+DS",NA,NA,NA,NA,NA,NA,66.2,"KLBB 191900Z 24045G53KT 1/4SM +DS VV010 19/M04 A2956"
"107329","LBB","2012-12-19 19:07:00",-101.8228,33.6636,64.4,26.6,23.77,250,41,1e-04,29.56,NA,0.25,57,"VV ",NA,NA,NA,800,NA,NA,NA,"-RA +DS",NA,NA,NA,57,250,"2012-12-19 19:01",64.4,"KLBB 191907Z 25041G57KT 1/4SM -RA +DS VV008 18/M03 A2956 RMK AO2 PK WND 25057/1901 TWR VIS 1/4 RAB03 P0000 RVRNO"
"107330","LBB","2012-12-19 19:30:00",-101.8228,33.6636,64.4,26.6,23.77,240,30,1e-04,29.58,NA,0.5,44,"VV ",NA,NA,NA,900,NA,NA,NA,"BLDU",NA,NA,NA,57,250,"2012-12-19 19:01",64.4,"KLBB 191930Z 24030G44KT 1/2SM R17R/3500V4500FT BLDU VV009 18/M03 A2958 RMK AO2 PK WND 25057/1901 TWR VIS 3/4 RAB03E12 P0000"
"107331","LBB","2012-12-19 19:37:00",-101.8228,33.6636,64.4,26.6,23.77,250,35,1e-04,29.56,NA,0.5,45,"VV ",NA,NA,NA,1200,NA,NA,NA,"DS",NA,NA,NA,57,250,"2012-12-19 19:01",64.4,"KLBB 191937Z 25035G45KT 1/2SM R17R/3500V6000FT DS VV012 18/M03 A2956 RMK AO2 PK WND 25057/1901 TWR VIS 3/4 RAB03E12 P0000"
"107332","LBB","2012-12-19 19:46:00",-101.8228,33.6636,64.4,26.6,23.77,240,31,1e-04,29.57,NA,0.25,49,"VV ",NA,NA,NA,1200,NA,NA,NA,"DS",NA,NA,NA,57,250,"2012-12-19 19:01",64.4,"KLBB 191946Z 24031G49KT 1/4SM R17R/4000VP6000FT DS VV012 18/M03 A2957 RMK AO2 PK WND 25057/1901 SFC VIS 1/2 RAB03E12 P0000"
"107333","LBB","2012-12-19 19:53:00",-101.8228,33.6636,64.94,26.96,23.68,240,36,1e-04,29.57,997.8,0.25,45,"VV ",NA,NA,NA,1300,NA,NA,NA,"DS",NA,NA,NA,57,250,"2012-12-19 19:01",64.94,"KLBB 191953Z 24036G45KT 1/4SM R17R/4500VP6000FT DS VV013 18/M03 A2957 RMK AO2 PK WND 25057/1901 SFC VIS 1/2 RAB03E12 SLP978 P0000 T01831028"
"107334","LBB","2012-12-19 20:06:00",-101.8228,33.6636,64.4,26.6,23.77,250,33,0,29.56,NA,0.25,43,"VV ",NA,NA,NA,1600,NA,NA,NA,"BLDU",NA,NA,NA,44,240,"2012-12-19 19:54",64.4,"KLBB 192006Z 25033G43KT 1/4SM R17R/4500VP6000FT BLDU VV016 18/M03 A2956 RMK AO2 PK WND 24044/1954 SFC VIS 3/4"
"107335","LBB","2012-12-19 20:53:00",-101.8228,33.6636,64.94,26.96,23.68,240,32,0,29.56,997.6,0.25,45,"VV ",NA,NA,NA,1700,NA,NA,NA,"BLDU",NA,NA,NA,46,240,"2012-12-19 20:24",64.94,"KLBB 192053Z 24032G45KT 1/4SM R17R/4500VP6000FT BLDU VV017 18/M03 A2956 RMK AO2 PK WND 24046/2024 SFC VIS 3/4 SLP976 60000 T01831028 56020"
"107336","LBB","2012-12-19 21:38:00",-101.8228,33.6636,60.8,30.2,31.28,290,28,0,29.6,NA,0.25,40,"VV ",NA,NA,NA,1700,NA,NA,NA,"+DS",NA,NA,NA,45,230,"2012-12-19 21:17",60.8,"KLBB 192138Z 29028G40KT 1/4SM R17R/5500VP6000FT +DS VV017 16/M01 A2960 RMK AO2 PK WND 23045/2117 PRESRR SKY OBSCD DU OVC017"
"107337","LBB","2012-12-19 21:49:00",-101.8228,33.6636,57.2,32,38.26,290,32,1e-04,29.61,NA,0.25,41,"VV ",NA,NA,NA,1900,NA,NA,NA,"-RA +DS",NA,NA,NA,45,230,"2012-12-19 21:17",57.2,"KLBB 192149Z 29032G41KT 1/4SM R17R/P6000FT -RA +DS VV019 14/00 A2961 RMK AO2 PK WND 23045/2117 WSHFT 2130 RAB49 SKY OBSCD DU VV019 P0000"
"107338","LBB","2012-12-19 21:53:00",-101.8228,33.6636,55.94,33.08,41.82,300,31,1e-04,29.63,1000.8,0.25,43,"VV ",NA,NA,NA,1900,NA,NA,NA,"+DS",NA,NA,NA,NA,NA,NA,55.94,"KLBB 192153Z 30031G43KT 1/4SM R17R/4500VP6000FT +DS VV019 13/01 A2963 RMK AO2 PK WND 23045/2117 WSHFT 2130 RAB49E53 SLP008 SKY OBSCD DU VV019 P0000 T01330006"
"107339","LBB","2012-12-19 22:15:00",-101.8228,33.6636,53.6,28.4,37.67,300,33,1e-04,29.66,NA,0.5,43,"VV ",NA,NA,NA,1600,NA,NA,NA,"DS",NA,NA,NA,NA,NA,NA,53.6,"KLBB 192215Z 30033G43KT 1/2SM R17R/5500V6000FT DS VV016 12/M02 A2966 RMK AO2 PK WND 31043/2213 RAB2154E02 VIS NW-NE 1/4 SKY MOSTLY OBSCD P0000"
"107340","LBB","2012-12-19 22:37:00",-101.8228,33.6636,53.6,17.6,23.93,290,32,1e-04,29.68,NA,0.25,43,"VV ",NA,NA,NA,1500,NA,NA,NA,"+DS",NA,NA,NA,NA,NA,NA,53.6,"KLBB 192237Z 29032G43KT 1/4SM R17R/5000VP6000FT +DS VV015 12/M08 A2968 RMK AO2 PK WND 29043/2232 TWR VIS 1/2 RAB2154E02 SKY MOSTLY OBSCD P0000"
"107341","LBB","2012-12-19 22:41:00",-101.8228,33.6636,53.6,15.8,22.13,290,26,1e-04,29.68,NA,0.25,43,"VV ",NA,NA,NA,1400,NA,NA,NA,"+DS",NA,NA,NA,NA,NA,NA,53.6,"KLBB 192241Z 29026G43KT 1/4SM R17R/4000V6000FT +DS VV014 12/M09 A2968 RMK AO2 PK WND 29043/2232 TWR VIS 1/2 RAB2154E02 SKY MOSTLY OBSCD P0000"
"107342","LBB","2012-12-19 22:53:00",-101.8228,33.6636,53.06,12.92,19.9,280,27,1e-04,29.69,1003.4,0.25,44,"VV ",NA,NA,NA,1200,NA,NA,NA,"+DS",NA,NA,NA,NA,NA,NA,53.06,"KLBB 192253Z 28027G44KT 1/4SM R17R/4500FT +DS VV012 12/M11 A2969 RMK AO2 PK WND 28044/2249 TWR VIS 1/2 RAB2154E02 SLP034 VIS NW-N 1/8 SKY MOSTLY OBSCD P0000 T01171106"
"107343","LBB","2012-12-19 23:13:00",-101.8228,33.6636,53.6,10.4,17.45,290,29,0,29.71,NA,0.5,39,"VV ",NA,NA,NA,1300,NA,NA,NA,"DS",NA,NA,NA,NA,NA,NA,53.6,"KLBB 192313Z 29029G39KT 1/2SM R17R/5500VP6000FT DS VV013 12/M12 A2971 RMK AO2 PK WND 30039/2308 VIS NW 1/4"
"107344","LBB","2012-12-19 23:35:00",-101.8228,33.6636,51.8,8.6,17.2,290,31,0,29.72,NA,0.5,42,"VV ",NA,NA,NA,1400,NA,NA,NA,"DS",NA,NA,NA,NA,NA,NA,51.8,"KLBB 192335Z 29031G42KT 1/2SM R17R/6000VP6000FT DS VV014 11/M13 A2972 RMK AO2 PK WND 29042/2333 VIS NW 1/4 SKY MOSTLY OBSCD"
"107345","LBB","2012-12-19 23:53:00",-101.8228,33.6636,51.08,10.94,19.61,290,33,0,29.74,1005.4,0.5,42,"VV ",NA,NA,NA,1400,NA,NA,NA,"DS",NA,NA,NA,NA,NA,NA,51.08,"KLBB 192353Z 29033G42KT 1/2SM R17R/P6000FT DS VV014 11/M12 A2974 RMK AO2 PK WND 29044/2339 SLP054 SKY MOSTLY OBSCD 60000 T01061117 10189 20106 53040"
"107346","LBB","2012-12-20 00:39:00",-101.8228,33.6636,48.2,12.2,23.09,290,28,0,29.78,NA,1.25,41,"BKN",NA,NA,NA,1400,NA,NA,NA,"BLDU",NA,NA,NA,43,290,"2012-12-19 23:55",39.27,"KLBB 200039Z 29028G41KT 1 1/4SM BLDU BKN014 09/M11 A2978 RMK AO2 PK WND 29043/2355"
"107347","LBB","2012-12-20 00:46:00",-101.8228,33.6636,48.2,12.2,23.09,290,31,0,29.79,NA,1.25,40,"SCT",NA,NA,NA,1600,NA,NA,NA,"BLDU",NA,NA,NA,43,290,"2012-12-19 23:55",38.84,"KLBB 200046Z 29031G40KT 1 1/4SM BLDU SCT016 09/M11 A2979 RMK AO2 PK WND 29043/2355 SFC VIS 1 1/2 PRESRR"
"107348","LBB","2012-12-20 00:53:00",-101.8228,33.6636,48.02,12.92,24,290,30,0,29.8,1007.6,1.25,40,"SCT",NA,NA,NA,1600,NA,NA,NA,"BLDU",NA,NA,NA,43,290,"2012-12-19 23:55",38.73,"KLBB 200053Z 29030G40KT 1 1/4SM BLDU SCT016 09/M11 A2980 RMK AO2 PK WND 29043/2355 SFC VIS 1 1/2 PRESRR SLP076 T00891106"
"107349","LBB","2012-12-20 01:13:00",-101.8228,33.6636,42.8,19.4,38.75,350,28,0,29.85,NA,1.25,34,"OVC",NA,NA,NA,2800,NA,NA,NA,"BLDU",NA,NA,NA,45,300,"2012-12-20 01:00",31.89,"KLBB 200113Z 35028G34KT 1 1/4SM BLDU OVC028 06/M07 A2985 RMK AO2 PK WND 30045/0100 WSHFT 0058 SFC VIS 2 1/2 PRESRR"
"107350","LBB","2012-12-20 01:27:00",-101.8228,33.6636,39.2,21.2,48.1,340,28,0,29.88,NA,1.25,37,"SCT",NA,NA,NA,3300,NA,NA,NA,"BLDU",NA,NA,NA,45,300,"2012-12-20 01:00",26.97,"KLBB 200127Z 34028G37KT 1 1/4SM BLDU SCT033 04/M06 A2988 RMK AO2 PK WND 30045/0100 WSHFT 0058 SFC VIS 4"
"107351","LBB","2012-12-20 01:31:00",-101.8228,33.6636,39.2,21.2,48.1,350,25,0,29.89,NA,2,37,"SCT",NA,NA,NA,3300,NA,NA,NA,"BLDU",NA,NA,NA,45,300,"2012-12-20 01:00",27.56,"KLBB 200131Z 35025G37KT 2SM BLDU SCT033 04/M06 A2989 RMK AO2 PK WND 30045/0100 WSHFT 0058 SFC VIS 4"
"107352","LBB","2012-12-20 01:38:00",-101.8228,33.6636,37.4,21.2,51.61,340,27,0,29.91,NA,5,32,"SCT",NA,NA,NA,4100,NA,NA,NA,"BLDU",NA,NA,NA,45,300,"2012-12-20 01:00",24.7,"KLBB 200138Z 34027G32KT 5SM BLDU SCT041 03/M06 A2991 RMK AO2 PK WND 30045/0100 WSHFT 0058"
"107353","LBB","2012-12-20 01:53:00",-101.8228,33.6636,35.96,21.92,56.32,350,26,0,29.93,1012.4,5,37,"FEW",NA,NA,NA,4100,NA,NA,NA,"BLDU",NA,NA,NA,45,300,"2012-12-20 01:00",22.95,"KLBB 200153Z 35026G37KT 5SM BLDU FEW041 02/M06 A2993 RMK AO2 PK WND 30045/0100 WSHFT 0058 SLP124 T00221056"
"107354","LBB","2012-12-20 02:53:00",-101.8228,33.6636,33.98,15.08,45.43,350,26,0,29.99,1014.9,3,36,"CLR",NA,NA,NA,NA,NA,NA,NA,"BLDU",NA,NA,NA,39,340,"2012-12-20 02:16",20.26,"KLBB 200253Z 35026G36KT 3SM BLDU CLR 01/M09 A2999 RMK AO2 PK WND 34039/0216 SLP149 T00111094 53077"
"107355","LBB","2012-12-20 03:53:00",-101.8228,33.6636,32,14,46.92,340,25,0,30.05,1016.8,6,37,"CLR",NA,NA,NA,NA,NA,NA,NA,"BLDU",NA,NA,NA,41,330,"2012-12-20 03:10",17.81,"KLBB 200353Z 34025G37KT 6SM BLDU CLR 00/M10 A3005 RMK AO2 PK WND 33041/0310 SLP168 T00001100"
"107442","LBB","2012-12-23 18:24:00",-101.8228,33.6636,64.4,10.4,11.86,300,23,0,29.92,NA,2.5,31,"SCT","BKN",NA,NA,26000,30000,NA,NA,"BLDU",NA,NA,NA,31,290,"2012-12-23 18:17",64.4,"KLBB 231824Z 30023G31KT 2 1/2SM BLDU SCT260 BKN300 18/M12 A2992 RMK AO2 PK WND 29031/1817 SKY PTLY OBSCD"
"107443","LBB","2012-12-23 18:34:00",-101.8228,33.6636,64.4,10.4,11.86,290,24,0,29.92,NA,3,30,"SCT","BKN",NA,NA,26000,30000,NA,NA,"BLDU",NA,NA,NA,31,290,"2012-12-23 18:17",64.4,"KLBB 231834Z 29024G30KT 3SM BLDU SCT260 BKN300 18/M12 A2992 RMK AO2 PK WND 29031/1817 SKY PTLY OBSCD"
"107444","LBB","2012-12-23 18:53:00",-101.8228,33.6636,64.94,10.94,11.92,290,22,0,29.9,1010.3,3,30,"SCT","BKN",NA,NA,22000,28000,NA,NA,"BLDU",NA,NA,NA,32,290,"2012-12-23 18:39",64.94,"KLBB 231853Z 29022G30KT 3SM BLDU SCT220 BKN280 18/M12 A2990 RMK AO2 PK WND 29032/1839 SLP103 SKY PTLY OBSCD T01831117"
"107445","LBB","2012-12-23 19:12:00",-101.8228,33.6636,64.4,8.6,10.94,290,21,0,29.89,NA,2,30,"SCT","SCT","BKN",NA,1900,25000,30000,NA,"BLDU",NA,NA,NA,32,300,"2012-12-23 18:59",64.4,"KLBB 231912Z 29021G30KT 2SM BLDU SCT019 SCT250 BKN300 18/M13 A2989 RMK AO2 PK WND 30032/1859 SFC VIS 2 1/2 SKY PTLY OBSCD"
"107446","LBB","2012-12-23 19:53:00",-101.8228,33.6636,66.92,8.06,9.78,290,18,0,29.88,1009.7,2,28,"SCT","SCT","SCT",NA,1900,25000,30000,NA,"BLDU",NA,NA,NA,33,290,"2012-12-23 19:33",66.92,"KLBB 231953Z 29018G28KT 2SM BLDU SCT019 SCT250 SCT300 19/M13 A2988 RMK AO2 PK WND 29033/1933 SFC VIS 2 1/2 SLP097 SKY PTLY OBSCD T01941133"
"107447","LBB","2012-12-23 20:53:00",-101.8228,33.6636,69.08,3.92,7.52,280,20,0,29.86,1009,4,30,"FEW",NA,NA,NA,28000,NA,NA,NA,"BLDU",NA,NA,NA,33,280,"2012-12-23 20:37",69.08,"KLBB 232053Z 28020G30KT 4SM BLDU FEW280 21/M16 A2986 RMK AO2 PK WND 28033/2037 SLP090 T02061156 56026"
"107448","LBB","2012-12-23 21:53:00",-101.8228,33.6636,66.92,3.92,8.1,290,24,0,29.87,1009.4,4,32,"FEW","SCT",NA,NA,3200,28000,NA,NA,"BLDU",NA,NA,NA,34,280,"2012-12-23 21:09",66.92,"KLBB 232153Z 29024G32KT 4SM BLDU FEW032 SCT280 19/M16 A2987 RMK AO2 PK WND 28034/2109 SLP094 BLDU FEW032 T01941156"
"107449","LBB","2012-12-23 22:53:00",-101.8228,33.6636,66.02,3.92,8.36,290,18,0,29.87,1009.5,3,NA,"FEW",NA,NA,NA,28000,NA,NA,NA,"BLDU",NA,NA,NA,32,290,"2012-12-23 21:56",66.02,"KLBB 232253Z 29018KT 3SM BLDU FEW280 19/M16 A2987 RMK AO2 PK WND 29032/2156 TWR VIS 4 SLP095 T01891156"
"107450","LBB","2012-12-23 23:53:00",-101.8228,33.6636,60.98,-2.02,7.56,290,17,0,29.89,1010.5,5,NA,"CLR",NA,NA,NA,NA,NA,NA,NA,"BLDU",NA,NA,NA,NA,NA,NA,60.98,"KLBB 232353Z 29017KT 5SM BLDU CLR 16/M19 A2989 RMK AO2 SLP105 T01611189 10206 20144 53008"
"107494","LBB","2012-12-25 15:53:00",-101.8228,33.6636,19.94,12.02,70.89,360,22,1e-04,29.96,1015.8,5,34,"SCT","BKN",NA,NA,1300,6000,NA,NA,"BLDU",NA,NA,NA,34,360,"2012-12-25 15:46",2.43,"KLBB 251553Z 36022G34KT 5SM BLDU SCT013 BKN060 M07/M11 A2996 RMK AO2 PK WND 36034/1546 SLP158 P0000 T10671111"
"107495","LBB","2012-12-25 16:37:00",-101.8228,33.6636,19.4,12.2,73.13,360,17,0,30.01,NA,5,31,"SCT","OVC",NA,NA,1500,2600,NA,NA,"BLDU",NA,NA,NA,33,360,"2012-12-25 15:57",3.57,"KLBB 251637Z 36017G31KT 5SM BLDU SCT015 OVC026 M07/M11 A3001 RMK AO2 PK WND 36033/1557"
"108379","LBB","2013-01-27 18:53:00",-101.8228,33.6636,73.04,35.96,25.8,260,29,0,29.89,1008.7,4,37,"FEW","SCT",NA,NA,2700,10000,NA,NA,"BLDU",NA,NA,NA,NA,NA,NA,71.26,"KLBB 271853Z 26029G37KT 4SM BLDU FEW027 SCT100 23/02 A2989 RMK AO2 PK WND 25037/1851 SLP087 BLDU FEW027 SKY PTLY OBSCD T02280022"
"108430","LBB","2013-01-29 21:53:00",-101.8228,33.6636,50,14,23.37,240,31,0,29.59,1000.3,5,38,"BKN","OVC",NA,NA,9000,11000,NA,NA,"BLDU",NA,NA,NA,38,230,"2013-01-29 21:52",41.32,"KLBB 292153Z 24031G38KT 5SM BLDU BKN090 OVC110 10/M10 A2959 RMK AO2 PK WND 23038/2152 SLP003 VIRGA OHD AND ALQDS VCSH BLDU SE-SW-NW T01001100"
"108660","LBB","2013-02-07 15:53:00",-101.8228,33.6636,51.98,26.06,36.31,360,22,0,30.03,1014.4,6,31,"CLR",NA,NA,NA,NA,NA,NA,NA,"BLDU",NA,NA,NA,33,360,"2013-02-07 15:37",51.98,"KLBB 071553Z 36022G31KT 6SM BLDU CLR 11/M03 A3003 RMK AO2 PK WND 36033/1537 SLP144 SKY PRTLY OBSCD T01111033"
"108661","LBB","2013-02-07 16:53:00",-101.8228,33.6636,55.94,26.06,31.41,360,24,0,30.05,1015.1,6,34,"CLR",NA,NA,NA,NA,NA,NA,NA,"BLDU",NA,NA,NA,34,360,"2013-02-07 16:44",55.94,"KLBB 071653Z 36024G34KT 6SM BLDU CLR 13/M03 A3005 RMK AO2 PK WND 36034/1644 SLP151 SKY PTLY OBSCD T01331033"
"108718","LBB","2013-02-10 01:53:00",-101.8228,33.6636,62.96,12.92,13.95,250,15,0,29.66,1002.1,5,NA,"BKN",NA,NA,NA,6000,NA,NA,NA,"BLDU",NA,NA,NA,30,230,"2013-02-10 01:32",62.96,"KLBB 100153Z 25015KT 5SM BLDU BKN060 17/M11 A2966 RMK AO2 PK WND 23030/0132 SLP021 T01721106"
"108719","LBB","2013-02-10 02:16:00",-101.8228,33.6636,57.2,17.6,20.99,310,24,0,29.69,NA,2,33,"BKN",NA,NA,NA,5000,NA,NA,NA,"BLDU",NA,NA,NA,33,310,"2013-02-10 02:12",57.2,"KLBB 100216Z 31024G33KT 2SM BLDU BKN050 14/M08 A2969 RMK AO2 PK WND 31033/0212 PRESRR"
"108720","LBB","2013-02-10 02:24:00",-101.8228,33.6636,53.6,21.2,27.91,310,22,0,29.71,NA,2.5,29,"BKN",NA,NA,NA,5000,NA,NA,NA,"BLDU",NA,NA,NA,33,310,"2013-02-10 02:12",53.6,"KLBB 100224Z 31022G29KT 2 1/2SM BLDU BKN050 12/M06 A2971 RMK AO2 PK WND 31033/0212 WSHFT 0204 PRESRR"
"108721","LBB","2013-02-10 02:35:00",-101.8228,33.6636,53.6,21.2,27.91,300,16,0,29.72,NA,4,25,"BKN",NA,NA,NA,5000,NA,NA,NA,"BLDU",NA,NA,NA,33,310,"2013-02-10 02:12",53.6,"KLBB 100235Z 30016G25KT 4SM BLDU BKN050 12/M06 A2972 RMK AO2 PK WND 31033/0212 WSHFT 0204"
"108722","LBB","2013-02-10 02:53:00",-101.8228,33.6636,51.08,21.92,31.57,320,19,0,29.73,1005.4,5,NA,"BKN",NA,NA,NA,5000,NA,NA,NA,"BLDU",NA,NA,NA,33,310,"2013-02-10 02:12",51.08,"KLBB 100253Z 32019KT 5SM BLDU BKN050 11/M06 A2973 RMK AO2 PK WND 31033/0212 WSHFT 0204 SLP054 T01061056 53052"
"109512","LBB","2013-03-09 17:53:00",-101.8228,33.6636,60.08,19.94,20.93,250,31,0,29.77,1004.8,6,40,"SCT","BKN",NA,NA,7000,9000,NA,NA,"BLDU",NA,NA,NA,40,250,"2013-03-09 17:48",60.08,"KLBB 091753Z 25031G40KT 6SM BLDU SCT070 BKN090 16/M07 A2977 RMK AO2 PK WND 25040/1748 SLP048 SKY PTLY OBSCD T01561067 10161 20122 58011"
"109710","LBB","2013-03-17 23:14:00",-101.8228,33.6636,73.4,24.8,16.2,300,37,0,29.62,NA,0.25,48,"BKN","OVC",NA,NA,12000,14000,NA,NA,"HZ BLDU SQ",NA,NA,NA,NA,NA,NA,71.2,"KLBB 172314Z 30037G48KT 1/4SM R17R/3000VP6000FT HZ BLDU SQ BKN120 OVC140 23/M04 A2962 RMK AO2 PK WND 31048/2314 SFC VIS 3 VIS SW-NW-N 1 $"
"109711","LBB","2013-03-17 23:20:00",-101.8228,33.6636,71.6,28.4,19.98,310,36,0,29.64,NA,0.5,48,"SCT","SCT","BKN",NA,2100,9000,12000,NA,"HZ BLDU SQ",NA,NA,NA,NA,NA,NA,69.4,"KLBB 172320Z 31036G48KT 1/2SM R17R/3000VP6000FT HZ BLDU SQ SCT021 SCT090 BKN120 22/M02 A2964 RMK AO2 PK WND 31048/2314 WSHFT 2301 TWR VIS 1 VIS SW-NW-N 1 $"
"109712","LBB","2013-03-17 23:32:00",-101.8228,33.6636,71.6,26.6,18.55,310,25,0,29.66,NA,2,40,"SCT","SCT","OVC",NA,3000,8000,10000,NA,"BLDU",NA,NA,NA,NA,NA,NA,69.33,"KLBB 172332Z 31025G40KT 2SM BLDU SCT030 SCT080 OVC100 22/M03 A2966 RMK AO2 PK WND 31048/2314 WSHFT 2301 SFC VIS 3 PRESRR $"
"109713","LBB","2013-03-17 23:44:00",-101.8228,33.6636,71.6,28.4,19.98,310,22,0,29.68,NA,3,31,"SCT","BKN","OVC",NA,3200,9000,10000,NA,"BLDU",NA,NA,NA,NA,NA,NA,69.4,"KLBB 172344Z 31022G31KT 3SM BLDU SCT032 BKN090 OVC100 22/M02 A2968 RMK AO2 PK WND 31048/2314 WSHFT 2301 SFC VIS 3 $"
"109714","LBB","2013-03-17 23:53:00",-101.8228,33.6636,71.06,26.96,19.18,310,27,0,29.67,1002,3,32,"SCT","BKN","OVC",NA,3700,9000,10000,NA,"BLDU",NA,NA,NA,NA,NA,NA,68.77,"KLBB 172353Z 31027G32KT 3SM BLDU SCT037 BKN090 OVC100 22/M03 A2967 RMK AO2 PK WND 31048/2314 WSHFT 2301 SLP020 T02171028 10244 20150 55004 $"
"109806","LBB","2013-03-21 19:53:00",-101.8228,33.6636,78.98,28.04,15.39,290,19,0,29.55,996.5,7,31,"FEW","SCT","BKN","BKN",3400,19000,26000,30000,"BLDU",NA,NA,NA,36,270,"2013-03-21 19:31",77.3,"KLBB 211953Z 29019G31KT 7SM BLDU FEW034 SCT190 BKN260 BKN300 26/M02 A2955 RMK AO2 PK WND 27036/1931 SLP965 SKY PTLY OBSCD T02611022"
"109807","LBB","2013-03-21 20:53:00",-101.8228,33.6636,80.06,26.06,13.69,270,27,0,29.52,995.3,4,36,"FEW","BKN","BKN",NA,5000,27000,30000,NA,"BLDU",NA,NA,NA,40,260,"2013-03-21 20:23",78.41,"KLBB 212053Z 27027G36KT 4SM BLDU FEW050 BKN270 BKN300 27/M03 A2952 RMK AO2 PK WND 26040/2023 SLP953 SKY PTLY OBSCD T02671033 58031"
"109808","LBB","2013-03-21 21:53:00",-101.8228,33.6636,78.98,23,12.48,280,27,0,29.5,994.9,4,35,"FEW",NA,NA,NA,5000,NA,NA,NA,"BLDU",NA,NA,NA,40,300,"2013-03-21 21:27",77.16,"KLBB 212153Z 28027G35KT 4SM BLDU FEW050 26/M05 A2950 RMK AO2 PK WND 30040/2127 SLP949 SKY PTLY OBSCD T02611050"
"109809","LBB","2013-03-21 22:53:00",-101.8228,33.6636,78.98,19.94,10.96,280,24,0,29.5,995,4,34,"SCT","OVC",NA,NA,27000,30000,NA,NA,"BLDU",NA,NA,NA,36,290,"2013-03-21 22:39",77.09,"KLBB 212253Z 28024G34KT 4SM BLDU SCT270 OVC300 26/M07 A2950 RMK AO2 PK WND 29036/2239 SLP950 SKY PTLY OBSCD T02611067"
"109810","LBB","2013-03-21 23:53:00",-101.8228,33.6636,78.08,17.96,10.38,290,24,0,29.51,995.3,5,31,"BKN","OVC",NA,NA,27000,30000,NA,NA,"BLDU",NA,NA,NA,32,290,"2013-03-21 23:12",76.08,"KLBB 212353Z 29024G31KT 5SM BLDU BKN270 OVC300 26/M08 A2951 RMK AO2 PK WND 29032/2312 SLP953 SKY PTLY OBSCD T02561078 10272 20233 55002"
"109870","LBB","2013-03-23 22:40:00",-101.8228,33.6636,73.4,-14.8,2.63,280,33,0,29.57,NA,2,47,"BKN",NA,NA,NA,14000,NA,NA,NA,"BLDU",NA,NA,NA,47,270,"2013-03-23 22:39",70.56,"KLBB 232240Z 28033G47KT 2SM R17R/5000VP6000FT BLDU BKN140 23/M26 A2957 RMK AO2 PK WND 27047/2239 SKY PTLY OBSCD"
"109871","LBB","2013-03-23 22:53:00",-101.8228,33.6636,71.96,-14.08,2.87,290,26,0,29.58,998.8,2.5,40,"BKN",NA,NA,NA,14000,NA,NA,NA,"BLDU",NA,NA,NA,47,270,"2013-03-23 22:39",68.99,"KLBB 232253Z 29026G40KT 2 1/2SM BLDU BKN140 22/M26 A2958 RMK AO2 PK WND 27047/2239 SLP988 SKY PTLY OBSCD T02221256"
"109872","LBB","2013-03-23 23:33:00",-101.8228,33.6636,69.8,-16.6,2.71,290,35,0,29.6,NA,0.25,46,"BKN",NA,NA,NA,14000,NA,NA,NA,"DS",NA,NA,NA,46,290,"2013-03-23 23:28",69.8,"KLBB 232333Z 29035G46KT 1/4SM R17R/P6000FT DS BKN140 21/M27 A2960 RMK AO2 PK WND 29046/2328 SKY PRTY OBSCD"
"109873","LBB","2013-03-23 23:53:00",-101.8228,33.6636,62.06,-0.04,7.98,330,39,0,29.65,1001.8,0.25,52,"BKN",NA,NA,NA,14000,NA,NA,NA,"DS",NA,NA,NA,52,320,"2013-03-23 23:50",62.06,"KLBB 232353Z 33039G52KT 1/4SM R17R/5000V6000FT DS BKN140 17/M18 A2965 RMK AO2 PK WND 32052/2350 PRESRR SLP018 SKY PRTY OBSCD T01671178 10250 20167 53013"
"109874","LBB","2013-03-24 00:48:00",-101.8228,33.6636,51.8,21.2,29.82,340,32,0,29.78,NA,2,41,"BKN",NA,NA,NA,14000,NA,NA,NA,"BLDU",NA,NA,NA,50,320,"2013-03-24 00:02",51.8,"KLBB 240048Z 34032G41KT 2SM BLDU BKN140 11/M06 A2978 RMK AO2 PK WND 32050/0002 PRESRR SKY PTLY OBSCD"
"109875","LBB","2013-03-24 00:53:00",-101.8228,33.6636,50,21.02,31.63,340,28,0,29.78,1007.3,2,41,"BKN",NA,NA,NA,14000,NA,NA,NA,"BLDU",NA,NA,NA,50,320,"2013-03-24 00:02",41.73,"KLBB 240053Z 34028G41KT 2SM BLDU BKN140 10/M06 A2978 RMK AO2 PK WND 32050/0002 PRESRR SLP073 SKY PTLY OBSCD T01001061"
"109876","LBB","2013-03-24 01:22:00",-101.8228,33.6636,44.6,30.2,56.74,350,33,0,29.82,NA,3,41,"FEW",NA,NA,NA,14000,NA,NA,NA,"BLDU",NA,NA,NA,43,350,"2013-03-24 01:06",33.57,"KLBB 240122Z 35033G41KT 3SM BLDU FEW140 07/M01 A2982 RMK AO2 PK WND 35043/0106"
"109877","LBB","2013-03-24 01:53:00",-101.8228,33.6636,41,30.02,64.68,360,28,0,29.87,1011,3,38,"FEW",NA,NA,NA,14000,NA,NA,NA,"BLDU",NA,NA,NA,43,350,"2013-03-24 01:06",29.43,"KLBB 240153Z 36028G38KT 3SM BLDU FEW140 05/M01 A2987 RMK AO2 PK WND 35043/0106 SFC VIS 8 SLP110 T00501011"
"110303","LBB","2013-04-09 18:26:00",-101.8228,33.6636,73.4,37.4,26.98,360,21,0,29.61,NA,3,34,"OVC",NA,NA,NA,3100,NA,NA,NA,"BLDU",NA,NA,NA,34,10,"2013-04-09 18:17",71.71,"KLBB 091826Z 36021G34KT 3SM BLDU OVC031 23/03 A2961 RMK AO2 PK WND 01034/1817 WSHFT 1806 SKY PTLY OBSCD"
"110304","LBB","2013-04-09 18:53:00",-101.8228,33.6636,71.96,37.94,28.94,10,21,0,29.63,998.8,4,28,"BKN","OVC",NA,NA,2800,3600,NA,NA,"BLDU",NA,NA,NA,34,10,"2013-04-09 18:17",70.22,"KLBB 091853Z 01021G28KT 4SM BLDU BKN028 OVC036 22/03 A2963 RMK AO2 PK WND 01034/1817 WSHFT 1806 SLP988 SKY PTLY OBSCD T02220033"
"110305","LBB","2013-04-09 19:53:00",-101.8228,33.6636,66.02,33.98,30.32,10,22,0,29.64,999.7,4,30,"BKN","OVC",NA,NA,2600,3600,NA,NA,"BLDU",NA,NA,NA,NA,NA,NA,66.02,"KLBB 091953Z 01022G30KT 4SM BLDU BKN026 OVC036 19/01 A2964 RMK AO2 PK WND 02031/1922 SLP997 SKY PTLY OBSCD T01890011"
"110306","LBB","2013-04-09 20:53:00",-101.8228,33.6636,60.98,30.02,30.85,10,22,0,29.65,1000.4,4,30,"BKN",NA,NA,NA,2500,NA,NA,NA,"BLDU",NA,NA,NA,NA,NA,NA,60.98,"KLBB 092053Z 01022G30KT 4SM BLDU BKN025 16/M01 A2965 RMK AO2 PK WND 35032/2039 SLP004 BLDU BKN025 SKY MOSTLY OBSCD T01611011 51015"
"110307","LBB","2013-04-09 21:44:00",-101.8228,33.6636,57.2,28.4,33.05,350,24,0,29.68,NA,4,32,"CLR",NA,NA,NA,NA,NA,NA,NA,"BLDU",NA,NA,NA,NA,NA,NA,57.2,"KLBB 092144Z 35024G32KT 4SM BLDU CLR 14/M02 A2968 RMK AO2 PK WND 36032/2144 SKY MOSTLY OBSCD"
"110308","LBB","2013-04-09 21:53:00",-101.8228,33.6636,55.04,28.04,35.22,360,27,0,29.68,1001.9,4,35,"CLR",NA,NA,NA,NA,NA,NA,NA,"BLDU",NA,NA,NA,NA,NA,NA,55.04,"KLBB 092153Z 36027G35KT 4SM BLDU CLR 13/M02 A2968 RMK AO2 PK WND 01035/2153 SLP019 VIS LWR NE SKY MOSTLY OBSCD T01281022"
"110309","LBB","2013-04-09 22:53:00",-101.8228,33.6636,48.02,24.98,40.22,10,27,0,29.72,1003.6,4,35,"FEW",NA,NA,NA,3000,NA,NA,NA,"BLDU",NA,NA,NA,NA,NA,NA,39.18,"KLBB 092253Z 01027G35KT 4SM BLDU FEW030 09/M04 A2972 RMK AO2 PK WND 35035/2247 SLP036 SKY MOSTLY OBSCD T00891039"
"110310","LBB","2013-04-09 23:53:00",-101.8228,33.6636,44.96,24.98,45.15,10,25,0,29.72,1003.9,6,32,"FEW","SCT",NA,NA,3200,20000,NA,NA,"BLDU",NA,NA,NA,NA,NA,NA,35.36,"KLBB 092353Z 01025G32KT 6SM BLDU FEW032 SCT200 07/M04 A2972 RMK AO2 PK WND 01036/2301 SLP039 SKY PTLY OBSCD T00721039 10272 20072 51022"
"110316","LBB","2013-04-10 04:53:00",-101.8228,33.6636,33.98,15.08,45.43,10,17,1e-04,29.9,1009.9,6,29,"FEW","OVC",NA,NA,1900,9500,NA,NA,"BLDU",NA,NA,NA,NA,NA,NA,22.67,"KLBB 100453Z 01017G29KT 6SM BLDU FEW019 OVC095 01/M09 A2990 RMK AO2 PK WND 01033/0442 SNB19E40 SLP099 BLDU LYR FEW019 SKY PTLY OBSCD P0000 T00111094"
"110506","LBB","2013-04-17 15:53:00",-101.8228,33.6636,75.92,57.92,53.65,190,20,0,29.73,1002.5,6,27,"FEW","SCT",NA,NA,1500,10000,NA,NA,"BLDU",NA,NA,NA,NA,NA,NA,75.92,"KLBB 171553Z 19020G27KT 6SM BLDU FEW015 SCT100 24/14 A2973 RMK AO2 PK WND 19028/1530 SLP025 LGT BLDU ALQDS T02440144"
"110519","LBB","2013-04-18 03:14:00",-101.8228,33.6636,51.8,44.6,76.34,360,26,0,29.69,NA,5,42,"FEW","BKN",NA,NA,1700,30000,NA,NA,"HZ BLDU",NA,NA,NA,NA,NA,NA,51.8,"KLBB 180314Z 36026G42KT 5SM HZ BLDU FEW017 BKN300 11/07 A2969 RMK AO2 PK WND 34042/0311 WSHFT 0242 PRESRR FROPA LOW CLOUDS FORMING RAPIDLY $"
"110521","LBB","2013-04-18 03:44:00",-101.8228,33.6636,48.2,41,76.01,350,32,0,29.74,NA,6,40,"OVC",NA,NA,NA,1200,NA,NA,NA,"BLDU",NA,NA,NA,42,340,"2013-04-18 03:11",38.7,"KLBB 180344Z 35032G40KT 6SM BLDU OVC012 09/05 A2974 RMK AO2 PK WND 34042/0311 WSHFT 0242 PRESRR FROPA $"
"110522","LBB","2013-04-18 03:53:00",-101.8228,33.6636,46.04,39.92,79.07,350,30,0,29.75,1004.2,5,42,"FEW","OVC",NA,NA,1000,1200,NA,NA,"BLDU",NA,NA,NA,NA,NA,NA,36.01,"KLBB 180353Z 35030G42KT 5SM BLDU FEW010 OVC012 08/04 A2975 RMK AO2 PK WND 35042/0349 WSHFT 0242 SLP042 FROPA BINOVC T00780044 $"
"110651","LBB","2013-04-23 05:09:00",-101.8228,33.6636,57.2,39.2,50.91,10,24,0,29.82,NA,3,37,"FEW",NA,NA,NA,25000,NA,NA,NA,"BLDU",NA,NA,NA,37,360,"2013-04-23 05:09",57.2,"KLBB 230509Z 01024G37KT 3SM BLDU FEW250 14/04 A2982 RMK AO2 PK WND 36037/0509 WSHFT 0453 FROPA"
"110652","LBB","2013-04-23 05:53:00",-101.8228,33.6636,46.94,37.04,68.28,10,25,0,29.9,1008.9,6,36,"CLR",NA,NA,NA,NA,NA,NA,NA,"BLDU",NA,NA,NA,37,20,"2013-04-23 05:43",38.04,"KLBB 230553Z 01025G36KT 6SM BLDU CLR 08/03 A2990 RMK AO2 PK WND 02037/0543 WSHFT 0453 SLP089 FROPA SKY PRTLY OBSCD T00830028 10311 20083 403330083 53045"
"110852","LBB","2013-04-30 22:53:00",-101.8228,33.6636,87.08,26.06,10.91,200,18,0,29.64,998.6,6,28,"FEW","SCT","BKN","BKN",10000,14000,18000,30000,"TS BLDU",NA,NA,NA,42,300,"2013-04-30 21:54",83.13,"KLBB 302253Z 20018G28KT 6SM TS BLDU FEW100CB SCT140 BKN180 BKN300 31/M03 A2964 RMK AO2 PK WND 30042/2154 TSB16 SLP986 VIRGA E-S-W OCNL LTGIC E-S TS E-S MOV E SLO T03061033"
"110871","LBB","2013-05-01 15:53:00",-101.8228,33.6636,66.02,35.06,31.66,350,21,0,29.93,1008.6,3,30,"OVC",NA,NA,NA,1600,NA,NA,NA,"BLDU",NA,NA,NA,32,350,"2013-05-01 15:15",66.02,"KLBB 011553Z 35021G30KT 3SM BLDU OVC016 19/02 A2993 RMK AO2 PK WND 35032/1515 SLP086 T01890017"
"110872","LBB","2013-05-01 16:53:00",-101.8228,33.6636,69.08,39.02,33.3,10,21,0,29.95,1009.4,6,31,"OVC",NA,NA,NA,2000,NA,NA,NA,"BLDU",NA,NA,NA,33,350,"2013-05-01 16:35",69.08,"KLBB 011653Z 01021G31KT 6SM BLDU OVC020 21/04 A2995 RMK AO2 PK WND 35033/1635 SLP094 T02060039"
"110873","LBB","2013-05-01 17:53:00",-101.8228,33.6636,69.98,42.08,36.36,20,25,0,29.96,1009.6,6,32,"OVC",NA,NA,NA,2000,NA,NA,NA,"BLDU",NA,NA,NA,32,20,"2013-05-01 17:53",69.98,"KLBB 011753Z 02025G32KT 6SM BLDU OVC020 21/06 A2996 RMK AO2 PK WND 02032/1753 SLP096 T02110056 10222 20178 51025"
"110874","LBB","2013-05-01 18:53:00",-101.8228,33.6636,71.06,42.98,36.28,10,19,0,29.97,1010.3,10,29,"CLR",NA,NA,NA,NA,NA,NA,NA,"BLDU",NA,NA,NA,36,20,"2013-05-01 17:59",69.57,"KLBB 011853Z 01019G29KT 10SM BLDU CLR 22/06 A2997 RMK AO2 PK WND 02036/1759 SLP103 T02170061"
"110875","LBB","2013-05-01 19:00:00",-101.8228,33.6636,71.6,42.8,35.37,10,20,0,29.97,NA,10,29,"OVC",NA,NA,NA,1900,NA,NA,NA,"BLDU",NA,NA,NA,29,10,"2013-05-01 18:57",70.12,"KLBB 011900Z 01020G29KT 10SM BLDU OVC019 22/06 A2997 RMK AO2 PK WND 01029/1857"
"110876","LBB","2013-05-01 19:07:00",-101.8228,33.6636,69.8,42.8,37.61,10,22,0,29.98,NA,10,30,"CLR",NA,NA,NA,NA,NA,NA,NA,"BLDU",NA,NA,NA,30,20,"2013-05-01 19:07",69.8,"KLBB 011907Z 01022G30KT 10SM BLDU CLR 21/06 A2998 RMK AO2 PK WND 02030/1907"
"110877","LBB","2013-05-01 19:53:00",-101.8228,33.6636,71.06,44.06,37.81,10,23,0,29.98,1010.6,8,28,"CLR",NA,NA,NA,NA,NA,NA,NA,"BLDU",NA,NA,NA,32,20,"2013-05-01 19:25",69.64,"KLBB 011953Z 01023G28KT 8SM BLDU CLR 22/07 A2998 RMK AO2 PK WND 02032/1925 SLP106 T02170067"
"110878","LBB","2013-05-01 20:53:00",-101.8228,33.6636,69.98,44.06,39.22,10,22,0,30,1011.2,8,30,"CLR",NA,NA,NA,NA,NA,NA,NA,"BLDU",NA,NA,NA,30,20,"2013-05-01 20:47",69.98,"KLBB 012053Z 01022G30KT 8SM BLDU CLR 21/07 A3000 RMK AO2 PK WND 02030/2047 SLP112 T02110067 51012"
"110879","LBB","2013-05-01 21:00:00",-101.8228,33.6636,69.8,44.6,40.29,10,23,0,30,NA,10,29,"BKN",NA,NA,NA,1300,NA,NA,NA,"BLDU",NA,NA,NA,NA,NA,NA,69.8,"KLBB 012100Z 01023G29KT 10SM BLDU BKN013 21/07 A3000"
"110880","LBB","2013-05-01 21:10:00",-101.8228,33.6636,69.8,44.6,40.29,10,22,0,30,NA,10,29,"CLR",NA,NA,NA,NA,NA,NA,NA,"BLDU",NA,NA,NA,29,10,"2013-05-01 21:06",69.8,"KLBB 012110Z 01022G29KT 10SM BLDU CLR 21/07 A3000 RMK AO2 PK WND 01029/2106"
"110881","LBB","2013-05-01 21:53:00",-101.8228,33.6636,68,44.06,41.98,20,20,0,29.99,1011.1,10,29,"CLR",NA,NA,NA,NA,NA,NA,NA,"BLDU",NA,NA,NA,31,10,"2013-05-01 21:43",68,"KLBB 012153Z 02020G29KT 10SM BLDU CLR 20/07 A2999 RMK AO2 PK WND 01031/2143 SLP111 T02000067"
"110882","LBB","2013-05-01 22:53:00",-101.8228,33.6636,64.94,42.08,43.26,20,24,0,30,1011.9,6,29,"CLR",NA,NA,NA,NA,NA,NA,NA,"BLDU",NA,NA,NA,30,20,"2013-05-01 22:09",64.94,"KLBB 012253Z 02024G29KT 6SM BLDU CLR 18/06 A3000 RMK AO2 PK WND 02030/2209 SLP119 T01830056"
"110883","LBB","2013-05-01 23:13:00",-101.8228,33.6636,64.4,42.8,45.32,30,20,0,30.01,NA,10,28,"FEW",NA,NA,NA,700,NA,NA,NA,"BLDU",NA,NA,NA,29,30,"2013-05-01 23:03",64.4,"KLBB 012313Z 03020G28KT 10SM BLDU FEW007 18/06 A3001 RMK AO2 PK WND 03029/2303"
"110884","LBB","2013-05-01 23:53:00",-101.8228,33.6636,60.98,41,47.7,20,20,0,30.02,1013.1,10,29,"CLR",NA,NA,NA,NA,NA,NA,NA,"BLDU",NA,NA,NA,30,30,"2013-05-01 23:38",60.98,"KLBB 012353Z 02020G29KT 10SM BLDU CLR 16/05 A3002 RMK AO2 PK WND 03030/2338 SLP131 T01610050 10222 20161 53008"
"110885","LBB","2013-05-02 00:53:00",-101.8228,33.6636,53.06,39.02,58.77,10,19,0,30.04,1014.4,10,28,"CLR",NA,NA,NA,NA,NA,NA,NA,"BLDU",NA,NA,NA,30,30,"2013-05-02 00:20",53.06,"KLBB 020053Z 01019G28KT 10SM BLDU CLR 12/04 A3004 RMK AO2 PK WND 03030/0020 SLP144 T01170039"
"110886","LBB","2013-05-02 01:53:00",-101.8228,33.6636,48.02,37.94,67.92,20,25,0,30.08,1015.5,7,34,"CLR",NA,NA,NA,NA,NA,NA,NA,"BLDU",NA,NA,NA,34,20,"2013-05-02 01:53",39.5,"KLBB 020153Z 02025G34KT 7SM BLDU CLR 09/03 A3008 RMK AO2 PK WND 02034/0153 SLP155 T00890033"
"110887","LBB","2013-05-02 02:45:00",-101.8228,33.6636,44.6,35.6,70.48,10,24,0,30.12,NA,10,33,"BKN",NA,NA,NA,1800,NA,NA,NA,"BLDU",NA,NA,NA,36,10,"2013-05-02 02:18",35.06,"KLBB 020245Z 01024G33KT 10SM BLDU BKN018 07/02 A3012 RMK AO2 PK WND 01036/0218"
"110888","LBB","2013-05-02 02:53:00",-101.8228,33.6636,44.96,35.96,70.52,10,24,0,30.12,1017.7,10,35,"BKN",NA,NA,NA,1800,NA,NA,NA,"BLDU",NA,NA,NA,36,10,"2013-05-02 02:18",35.54,"KLBB 020253Z 01024G35KT 10SM BLDU BKN018 07/02 A3012 RMK AO2 PK WND 01036/0218 SLP177 T00720022 53032"
"110889","LBB","2013-05-02 03:53:00",-101.8228,33.6636,42.98,35.06,73.39,10,28,0,30.18,1019.8,10,37,"OVC",NA,NA,NA,1600,NA,NA,NA,"BLDU",NA,NA,NA,39,10,"2013-05-02 03:12",32.13,"KLBB 020353Z 01028G37KT 10SM BLDU OVC016 06/02 A3018 RMK AO2 PK WND 01039/0312 SLP198 T00610017"
"110890","LBB","2013-05-02 04:53:00",-101.8228,33.6636,42.08,33.08,70.2,10,28,0,30.22,1020.9,10,37,"OVC",NA,NA,NA,1800,NA,NA,NA,"BLDU",NA,NA,NA,39,20,"2013-05-02 04:33",30.9,"KLBB 020453Z 01028G37KT 10SM BLDU OVC018 06/01 A3022 RMK AO2 PK WND 02039/0433 SLP209 T00560006"
"110891","LBB","2013-05-02 05:53:00",-101.8228,33.6636,39.02,32,75.69,20,29,0,30.26,1022.4,7,39,"OVC",NA,NA,NA,1800,NA,NA,NA,"BLDU",NA,NA,NA,44,20,"2013-05-02 05:35",26.53,"KLBB 020553Z 02029G39KT 7SM BLDU OVC018 04/00 A3026 RMK AO2 PK WND 02044/0535 SLP224 T00390000 10161 20039 402500039 51042"
"110892","LBB","2013-05-02 06:44:00",-101.8228,33.6636,37.4,32,80.65,10,31,0,30.27,NA,9,40,"OVC",NA,NA,NA,1400,NA,NA,NA,"BLDU",NA,NA,NA,42,20,"2013-05-02 06:17",23.94,"KLBB 020644Z 01031G40KT 9SM BLDU OVC014 03/00 A3027 RMK AO2 PK WND 02042/0617"
"110893","LBB","2013-05-02 06:53:00",-101.8228,33.6636,37.94,32,78.96,10,26,0,30.29,1023.5,9,44,"OVC",NA,NA,NA,1400,NA,NA,NA,"BLDU",NA,NA,NA,44,10,"2013-05-02 06:45",25.64,"KLBB 020653Z 01026G44KT 9SM BLDU OVC014 03/00 A3029 RMK AO2 PK WND 01044/0645 SLP235 T00330000"
"110894","LBB","2013-05-02 07:11:00",-101.8228,33.6636,37.4,30.2,74.98,10,26,0,30.29,NA,10,39,"OVC",NA,NA,NA,1600,NA,NA,NA,"BLDU",NA,NA,NA,40,10,"2013-05-02 07:01",24.91,"KLBB 020711Z 01026G39KT 10SM BLDU OVC016 03/M01 A3029 RMK AO2 PK WND 01040/0701"
"110895","LBB","2013-05-02 07:48:00",-101.8228,33.6636,37.4,28.4,69.67,20,24,0,30.28,NA,10,36,"FEW","OVC",NA,NA,1600,3000,NA,NA,"BLDU",NA,NA,NA,40,10,"2013-05-02 07:24",25.34,"KLBB 020748Z 02024G36KT 10SM BLDU FEW016 OVC030 03/M02 A3028 RMK AO2 PK WND 01040/0724"
"110896","LBB","2013-05-02 07:53:00",-101.8228,33.6636,37.94,28.94,69.73,10,32,0,30.28,1023.3,10,40,"FEW","OVC",NA,NA,1800,3000,NA,NA,"BLDU",NA,NA,NA,40,10,"2013-05-02 07:52",24.51,"KLBB 020753Z 01032G40KT 10SM BLDU FEW018 OVC030 03/M02 A3028 RMK AO2 PK WND 01040/0752 SLP233 T00331017"
"110897","LBB","2013-05-02 08:18:00",-101.8228,33.6636,37.4,30.2,74.98,10,24,0,30.28,NA,9,43,"BKN","OVC",NA,NA,1600,3000,NA,NA,"BLDU",NA,NA,NA,43,20,"2013-05-02 08:11",25.34,"KLBB 020818Z 01024G43KT 9SM BLDU BKN016 OVC030 03/M01 A3028 RMK AO2 PK WND 02043/0811"
"110898","LBB","2013-05-02 08:53:00",-101.8228,33.6636,35.96,30.92,81.72,10,24,0,30.33,1025.1,10,35,"OVC",NA,NA,NA,1600,NA,NA,NA,"BLDU",NA,NA,NA,44,10,"2013-05-02 08:22",23.4,"KLBB 020853Z 01024G35KT 10SM BLDU OVC016 02/M01 A3033 RMK AO2 PK WND 01044/0822 SLP251 T00221006 53012"
"110899","LBB","2013-05-02 09:53:00",-101.8228,33.6636,35.96,30.92,81.72,10,22,1e-04,30.32,1025.2,10,34,"SCT","OVC",NA,NA,1600,3700,NA,NA,"-RA BLDU",NA,NA,NA,34,10,"2013-05-02 09:51",23.88,"KLBB 020953Z AUTO 01022G34KT 10SM -RA BLDU SCT016 OVC037 02/M01 A3032 RMK AO2 PK WND 01034/0951 RAB02E14B38 SLP252 P0000 T00221006 TSNO"
"110900","LBB","2013-05-02 10:49:00",-101.8228,33.6636,35.6,30.2,80.51,360,20,1e-04,30.35,NA,10,35,"BKN","OVC",NA,NA,1600,4100,NA,NA,"BLDU",NA,NA,NA,36,20,"2013-05-02 10:31",23.92,"KLBB 021049Z AUTO 36020G35KT 10SM BLDU BKN016 OVC041 02/M01 A3035 RMK AO2 PK WND 02036/1031 RAE0955 P0000 TSNO"
"110901","LBB","2013-05-02 10:53:00",-101.8228,33.6636,35.96,30.02,78.79,360,24,1e-04,30.35,1026,10,35,"BKN","OVC",NA,NA,1600,4100,NA,NA,"BLDU",NA,NA,NA,36,20,"2013-05-02 10:31",23.4,"KLBB 021053Z AUTO 36024G35KT 10SM BLDU BKN016 OVC041 02/M01 A3035 RMK AO2 PK WND 02036/1031 RAE0955 SLP260 P0000 T00221011 TSNO"
"110902","LBB","2013-05-02 11:53:00",-101.8228,33.6636,35.96,28.94,75.39,10,26,0,30.39,1027.7,10,36,"OVC",NA,NA,NA,1600,NA,NA,NA,"BLDU",NA,NA,NA,36,10,"2013-05-02 11:48",22.95,"KLBB 021153Z AUTO 01026G36KT 10SM BLDU OVC016 02/M02 A3039 RMK AO2 PK WND 01036/1148 SLP277 60000 T00221017 10033 20022 53019 TSNO"
"110903","LBB","2013-05-02 12:53:00",-101.8228,33.6636,35.96,30.02,78.79,10,27,0,30.42,1029.6,10,37,"OVC",NA,NA,NA,1600,NA,NA,NA,"BLDU",NA,NA,NA,38,10,"2013-05-02 12:34",22.74,"KLBB 021253Z 01027G37KT 10SM BLDU OVC016 02/M01 A3042 RMK AO2 PK WND 01038/1234 PRESRR SLP296 T00221011"
"110904","LBB","2013-05-02 13:53:00",-101.8228,33.6636,37.04,28.04,69.63,10,21,0,30.45,1030.7,10,36,"OVC",NA,NA,NA,1800,NA,NA,NA,"BLDU",NA,NA,NA,39,360,"2013-05-02 13:21",25.58,"KLBB 021353Z AUTO 01021G36KT 10SM BLDU OVC018 03/M02 A3045 RMK AO2 PK WND 36039/1321 SLP307 T00281022 TSNO"
"110905","LBB","2013-05-02 14:53:00",-101.8228,33.6636,37.94,28.04,67.21,10,30,0,30.47,1031.6,10,39,"OVC",NA,NA,NA,2200,NA,NA,NA,"BLDU",NA,NA,NA,39,10,"2013-05-02 14:52",24.86,"KLBB 021453Z AUTO 01030G39KT 10SM BLDU OVC022 03/M02 A3047 RMK AO2 PK WND 01039/1452 SLP316 T00331022 51026 TSNO"
"110906","LBB","2013-05-02 15:53:00",-101.8228,33.6636,39.92,28.04,62.21,360,23,0,30.49,1032.1,10,35,"OVC",NA,NA,NA,2400,NA,NA,NA,"BLDU",NA,NA,NA,40,10,"2013-05-02 15:20",28.96,"KLBB 021553Z AUTO 36023G35KT 10SM BLDU OVC024 04/M02 A3049 RMK AO2 PK WND 01040/1520 SLP321 T00441022 TSNO"
"110907","LBB","2013-05-02 16:53:00",-101.8228,33.6636,42.08,26.96,54.73,20,26,0,30.5,1032.6,10,38,"OVC",NA,NA,NA,2600,NA,NA,NA,"BLDU",NA,NA,NA,38,10,"2013-05-02 16:46",31.27,"KLBB 021653Z AUTO 02026G38KT 10SM BLDU OVC026 06/M03 A3050 RMK AO2 PK WND 01038/1646 SLP326 T00561028 TSNO"
"110908","LBB","2013-05-02 17:53:00",-101.8228,33.6636,41,26.96,57.06,360,28,0,30.51,1033.1,9,34,"OVC",NA,NA,NA,2600,NA,NA,NA,"BLDU",NA,NA,NA,36,20,"2013-05-02 16:58",29.43,"KLBB 021753Z AUTO 36028G34KT 9SM BLDU OVC026 05/M03 A3051 RMK AO2 PK WND 02036/1658 SLP331 T00501028 10056 20022 51011 TSNO"
"111325","LBB","2013-05-18 05:53:00",-101.8228,33.6636,87.08,30.92,13.31,200,18,0,29.84,1003.8,6,24,"SCT","BKN","BKN",NA,17000,19000,30000,NA,"BLDU",NA,NA,NA,NA,NA,NA,83.49,"KLBB 180553Z 20018G24KT 6SM BLDU SCT170 BKN190 BKN300 31/M01 A2984 RMK AO2 SLP038 OCNL LTG DSNT W CB DSNT W MOV N SKY PRTLY OBSCD T03061006 10356 20261 403780128 50002"
"111412","LBB","2013-05-21 13:53:00",-101.8228,33.6636,62.06,39.92,44.02,10,25,0,29.91,1008.2,5,39,"FEW","SCT","BKN",NA,1400,5000,25000,NA,"BLDU",NA,NA,NA,39,10,"2013-05-21 13:49",62.06,"KLBB 211353Z 01025G39KT 5SM BLDU FEW014 SCT050 BKN250 17/04 A2991 RMK AO2 PK WND 01039/1349 SLP082 T01670044"
"111413","LBB","2013-05-21 14:53:00",-101.8228,33.6636,64.04,39.92,41.06,20,31,0,29.93,1009.3,3,40,"FEW","SCT","BKN",NA,1400,5000,25000,NA,"BLDU",NA,NA,NA,42,20,"2013-05-21 14:20",64.04,"KLBB 211453Z 02031G40KT 3SM BLDU FEW014 SCT050 BKN250 18/04 A2993 RMK AO2 PK WND 02042/1420 SLP093 SKY PTLY OBSCD T01780044 51022"
"111469","LBB","2013-05-23 21:41:00",-101.8228,33.6636,91.4,51.8,26.05,70,26,0,29.87,NA,0.12,35,"FEW","SCT",NA,NA,10000,30000,NA,NA,"BLDU",NA,NA,NA,NA,NA,NA,88.69,"KLBB 232141Z 07026G35KT 1/8SM R17R/6000VP6000FT BLDU FEW100TCU SCT300 33/11 A2987 RMK AO2 PK WND 07035/2141 TCU OHD BLDU ALQDS SKY MOSTLY OBSCD $"
"111470","LBB","2013-05-23 21:48:00",-101.8228,33.6636,84.2,55.4,37.35,70,23,0,29.87,NA,NA,35,"FEW","SCT",NA,NA,10000,30000,NA,NA,"BLDU",NA,NA,NA,NA,NA,NA,83.09,"KLBB 232148Z 07023G35KT R17R/6000VP6000FT BLDU FEW100TCU SCT300 29/13 A2987 RMK AO2 PK WND 07035/2141 WSHFT 2132 SFC VIS 2 TCU OHD BLDU ALQDS SKY PTLY OBSCD $"
"111471","LBB","2013-05-23 21:53:00",-101.8228,33.6636,84.92,55.04,36.02,90,23,0,29.87,1006.4,NA,30,"FEW","SCT","SCT",NA,7000,13000,30000,NA,"BLDU",NA,NA,NA,NA,NA,NA,83.58,"KLBB 232153Z 09023G30KT BLDU FEW070TCU SCT130 SCT300 29/13 A2987 RMK AO2 PK WND 07035/2141 WSHFT 2132 SFC VIS 3 SLP064 CB DSNT E MOV S TCU OHD-SE BLDU ALQDS SKY PTLY OBSCD T02940128 $"
"111472","LBB","2013-05-23 21:59:00",-101.8228,33.6636,82.4,55.4,39.58,80,24,0,29.89,NA,3,32,"SCT","SCT","SCT",NA,7000,14000,30000,NA,"BLDU",NA,NA,NA,NA,NA,NA,82.4,"KLBB 232159Z 08024G32KT 3SM BLDU SCT070TCU SCT140 SCT300 28/13 A2989 RMK AO2 PK WND 08032/2159 CB DSNT E MOV S TCU OHD-SE BLDU ALQDS SKY PTLY OBSCD"
"111473","LBB","2013-05-23 22:03:00",-101.8228,33.6636,80.6,55.4,41.97,90,23,0,29.88,NA,0.5,34,"SCT","SCT","SCT",NA,7000,14000,30000,NA,"BLDU",NA,NA,NA,NA,NA,NA,80.53,"KLBB 232203Z 09023G34KT 1/2SM R17R/P6000FT BLDU SCT070TCU SCT140 SCT300 27/13 A2988 RMK AO2 PK WND 09034/2202 SFC VIS 1 CB DSNT E MOV S TCU W-SE BLDU ALQDS SKY MSTLY OBSCD"
"111474","LBB","2013-05-23 22:24:00",-101.8228,33.6636,78.8,53.6,41.69,90,24,0,29.86,NA,1.5,33,"FEW","SCT","BKN",NA,6000,14000,27000,NA,"BLDU",NA,NA,NA,NA,NA,NA,78.8,"KLBB 232224Z 09024G33KT 1 1/2SM BLDU FEW060 SCT140 BKN270 26/12 A2986 RMK AO2 PK WND 09034/2210 SFC VIS 3 TCU DSNT SE AND NW SKY PTLY OBSCD"
"111475","LBB","2013-05-23 22:53:00",-101.8228,33.6636,78.08,51.98,40.23,100,24,0,29.87,1006.4,1,34,"FEW","SCT","BKN",NA,6000,14000,27000,NA,"BLDU",NA,NA,NA,NA,NA,NA,78.08,"KLBB 232253Z 10024G34KT 1SM BLDU FEW060 SCT140 BKN270 26/11 A2987 RMK AO2 PK WND 09037/2241 SFC VIS 3 SLP064 TCU DSNT SE AND NW SKY PTLY OBSCD T02560111"
"111476","LBB","2013-05-23 23:14:00",-101.8228,33.6636,78.8,51.8,39.02,110,31,0,29.89,NA,4,37,"FEW","OVC",NA,NA,25000,27000,NA,NA,"BLDU",NA,NA,NA,NA,NA,NA,78.8,"KLBB 232314Z 11031G37KT 4SM BLDU FEW250 OVC270 26/11 A2989 RMK AO2 PK WND 12037/2314 PRESRR"
"111477","LBB","2013-05-23 23:16:00",-101.8228,33.6636,78.8,53.6,41.69,110,31,0,29.89,NA,1,40,"FEW","OVC",NA,NA,25000,27000,NA,NA,"BLDU",NA,NA,NA,NA,NA,NA,78.8,"KLBB 232316Z 11031G40KT 1SM BLDU FEW250 OVC270 26/12 A2989 RMK AO2 PK WND 11040/2315 SFC VIS 3 PRESRR"
"111478","LBB","2013-05-23 23:45:00",-101.8228,33.6636,75.2,53.6,46.98,110,28,0,29.91,NA,4,36,"FEW","SCT","OVC",NA,14000,25000,27000,NA,"BLDU",NA,NA,NA,NA,NA,NA,75.2,"KLBB 232345Z 11028G36KT 4SM BLDU FEW140 SCT250 OVC270 24/12 A2991 RMK AO2 PK WND 11040/2315"
"111479","LBB","2013-05-23 23:53:00",-101.8228,33.6636,75.02,53.96,47.89,120,28,0,29.91,1008,4,36,"FEW","SCT","OVC",NA,14000,25000,27000,NA,"BLDU",NA,NA,NA,NA,NA,NA,75.02,"KLBB 232353Z 12028G36KT 4SM BLDU FEW140 SCT250 OVC270 24/12 A2991 RMK AO2 PK WND 11040/2315 SLP080 T02390122 10378 20239 53013"
"111480","LBB","2013-05-24 00:53:00",-101.8228,33.6636,73.04,53.06,49.52,130,29,0,29.95,1009.4,4,37,"FEW","SCT","OVC",NA,8000,12000,27000,NA,"BLDU",NA,NA,NA,40,120,"2013-05-24 00:28",73.04,"KLBB 240053Z 13029G37KT 4SM BLDU FEW080TCU SCT120 OVC270 23/12 A2995 RMK AO2 PK WND 12040/0028 SLP094 TCU W-N T02280117"
"111544","LBB","2013-05-26 04:53:00",-101.8228,33.6636,77,44.96,32.05,230,20,0,30.02,1011.3,4,31,"SCT","BKN",NA,NA,3000,18000,NA,NA,"BLDU",NA,NA,NA,31,230,"2013-05-26 04:48",75.91,"KLBB 260453Z 23020G31KT 4SM BLDU SCT030 BKN180 25/07 A3002 RMK AO2 PK WND 23031/0448 TSE52 SLP113 BLDU ALQDS T02500072"
"111546","LBB","2013-05-26 05:53:00",-101.8228,33.6636,80.06,39.92,23.87,200,24,0,29.9,1006.9,1.5,38,"SCT","BKN","OVC",NA,200,15000,22000,NA,"BLDU",NA,NA,NA,38,180,"2013-05-26 05:45",78.89,"KLBB 260553Z 20024G38KT 1 1/2SM BLDU SCT002 BKN150 OVC220 27/04 A2990 RMK AO2 PK WND 18038/0545 SLP069 BLDU SCT002 BLDU ALQDS T02670044 10283 20239 403060183 58045"
"111547","LBB","2013-05-26 05:56:00",-101.8228,33.6636,80.6,39.2,22.81,200,29,0,29.89,NA,3,36,"FEW",NA,NA,NA,200,NA,NA,NA,"BLDU",NA,NA,NA,35,200,"2013-05-26 05:56",79.1,"KLBB 260556Z 20029G36KT 3SM BLDU FEW002 27/04 A2989 RMK AO2 PK WND 20035/0556"
"111613","LBB","2013-05-28 20:53:00",-101.8228,33.6636,80.96,62.96,54.35,180,24,0,29.75,1002.1,6,31,"FEW","SCT","BKN","BKN",5000,14000,27000,30000,"BLDU",NA,NA,NA,36,180,"2013-05-28 20:10",82.24,"KLBB 282053Z 18024G31KT 6SM BLDU FEW050 SCT140 BKN270 BKN300 27/17 A2975 RMK AO2 PK WND 18036/2010 SLP021 ACC N-E-S CB DSNT NW MOV NE SKY PTLY OBSCD T02720172 58016"
"111810","LBB","2013-06-05 13:53:00",-101.8228,33.6636,73.04,62.96,70.68,60,21,0,29.95,1008.3,3,32,"CLR",NA,NA,NA,NA,NA,NA,NA,"BLDU",NA,NA,NA,35,70,"2013-06-05 13:41",73.04,"KLBB 051353Z 06021G32KT 3SM BLDU CLR 23/17 A2995 RMK AO2 PK WND 07035/1341 SLP083 SKY PTLY OBSCD T02280172"
"111811","LBB","2013-06-05 14:53:00",-101.8228,33.6636,73.94,62.06,66.43,60,32,0,29.96,1008.7,4,39,"SCT","SCT","SCT",NA,1800,18000,30000,NA,"BLDU",NA,NA,NA,39,60,"2013-06-05 14:53",73.94,"KLBB 051453Z 06032G39KT 4SM BLDU SCT018 SCT180 SCT300 23/17 A2996 RMK AO2 PK WND 06039/1453 SLP087 SKY PTLY OBSCD T02330167 51035"
"111812","LBB","2013-06-05 15:53:00",-101.8228,33.6636,75.92,60.98,59.84,70,21,0,29.96,1008.9,6,32,"SCT","SCT",NA,NA,18000,28000,NA,NA,"BLDU",NA,NA,NA,36,70,"2013-06-05 14:56",75.92,"KLBB 051553Z 07021G32KT 6SM BLDU SCT180 SCT280 24/16 A2996 RMK AO2 PK WND 07036/1456 SLP089 ASKY PTLY OBSCD T02440161"
"111825","LBB","2013-06-06 03:25:00",-101.8228,33.6636,78.8,59,50.69,60,26,0,29.83,NA,2.5,40,"SCT","OVC",NA,NA,5000,27000,NA,NA,"TS BLDU",NA,NA,NA,NA,NA,NA,78.8,"KLBB 060325Z 06026G40KT 2 1/2SM TS BLDU SCT050CB OVC270 26/15 A2983 RMK AO2 PK WND 06040/0322 TSB14 CONS LTGICCCCA SW-NW-NE TS SW-NW-NE MOV SE"
"111826","LBB","2013-06-06 03:32:00",-101.8228,33.6636,73.4,57.2,56.88,320,44,0,29.98,NA,0.25,57,"BKN","OVC",NA,NA,5000,27000,NA,NA,"TS BLDU SQ",NA,NA,NA,NA,NA,NA,73.4,"KLBB 060332Z 32044G57KT 1/4SM R17R/2600VP6000FT TS BLDU SQ BKN050CB OVC270 23/14 A2998 RMK AO2 PK WND 32057/0330 WSHFT 0317 TSB14 PRESRR CONS LTGICCCCA ALQDS TS ALQDS MOV SE"
"111901","LBB","2013-06-08 05:19:00",-101.8228,33.6636,69.8,51.8,52.77,290,16,0,30.08,NA,2.5,25,"FEW","BKN",NA,NA,1500,11000,NA,NA,"HZ BLDU",NA,NA,NA,NA,NA,NA,69.8,"KLBB 080519Z 29016G25KT 2 1/2SM HZ BLDU FEW015 BKN110 21/11 A3008 RMK AO2 PRESRR OCNL LTG DSNT SW-W CB DSNT SW-W MOV SE"
"111902","LBB","2013-06-08 05:24:00",-101.8228,33.6636,69.8,51.8,52.77,300,19,0,30.08,NA,1,25,"SCT","SCT","BKN",NA,1500,6000,11000,NA,"BLDU",NA,NA,NA,NA,NA,NA,69.8,"KLBB 080524Z 30019G25KT 1SM R17R/P6000FT BLDU SCT015 SCT060 BKN110 21/11 A3008 RMK AO2 TWR VIS 1 1/2 OCNL LTG DSNT SW-W CB DSNT SW-W MOV SE $"
"111903","LBB","2013-06-08 05:29:00",-101.8228,33.6636,68,51.8,56.13,310,22,0,30.08,NA,1.5,32,"SCT","BKN","BKN",NA,1500,6000,11000,NA,"BLDU",NA,NA,NA,32,300,"2013-06-08 05:25",68,"KLBB 080529Z 31022G32KT 1 1/2SM BLDU SCT015 BKN060 BKN110 20/11 A3008 RMK AO2 PK WND 30032/0525 WSHFT 0512 OCNL LTG DSNT SW-W CB DSNT SW-W MOV SE $"
"111904","LBB","2013-06-08 05:35:00",-101.8228,33.6636,66.2,51.8,59.74,300,19,0,30.08,NA,3,29,"SCT","BKN","OVC",NA,1700,5500,11000,NA,"BLDU",NA,NA,NA,32,300,"2013-06-08 05:25",66.2,"KLBB 080535Z 30019G29KT 3SM BLDU SCT017 BKN055 OVC110 19/11 A3008 RMK AO2 PK WND 30032/0525 WSHFT 0512 OCNL LTG DSNT SW-W CB DSNT SW-W MOV SE"
"111905","LBB","2013-06-08 05:39:00",-101.8228,33.6636,66.2,51.8,59.74,300,16,0,30.08,NA,5,NA,"SCT","BKN","OVC",NA,1700,5000,11000,NA,"TS BLDU",NA,NA,NA,32,300,"2013-06-08 05:25",66.2,"KLBB 080539Z 30016KT 5SM TS BLDU SCT017 BKN050 OVC110 19/11 A3008 RMK AO2 PK WND 30032/0525 WSHFT 0512 TSB39 OCNL LTIC SW-W TS SW-W MOV SE"
"112069","LBB","2013-06-14 03:53:00",-101.8228,33.6636,82.04,57.92,43.87,180,27,0,30.05,1011.7,5,32,"SCT","BKN",NA,NA,11000,30000,NA,NA,"BLDU",NA,NA,NA,32,180,"2013-06-14 03:52",81.96,"KLBB 140353Z 18027G32KT 5SM BLDU SCT110 BKN300 28/14 A3005 RMK AO2 PK WND 18032/0352 SLP117 T02780144"
"112227","LBB","2013-06-19 17:53:00",-101.8228,33.6636,73.04,66.92,81.14,70,16,1e-04,30.06,1013.4,5,26,"FEW","SCT","SCT","BKN",3500,8500,18000,25000,"-RA BLDU",NA,NA,NA,27,70,"2013-06-19 17:34",73.04,"KLBB 191753Z 07016G26KT 5SM -RA BLDU FEW035 SCT085 SCT180 BKN250 23/19 A3006 RMK AO2 PK WND 07027/1734 RAB47 SLP134 MDT CU E-SE SKY PTLY OBSCD P0000 60000 T02280194 10278 20194 51016"
"112228","LBB","2013-06-19 18:53:00",-101.8228,33.6636,75.92,62.96,64.17,80,22,0.01,30.04,1012.4,3,28,"FEW","SCT","SCT",NA,8000,17000,25000,NA,"BLDU",NA,NA,NA,NA,NA,NA,75.92,"KLBB 191853Z 08022G28KT 3SM BLDU FEW080 SCT170 SCT250 24/17 A3004 RMK AO2 PK WND 08028/1852 RAE00B16E30 SLP124 SKY PTLY OBSCD P0001 T02440172"
"112229","LBB","2013-06-19 18:56:00",-101.8228,33.6636,77,62.6,61.13,90,23,0,30.04,NA,1,29,"OVC",NA,NA,NA,1000,NA,NA,NA,"BLDU",NA,NA,NA,29,90,"2013-06-19 18:55",77,"KLBB 191856Z 09023G29KT 1SM BLDU OVC010 25/17 A3004 RMK AO2 PK WND 09029/1855 SFC VIS 2 1/2"
"112230","LBB","2013-06-19 19:03:00",-101.8228,33.6636,75.2,62.6,64.91,90,21,0,30.03,NA,2,30,"FEW","SCT","SCT","SCT",1000,8000,17000,25000,"BLDU",NA,NA,NA,NA,NA,NA,75.2,"KLBB 191903Z 09021G30KT 2SM BLDU FEW010 SCT080 SCT170 SCT250 24/17 A3003 RMK AO2 PK WND 09030/1859 SKY PTLY OBSCD $"
"112231","LBB","2013-06-19 19:13:00",-101.8228,33.6636,77,62.6,61.13,90,21,0,30.02,NA,1.5,32,"FEW","SCT",NA,NA,18000,25000,NA,NA,"BLDU",NA,NA,NA,32,90,"2013-06-19 19:04",77,"KLBB 191913Z 09021G32KT 1 1/2SM BLDU FEW180 SCT250 25/17 A3002 RMK AO2 PK WND 09032/1904 TWR VIS 2 SKY PTLY OBSCD $"
"112232","LBB","2013-06-19 19:53:00",-101.8228,33.6636,80.96,64.04,56.45,110,24,0,30.01,1011.3,1.5,29,"FEW",NA,NA,NA,18000,NA,NA,NA,"BLDU",NA,NA,NA,NA,NA,NA,82.52,"KLBB 191953Z 11024G29KT 1 1/2SM BLDU FEW180 27/18 A3001 RMK AO2 PK WND 09032/1904 SFC VIS 2 SLP113 SKY PTLY OBSCD T02720178"
"112233","LBB","2013-06-19 20:53:00",-101.8228,33.6636,80.96,64.04,56.45,120,23,0,29.97,1010,1.5,33,"FEW","SCT",NA,NA,25000,30000,NA,NA,"BLDU",NA,NA,NA,33,110,"2013-06-19 20:51",82.52,"KLBB 192053Z 12023G33KT 1 1/2SM BLDU FEW250 SCT300 27/18 A2997 RMK AO2 PK WND 11033/2051 SFC VIS 3 SLP100 SKY PTLY OBSCD 60001 T02720178 58027"
"112234","LBB","2013-06-19 21:30:00",-101.8228,33.6636,78.8,64.4,61.36,120,24,0,29.95,NA,2,30,"FEW","BKN","BKN",NA,14000,27000,30000,NA,"BLDU",NA,NA,NA,NA,NA,NA,80.56,"KLBB 192130Z 12024G30KT 2SM BLDU FEW140 BKN270 BKN300 26/18 A2995"
"112235","LBB","2013-06-19 21:50:00",-101.8228,33.6636,78.8,64.4,61.36,130,17,0,29.96,NA,3,23,"FEW","BKN","BKN",NA,17000,27000,30000,NA,"BLDU",NA,NA,NA,33,130,"2013-06-19 21:18",80.56,"KLBB 192150Z 13017G23KT 3SM BLDU FEW170 BKN270 BKN300 26/18 A2996 RMK AO2 PK WND 13033/2118 SFC VIS 6 CB DSNT SW-W MOV E"
"112236","LBB","2013-06-19 21:53:00",-101.8228,33.6636,78.08,64.04,62.05,130,19,0,29.96,1009.7,3,24,"FEW","BKN","BKN",NA,17000,27000,30000,NA,"BLDU",NA,NA,NA,NA,NA,NA,78.08,"KLBB 192153Z 13019G24KT 3SM BLDU FEW170 BKN270 BKN300 26/18 A2996 RMK AO2 PK WND 13033/2118 SFC VIS 6 SLP097 CB DSNT SW-W MOV E T02560178"
"112260","LBB","2013-06-20 16:53:00",-101.8228,33.6636,84.02,64.94,52.75,180,21,0,30.01,1010.7,6,27,"FEW","SCT","SCT",NA,20000,26000,30000,NA,"BLDU",NA,NA,NA,27,180,"2013-06-20 16:47",85.76,"KLBB 201653Z 18021G27KT 6SM BLDU FEW200 SCT260 SCT300 29/18 A3001 RMK AO2 PK WND 18027/1647 SLP107 T02890183"
"112261","LBB","2013-06-20 17:53:00",-101.8228,33.6636,87.08,66.02,49.66,180,20,0,30.01,1010.3,4,27,"FEW","SCT",NA,NA,18000,30000,NA,NA,"BLDU",NA,NA,NA,28,160,"2013-06-20 17:35",89.43,"KLBB 201753Z 18020G27KT 4SM BLDU FEW180 SCT300 31/19 A3001 RMK AO2 PK WND 16028/1735 SLP103 T03060189 10306 20211 55000"
"112262","LBB","2013-06-20 18:20:00",-101.8228,33.6636,89.6,64.4,43.34,170,17,0,30,NA,2.5,26,"SCT",NA,NA,NA,30000,NA,NA,NA,"BLDU",NA,NA,NA,26,160,"2013-06-20 18:15",91.23,"KLBB 201820Z 17017G26KT 2 1/2SM BLDU SCT300 32/18 A3000 RMK AO2 PK WND 16026/1815"
"112263","LBB","2013-06-20 18:53:00",-101.8228,33.6636,91.04,64.04,40.9,160,22,0,29.99,1009.7,2,29,"CLR",NA,NA,NA,NA,NA,NA,NA,"BLDU",NA,NA,NA,31,160,"2013-06-20 18:35",92.59,"KLBB 201853Z 16022G29KT 2SM BLDU CLR 33/18 A2999 RMK AO2 PK WND 16031/1835 SLP097 SKY PRTLY OBSCD T03280178"
"112264","LBB","2013-06-20 19:07:00",-101.8228,33.6636,91.4,62.6,38.45,170,20,0,29.99,NA,1.5,29,"CLR",NA,NA,NA,NA,NA,NA,NA,"BLDU",NA,NA,NA,29,160,"2013-06-20 18:58",91.4,"KLBB 201907Z 17020G29KT 1 1/2SM BLDU CLR 33/17 A2999 RMK AO2 PK WND 16029/1858 SKY PRTLY OBSCD"
"112265","LBB","2013-06-20 19:53:00",-101.8228,33.6636,91.94,60.98,35.7,170,19,0,29.97,1008.8,1,31,"CLR",NA,NA,NA,NA,NA,NA,NA,"BLDU",NA,NA,NA,31,150,"2013-06-20 19:49",91.94,"KLBB 201953Z 17019G31KT 1SM R17R/P6000FT BLDU CLR 33/16 A2997 RMK AO2 PK WND 15031/1949 SLP088 SKY MSTLY OBSCD T03330161"
"112266","LBB","2013-06-20 20:30:00",-101.8228,33.6636,93.2,59,31.99,160,25,0,29.96,NA,2.5,32,"FEW",NA,NA,NA,30000,NA,NA,NA,"BLDU",NA,NA,NA,32,170,"2013-06-20 20:29",93.2,"KLBB 202030Z 16025G32KT 2 1/2SM BLDU FEW300 34/15 A2996 RMK AO2 PK WND 17032/2029 SKY MOSTLY OBSCD"
"112267","LBB","2013-06-20 20:53:00",-101.8228,33.6636,93.92,57.92,30.1,170,25,0,29.95,1008.2,2.5,30,"BKN","OVC",NA,NA,2300,3300,NA,NA,"BLDU",NA,NA,NA,NA,NA,NA,93.92,"KLBB 202053Z 17025G30KT 2 1/2SM BLDU BKN023 OVC033 34/14 A2995 RMK AO2 PK WND 17034/2035 SLP082 SKY MOSTLY OBSCD T03440144 56017"
"112268","LBB","2013-06-20 21:06:00",-101.8228,33.6636,93.2,57.2,29.99,160,24,0,29.95,NA,1,31,"CLR",NA,NA,NA,NA,NA,NA,NA,"BLDU",NA,NA,NA,31,170,"2013-06-20 21:01",91.91,"KLBB 202106Z 16024G31KT 1SM BLDU CLR 34/14 A2995 RMK AO2 PK WND 17031/2101 SFC VIS 2 1/2"
"112269","LBB","2013-06-20 21:53:00",-101.8228,33.6636,93.92,53.96,26.07,170,21,0,29.94,1007.7,1,29,"FEW",NA,NA,NA,27000,NA,NA,NA,"BLDU",NA,NA,NA,32,160,"2013-06-20 21:13",91.69,"KLBB 202153Z 17021G29KT 1SM BLDU FEW270 34/12 A2994 RMK AO2 PK WND 16032/2113 SFC VIS 2 1/2 SLP077 SKY MOSTLY OBSCD T03440122"
"112270","LBB","2013-06-20 22:53:00",-101.8228,33.6636,91.04,55.04,29.67,160,23,0,29.92,1007.2,1,31,"BKN","OVC",NA,NA,27000,30000,NA,NA,"BLDU",NA,NA,NA,32,160,"2013-06-20 22:02",89.08,"KLBB 202253Z 16023G31KT 1SM BLDU BKN270 OVC300 33/13 A2992 RMK AO2 PK WND 16032/2202 SFC VIS 3 SLP072 SKY PTLY OBSCD T03280128"
"112271","LBB","2013-06-20 23:34:00",-101.8228,33.6636,89.6,53.6,29.45,160,17,0,29.94,NA,3,25,"OVC",NA,NA,NA,27000,NA,NA,NA,"BLDU",NA,NA,NA,NA,NA,NA,87.36,"KLBB 202334Z 16017G25KT 3SM BLDU OVC270 32/12 A2994"
"112272","LBB","2013-06-20 23:53:00",-101.8228,33.6636,89.06,53.06,29.37,170,20,0,29.94,1008.1,6,26,"OVC",NA,NA,NA,27000,NA,NA,NA,"BLDU",NA,NA,NA,33,160,"2013-06-20 22:59",86.74,"KLBB 202353Z 17020G26KT 6SM BLDU OVC270 32/12 A2994 RMK AO2 PK WND 16033/2259 SLP081 SKY PTLY OBSCD T03170117 10350 20306 55004"
"112273","LBB","2013-06-21 00:48:00",-101.8228,33.6636,84.2,53.6,34.97,310,28,0,30,NA,1,38,"BKN","OVC",NA,NA,13000,27000,NA,NA,"BLDU",NA,NA,NA,NA,NA,NA,82.76,"KLBB 210048Z 31028G38KT 250V320 1SM R17R/P6000FT BLDU BKN130 OVC270 29/12 A3000 RMK AO2 PK WND 26038/0046 WSHFT 0034 PRESRR"
"112274","LBB","2013-06-21 00:53:00",-101.8228,33.6636,80.96,53.06,38.08,320,19,0,30.03,1011.8,0.5,38,"BKN","OVC",NA,NA,13000,27000,NA,NA,"BLDU",NA,NA,NA,38,260,"2013-06-21 00:46",80.96,"KLBB 210053Z 32019G38KT 1/2SM BLDU BKN130 OVC270 27/12 A3003 RMK AO2 PK WND 26038/0046 WSHFT 0037 SFC VIS 2 PRESRR SLP118 T02720117"
"112275","LBB","2013-06-21 00:58:00",-101.8228,33.6636,78.8,53.6,41.69,330,26,0,30.03,NA,1,35,"SCT","BKN","BKN","OVC",3700,13000,17000,27000,"BLDU",NA,NA,NA,NA,NA,NA,78.8,"KLBB 210058Z 33026G35KT 1SM BLDU SCT037 BKN130 BKN170 OVC270 26/12 A3003 RMK AO2 PK WND 34035/0055 WSHFT 0040 SFC VIS 3 PRESRR SKY MOSTLY OBSCD"
"112276","LBB","2013-06-21 01:03:00",-101.8228,33.6636,78.8,53.6,41.69,320,22,0,30.03,NA,2,36,"SCT","BKN","BKN","OVC",6000,14000,19000,27000,"BLDU",NA,NA,NA,NA,NA,NA,78.8,"KLBB 210103Z 32022G36KT 2SM BLDU SCT060 BKN140 BKN190 OVC270 26/12 A3003 RMK AO2 PK WND 33036/0103 WSHFT 0040 SFC VIS 5 SKY MOSTLY OBSCD"
"112298","LBB","2013-06-21 19:53:00",-101.8228,33.6636,91.94,62.06,37.1,160,21,0,30,1009.9,6,27,"FEW",NA,NA,NA,15000,NA,NA,NA,"BLDU",NA,NA,NA,NA,NA,NA,91.94,"KLBB 211953Z 16021G27KT 6SM BLDU FEW150 33/17 A3000 RMK AO2 PK WND 18028/1913 SLP099 T03330167"
"112299","LBB","2013-06-21 20:53:00",-101.8228,33.6636,93.02,62.06,35.87,160,22,0,29.99,1009.4,6,27,"FEW",NA,NA,NA,7000,NA,NA,NA,"BLDU",NA,NA,NA,NA,NA,NA,93.02,"KLBB 212053Z 16022G27KT 6SM BLDU FEW070 34/17 A2999 RMK AO2 PK WND 15029/2025 SLP094 SKY PTLY OBSCD T03390167 56014"
"112300","LBB","2013-06-21 21:53:00",-101.8228,33.6636,91.94,60.98,35.7,160,21,0,29.98,1008.9,6,29,"FEW",NA,NA,NA,7000,NA,NA,NA,"BLDU",NA,NA,NA,NA,NA,NA,91.94,"KLBB 212153Z 16021G29KT 6SM BLDU FEW070 33/16 A2998 RMK AO2 PK WND 17030/2108 SLP089 SKY PTLY OBSCD T03330161"
"112308","LBB","2013-06-22 03:53:00",-101.8228,33.6636,82.94,57.92,42.61,180,26,0,29.97,1009.2,6,34,"OVC",NA,NA,NA,27000,NA,NA,NA,"BLDU",NA,NA,NA,NA,NA,NA,82.64,"KLBB 220353Z 18026G34KT 6SM BLDU OVC270 28/14 A2997 RMK AO2 PK WND 19034/0351 SLP092 T02830144 $"
"112327","LBB","2013-06-22 22:53:00",-101.8228,33.6636,93.92,60.98,33.57,160,21,0,29.87,1005.5,8,26,"SCT","BKN",NA,NA,8500,30000,NA,NA,"BLDU",NA,NA,NA,NA,NA,NA,93.92,"KLBB 222253Z 16021G26KT 8SM BLDU SCT085 BKN300 34/16 A2987 RMK AO2 PK WND 18032/2230 SLP055 T03440161 $"
"112328","LBB","2013-06-22 23:53:00",-101.8228,33.6636,91.94,60.08,34.58,160,24,0,29.85,1004.9,9,30,"FEW","OVC",NA,NA,8500,26000,NA,NA,"BLDU",NA,NA,NA,NA,NA,NA,91.94,"KLBB 222353Z 16024G30KT 9SM BLDU FEW085 OVC260 33/16 A2985 RMK AO2 PK WND 16032/2256 SLP049 SKY PRTLY OBSCD T03330156 10361 20322 56020 $"
"113437","LBB","2013-08-01 05:53:00",-101.8228,33.6636,75.02,60.98,61.66,330,20,0,30.21,1017.2,6,29,"FEW","BKN","OVC",NA,1600,7000,26000,NA,"BLDU",NA,NA,NA,NA,NA,NA,75.02,"KLBB 010553Z 33020G29KT 6SM BLDU FEW016 BKN070 OVC260 24/16 A3021 RMK AO2 PK WND 32032/0541 WSHFT 0533 SLP172 T T02390161 10339 20239 403560217 53016"
"113612","LBB","2013-08-07 23:14:00",-101.8228,33.6636,87.8,55.4,33.29,250,27,0,29.93,NA,3,33,"SCT","BKN","BKN",NA,10000,17000,22000,NA,"BLDU",NA,NA,NA,33,250,"2013-08-07 23:13",86.11,"KLBB 072314Z 25027G33KT 3SM BLDU SCT100 BKN170 BKN220 31/13 A2993 RMK AO2 PK WND 25033/2313 PRESRR OCNL LTG DSNT NW CB DSNT NW MOV N VIS SE-SW-W 1 1/2"
"113613","LBB","2013-08-07 23:25:00",-101.8228,33.6636,84.2,59,42.52,260,17,0,29.94,NA,3,22,"BKN","BKN","OVC",NA,10000,17000,22000,NA,"BLDU",NA,NA,NA,33,250,"2013-08-07 23:13",83.92,"KLBB 072325Z 26017G22KT 3SM BLDU BKN100 BKN170 OVC220 29/15 A2994 RMK AO2 PK WND 25033/2313 WSHFT 2305 PRESRR VCSH W"
"116246","LBB","2013-11-16 19:50:00",-101.8228,33.6636,75.2,35.6,23.66,240,32,0,29.63,NA,2.5,45,"SCT","SCT",NA,NA,2500,7000,NA,NA,"BLDU",NA,NA,NA,45,230,"2013-11-16 19:44",73.53,"KLBB 161950Z 24032G45KT 2 1/2SM BLDU SCT025 SCT070 24/02 A2963 RMK AO2 PK WND 23045/1944 SKY MSTLY OBSCD"
"116247","LBB","2013-11-16 19:55:00",-101.8228,33.6636,77,35.6,22.28,240,31,0,29.63,NA,3,43,"SCT","SCT","OVC",NA,2700,3800,4500,NA,"BLDU",NA,NA,NA,42,250,"2013-11-16 19:54",75.45,"KLBB 161955Z 24031G43KT 3SM BLDU SCT027 SCT038 OVC045 25/02 A2963 RMK AO2 PK WND 25042/1954"
"116248","LBB","2013-11-16 20:14:00",-101.8228,33.6636,75.2,35.6,23.66,240,26,0,29.62,NA,2.5,47,"CLR",NA,NA,NA,NA,NA,NA,NA,"BLDU",NA,NA,NA,47,250,"2013-11-16 20:08",73.53,"KLBB 162014Z 24026G47KT 2 1/2SM R17R/4500VP6000FT BLDU CLR 24/02 A2962 RMK AO2 PK WND 25047/2008 SFC VIS 3 SKY MSTLY OBSCD"
"116249","LBB","2013-11-16 20:53:00",-101.8228,33.6636,77,33.08,20.15,240,31,0,29.61,998.2,2.5,43,"CLR",NA,NA,NA,NA,NA,NA,NA,"BLDU",NA,NA,NA,47,230,"2013-11-16 20:22",75.35,"KLBB 162053Z 24031G43KT 2 1/2SM R17R/4500VP6000FT BLDU CLR 25/01 A2961 RMK AO2 PK WND 23047/2022 SLP982 SKY MSTLY OBSCD T02500006 56019"
"116250","LBB","2013-11-16 21:05:00",-101.8228,33.6636,77,33.8,20.74,240,34,0,29.61,NA,1.25,48,"CLR",NA,NA,NA,NA,NA,NA,NA,"BLDU",NA,NA,NA,48,250,"2013-11-16 20:59",75.37,"KLBB 162105Z 24034G48KT 1 1/4SM BLDU CLR 25/01 A2961 RMK AO2 PK WND 25048/2059 SFC VIS 1 3/4 SKY MSTLY OBSCD"
"116251","LBB","2013-11-16 21:53:00",-101.8228,33.6636,75.92,32,20,250,25,0,29.63,998.9,1.25,43,"CLR",NA,NA,NA,NA,NA,NA,NA,"BLDU",NA,NA,NA,48,250,"2013-11-16 20:59",74.15,"KLBB 162153Z 25025G43KT 1 1/4SM R17R/5500VP6000FT BLDU CLR 24/00 A2963 RMK AO2 PK WND 25048/2059 SFC VIS 2 SLP989 SKY MSTLY OBSCD T02440000"
"116252","LBB","2013-11-16 22:38:00",-101.8228,33.6636,75.2,33.8,22.02,230,29,0,29.62,NA,3,39,"CLR",NA,NA,NA,NA,NA,NA,NA,"BLDU",NA,NA,NA,43,240,"2013-11-16 22:05",73.46,"KLBB 162238Z 23029G39KT 3SM BLDU CLR 24/01 A2962 RMK AO2 PK WND 24043/2205 SKY MSTLY OBSCD"
"116253","LBB","2013-11-16 22:53:00",-101.8228,33.6636,73.94,33.08,22.32,240,25,0,29.63,999.2,3,35,"CLR",NA,NA,NA,NA,NA,NA,NA,"BLDU",NA,NA,NA,43,240,"2013-11-16 22:05",72.08,"KLBB 162253Z 24025G35KT 3SM BLDU CLR 23/01 A2963 RMK AO2 PK WND 24043/2205 SLP992 SKY MSTLY OBSCD T02330006"
"116254","LBB","2013-11-16 23:53:00",-101.8228,33.6636,71.96,30.92,21.87,230,24,0,29.64,999.8,5,33,"FEW",NA,NA,NA,9000,NA,NA,NA,"BLDU",NA,NA,NA,39,240,"2013-11-16 23:03",69.88,"KLBB 162353Z 23024G33KT 5SM BLDU FEW090 22/M01 A2964 RMK AO2 PK WND 24039/2303 SLP998 SKY PRTLY OBSCRD T02221006 10256 20222 51011"
"116384","LBB","2013-11-21 20:13:00",-101.8228,33.6636,66.2,39.2,37.03,20,20,0,30.01,NA,3,31,"FEW","BKN",NA,NA,2000,26000,NA,NA,"BLDU",NA,NA,NA,31,20,"2013-11-21 20:11",66.2,"KLBB 212013Z 02020G31KT 3SM BLDU FEW020 BKN260 19/04 A3001 RMK AO2 PK WND 02031/2011 SKY PTLY OBSCD"
"117777","LBB","2014-01-10 17:53:00",-101.8228,33.6636,60.08,15.98,17.65,290,25,0,29.77,1005.9,6,34,"CLR",NA,NA,NA,NA,NA,NA,NA,"BLDU",NA,NA,NA,37,270,"2014-01-10 17:37",60.08,"KLBB 101753Z 29025G34KT 6SM R17R/5500VP6000FT BLDU CLR 16/M09 A2977 RMK AO2 PK WND 27037/1737 SLP059 SKY PTLY OBSCD T01561089 10156 20028 58012"
"117778","LBB","2014-01-10 18:53:00",-101.8228,33.6636,59,15.98,18.35,290,24,0,29.75,1005.2,6,36,"CLR",NA,NA,NA,NA,NA,NA,NA,"BLDU",NA,NA,NA,39,280,"2014-01-10 18:25",59,"KLBB 101853Z 29024G36KT 6SM BLDU CLR 15/M09 A2975 RMK AO2 PK WND 28039/1825 SLP052 SKY MSTLY OBSCD T01501089"
"118175","LBB","2014-01-27 08:28:00",-101.8228,33.6636,35.06,24.08,63.91,30,27,0,30.02,NA,3,38,"OVC",NA,NA,NA,1300,NA,NA,NA,"BLDU",NA,NA,NA,38,40,"2014-01-27 08:23",21.52,"KLBB 270828Z 03027G38KT 3SM BLDU OVC013 02/M04 A3002 RMK AO2 PK WND 04038/0823 PRESRR BLDU OVC013 T00171044 $"
"118176","LBB","2014-01-27 08:36:00",-101.8228,33.6636,33.08,23,66.11,30,26,0,30.03,NA,6,36,"BKN",NA,NA,NA,1500,NA,NA,NA,"BLDU",NA,NA,NA,38,40,"2014-01-27 08:23",19.04,"KLBB 270836Z 03026G36KT 6SM BLDU BKN015 01/M05 A3003 RMK AO2 PK WND 04038/0823 PRESRR BLDU BKN015OVC013 T00061050 $"
"118259","LBB","2014-01-30 18:53:00",-101.8228,33.6636,73.04,21.02,13.99,270,26,0,29.73,1004.4,6,31,"SCT","OVC",NA,NA,0,24000,NA,NA,"BLDU",NA,NA,NA,37,270,"2014-01-30 18:25",70.7,"KLBB 301853Z 27026G31KT 6SM R17R/5500VP6000FT BLDU SCT000 OVC240 23/M06 A2973 RMK AO2 PK WND 27037/1825 SLP044 BLDU SCT000 T02281061 $"
"118877","LBB","2014-02-20 13:39:00",-101.8228,33.6636,44.06,24.08,45.01,360,16,0,29.87,NA,3,34,"SCT","SCT","SCT",NA,2200,26000,30000,NA,"BLDU",NA,NA,NA,34,350,"2014-02-20 13:32",36.14,"KLBB 201339Z 36016G34KT 3SM BLDU SCT022 SCT260 SCT300 07/M04 A2987 RMK AO2 PK WND 35034/1332 WSHFT 1322 TWR VIS 5 PRESRR T00671044"
"118878","LBB","2014-02-20 13:53:00",-101.8228,33.6636,42.98,24.98,48.7,360,13,0,29.89,1009.5,6,NA,"SCT","SCT","SCT",NA,2400,26000,30000,NA,"BLDU",NA,NA,NA,34,350,"2014-02-20 13:32",35.64,"KLBB 201353Z 36013KT 6SM BLDU SCT024 SCT260 SCT300 06/M04 A2989 RMK AO2 PK WND 35034/1332 WSHFT 1322 PRESRR SLP095 T00611039"
"119077","LBB","2014-02-28 11:53:00",-101.8228,33.6636,53.06,28.94,39.28,270,25,0,29.65,1001,4,34,"CLR",NA,NA,NA,NA,NA,NA,NA,"BLDU",NA,NA,NA,34,270,"2014-02-28 11:50",53.06,"KLBB 281153Z 27025G34KT 4SM BLDU CLR 12/M02 A2965 RMK AO2 PK WND 27034/1150 SLP010 SKY PTLY OBSCD T01171017 10117 20067 55001"
"119079","LBB","2014-02-28 13:53:00",-101.8228,33.6636,53.06,21.92,29.35,280,26,0,29.71,1003.2,5,35,"CLR",NA,NA,NA,NA,NA,NA,NA,"BLDU",NA,NA,NA,38,270,"2014-02-28 13:37",53.06,"KLBB 281353Z 28026G35KT 5SM BLDU CLR 12/M06 A2971 RMK AO2 PK WND 27038/1337 SLP032 T01171056"
"119080","LBB","2014-02-28 14:38:00",-101.8228,33.6636,55.94,21.02,25.43,280,28,0,29.72,NA,3,38,"FEW",NA,NA,NA,0,NA,NA,NA,"BLDU",NA,NA,NA,40,280,"2014-02-28 14:22",55.94,"KLBB 281438Z 28028G38KT 3SM BLDU FEW000 13/M06 A2972 RMK AO2 PK WND 28040/1422 BLDU FEW000 T01331061"
"119081","LBB","2014-02-28 14:42:00",-101.8228,33.6636,55.4,21.2,26.13,290,30,0,29.72,NA,2,40,"FEW",NA,NA,NA,0,NA,NA,NA,"BLDU",NA,NA,NA,NA,NA,NA,55.4,"KLBB 281442Z 29030G40KT 2SM R17R/3500VP6000FT BLDU FEW000 13/M06 A2972"
"119082","LBB","2014-02-28 14:53:00",-101.8228,33.6636,57.02,21.02,24.46,280,31,0,29.73,1003.9,1.5,41,"FEW",NA,NA,NA,0,NA,NA,NA,"BLDU",NA,NA,NA,41,290,"2014-02-28 14:47",57.02,"KLBB 281453Z 28031G41KT 1 1/2SM R17R/3000VP6000FT BLDU FEW000 14/M06 A2973 RMK AO2 PK WND 29041/1447 SLP039 BLDU FEW000 T01391061 51024"
"119083","LBB","2014-02-28 15:53:00",-101.8228,33.6636,60.98,19.94,20.27,300,31,0,29.74,1004.2,1.5,42,"SCT",NA,NA,NA,0,NA,NA,NA,"BLDU",NA,NA,NA,44,300,"2014-02-28 15:14",60.98,"KLBB 281553Z 30031G42KT 1 1/2SM R17R/6000VP6000FT BLDU SCT000 16/M07 A2974 RMK AO2 PK WND 30044/1514 SFC VIS 2 SLP042 BLDU SCT000 T01611067"
"119084","LBB","2014-02-28 16:05:00",-101.8228,33.6636,62.06,19.94,19.51,300,31,0,29.75,NA,1.5,40,"BKN",NA,NA,NA,0,NA,NA,NA,"BLDU",NA,NA,NA,40,310,"2014-02-28 16:05",62.06,"KLBB 281605Z 30031G40KT 1 1/2SM R17R/6000VP6000FT BLDU BKN000 17/M07 A2975 RMK AO2 PK WND 31040/1605 SFC VIS 2 BLDU BKN000 T01671067"
"119085","LBB","2014-02-28 16:15:00",-101.8228,33.6636,62.96,19.04,18.19,300,29,0,29.75,NA,2.5,40,"BKN",NA,NA,NA,0,NA,NA,NA,"BLDU",NA,NA,NA,40,290,"2014-02-28 16:09",62.96,"KLBB 281615Z 30029G40KT 2 1/2SM BLDU BKN000 17/M07 A2975 RMK AO2 PK WND 29040/1609 BLDU BKN000 T01721072"
"119086","LBB","2014-02-28 16:30:00",-101.8228,33.6636,64.94,19.04,16.97,300,29,0,29.76,NA,3,35,"BKN",NA,NA,NA,0,NA,NA,NA,"BLDU",NA,NA,NA,40,290,"2014-02-28 16:09",64.94,"KLBB 281630Z 30029G35KT 3SM BLDU BKN000 18/M07 A2976 RMK AO2 PK WND 29040/1609 SFC VIS 4 BLDU BKN000 T01831072"
"119087","LBB","2014-02-28 16:45:00",-101.8228,33.6636,64.94,19.04,16.97,300,27,0,29.76,NA,3,34,"SCT",NA,NA,NA,0,NA,NA,NA,"BLDU",NA,NA,NA,40,290,"2014-02-28 16:09",64.94,"KLBB 281645Z 30027G34KT 3SM BLDU SCT000 18/M07 A2976 RMK AO2 PK WND 29040/1609 SFC VIS 5 BLDU SCT000 T01831072"
"119088","LBB","2014-02-28 16:53:00",-101.8228,33.6636,66.02,19.04,16.35,300,27,0,29.77,1004.8,3,39,"SCT",NA,NA,NA,0,NA,NA,NA,"BLDU",NA,NA,NA,40,290,"2014-02-28 16:09",66.02,"KLBB 281653Z 30027G39KT 3SM BLDU SCT000 19/M07 A2977 RMK AO2 PK WND 29040/1609 SFC VIS 6 SLP048 BLDU SCT000 T01891072"
"119124","LBB","2014-03-02 03:40:00",-101.8228,33.6636,42.98,37.94,82.24,40,19,0,29.98,NA,6,26,"FEW","BKN",NA,NA,700,13000,NA,NA,"BLDU",NA,NA,NA,30,50,"2014-03-02 02:59",33.96,"KLBB 020340Z 04019G26KT 6SM BLDU FEW007 BKN130 06/03 A2998 RMK AO2 PK WND 05030/0259 PRESRR FEW007 BLDU T00610033"
"119125","LBB","2014-03-02 03:47:00",-101.8228,33.6636,42.8,37.4,81.07,40,20,0,29.98,NA,5,27,"SCT",NA,NA,NA,700,NA,NA,NA,"BLDU",NA,NA,NA,30,50,"2014-03-02 02:59",33.48,"KLBB 020347Z 04020G27KT 5SM BLDU SCT007 06/03 A2998 RMK AO2 PK WND 05030/0259 FEW007 BLDU"
"119126","LBB","2014-03-02 03:53:00",-101.8228,33.6636,41,37.04,85.67,40,21,0,29.98,1014,6,NA,"SCT","BKN",NA,NA,700,13000,NA,NA,"BLDU",NA,NA,NA,30,50,"2014-03-02 02:59",30.86,"KLBB 020353Z 04021KT 6SM BLDU SCT007 BKN130 05/03 A2998 RMK AO2 PK WND 05030/0259 SLP140 T00500028"
"119127","LBB","2014-03-02 04:00:00",-101.8228,33.6636,42.08,37.04,82.17,40,18,0,29.98,NA,5,24,"OVC",NA,NA,NA,700,NA,NA,NA,"BLDU",NA,NA,NA,NA,NA,NA,33.02,"KLBB 020400Z 04018G24KT 5SM BLDU OVC007 06/03 A2998 RMK AO2 T00560028"
"119128","LBB","2014-03-02 04:48:00",-101.8228,33.6636,35.6,26.6,69.46,30,16,0,30.01,NA,7,26,"FEW","SCT","BKN",NA,500,900,26000,NA,"BLDU",NA,NA,NA,26,30,"2014-03-02 04:42",25.11,"KLBB 020448Z 03016G26KT 7SM BLDU FEW005 SCT009 BKN260 02/M03 A3001 RMK AO2 PK WND 03026/0442"
"119132","LBB","2014-03-02 05:53:00",-101.8228,33.6636,30.92,24.98,78.35,30,15,0,30.02,1014.9,6,22,"FEW","SCT","BKN",NA,500,800,3000,NA,"BLDU",NA,NA,NA,NA,NA,NA,19.38,"KLBB 020553Z 03015G22KT 6SM BLDU FEW005 SCT008 BKN030 M01/M04 A3002 RMK AO2 SLP149 SCT008 V BKN T10061039 10256 21006 402941006 51030"
"119230","LBB","2014-03-05 16:53:00",-101.8228,33.6636,46.94,30.02,51.55,20,23,0,30.01,1014.7,6,28,"BKN","BKN","BKN",NA,10000,26000,30000,NA,"BLDU",NA,NA,NA,34,20,"2014-03-05 16:07",38.4,"KLBB 051653Z 02023G28KT 6SM BLDU BKN100 BKN260 BKN300 08/M01 A3001 RMK AO2 PK WND 02034/1607 SLP147 T00831011"
"119296","LBB","2014-03-08 08:53:00",-101.8228,33.6636,39.92,32,73.08,10,16,0,29.97,1011.7,5,26,"SCT","BKN","BKN",NA,1700,5000,12000,NA,"BLDU",NA,NA,NA,26,10,"2014-03-08 08:44",30.74,"KLBB 080853Z 01016G26KT 5SM BLDU SCT017 BKN050 BKN120 04/00 A2997 RMK AO2 PK WND 01026/0844 SLP117 T00440000 53023"
"119297","LBB","2014-03-08 09:00:00",-101.8228,33.6636,39.2,32,75.16,10,20,0,29.96,NA,6,26,"BKN","BKN","BKN",NA,1700,5000,12000,NA,"BLDU",NA,NA,NA,NA,NA,NA,28.7,"KLBB 080900Z 01020G26KT 6SM BLDU BKN017 BKN050 BKN120 04/00 A2996"
"119298","LBB","2014-03-08 09:31:00",-101.8228,33.6636,39.02,32,75.69,20,17,0,29.96,NA,6,29,"SCT","BKN","BKN",NA,1500,5000,12000,NA,"BLDU",NA,NA,NA,29,20,"2014-03-08 09:23",29.27,"KLBB 080931Z 02017G29KT 6SM BLDU SCT015 BKN050 BKN120 04/00 A2996 RMK AO2 PK WND 02029/0923 SCT017 V BKN T00390000"
"119299","LBB","2014-03-08 09:53:00",-101.8228,33.6636,37.94,32,78.96,20,17,0,29.96,1011.7,6,24,"SCT","BKN","BKN",NA,1500,5000,12000,NA,"BLDU",NA,NA,NA,29,20,"2014-03-08 09:23",27.86,"KLBB 080953Z 02017G24KT 6SM BLDU SCT015 BKN050 BKN120 03/00 A2996 RMK AO2 PK WND 02029/0923 SLP117 SCT015 V BKN T00330000"
"119301","LBB","2014-03-08 10:53:00",-101.8228,33.6636,37.94,30.02,72.87,20,19,0,30.03,1014.2,6,26,"OVC",NA,NA,NA,1400,NA,NA,NA,"HZ BLDU",NA,NA,NA,26,20,"2014-03-08 10:53",27.29,"KLBB 081053Z 02019G26KT 6SM HZ BLDU OVC014 03/M01 A3003 RMK AO2 PK WND 02026/1053 SLP142 T00331011"
"119302","LBB","2014-03-08 11:01:00",-101.8228,33.6636,37.04,28.94,72.24,20,19,0,30.03,NA,6,29,"OVC",NA,NA,NA,1400,NA,NA,NA,"BLDU",NA,NA,NA,29,10,"2014-03-08 10:57",26.1,"KLBB 081101Z 02019G29KT 6SM BLDU OVC014 03/M02 A3003 RMK AO2 PK WND 01029/1057 T00281017"
"119382","LBB","2014-03-11 14:53:00",-101.8228,33.6636,64.04,15.98,15.35,270,25,0,29.67,1000.9,6,32,"FEW",NA,NA,NA,20000,NA,NA,NA,"BLDU",NA,NA,NA,32,270,"2014-03-11 14:44",64.04,"KLBB 111453Z 27025G32KT 6SM BLDU FEW200 18/M09 A2967 RMK AO2 PK WND 27032/1444 SLP009 T01781089 53002"
"119383","LBB","2014-03-11 15:15:00",-101.8228,33.6636,66.02,14,13.14,280,24,0,29.67,NA,3,33,"FEW",NA,NA,NA,0,NA,NA,NA,"BLDU",NA,NA,NA,33,280,"2014-03-11 15:09",66.02,"KLBB 111515Z 28024G33KT 3SM BLDU FEW000 19/M10 A2967 RMK AO2 PK WND 28033/1509 BLDU FEW000 T01891100"
"119384","LBB","2014-03-11 15:53:00",-101.8228,33.6636,69.98,15.08,12.02,280,27,0,29.67,1000.7,2.5,34,"SCT","SCT","SCT",NA,0,20000,30000,NA,"BLDU",NA,NA,NA,37,280,"2014-03-11 15:33",69.98,"KLBB 111553Z 28027G34KT 2 1/2SM BLDU SCT000 SCT200 SCT300 21/M09 A2967 RMK AO2 PK WND 28037/1533 SLP007 BLDU SCT000 T02111094"
"119385","LBB","2014-03-11 15:56:00",-101.8228,33.6636,71.06,15.08,11.59,290,27,0,29.67,NA,1.75,34,"BKN",NA,NA,NA,1300,NA,NA,NA,"BLDU",NA,NA,NA,34,290,"2014-03-11 15:56",68.41,"KLBB 111556Z 29027G34KT 1 3/4SM BLDU BKN013 22/M09 A2967 RMK AO2 PK WND 29034/1556 T02171094"
"119386","LBB","2014-03-11 16:02:00",-101.8228,33.6636,71.06,15.08,11.59,280,28,0,29.66,NA,0.75,39,"BKN",NA,NA,NA,0,NA,NA,NA,"BLDU",NA,NA,NA,39,280,"2014-03-11 16:00",68.41,"KLBB 111602Z 28028G39KT 3/4SM R17R/4500VP6000FT BLDU BKN000 22/M09 A2966 RMK AO2 PK WND 28039/1600 BLDU BKN000 T02171094"
"119387","LBB","2014-03-11 16:32:00",-101.8228,33.6636,71.96,15.08,11.24,280,32,0,29.68,NA,1.5,39,"SCT","BKN","BKN",NA,0,18000,30000,NA,"BLDU",NA,NA,NA,40,290,"2014-03-11 16:13",69.38,"KLBB 111632Z 28032G39KT 1 1/2SM BLDU SCT000 BKN180 BKN300 22/M09 A2968 RMK AO2 PK WND 29040/1613 BLDU SCT000 T02221094"
"119388","LBB","2014-03-11 16:53:00",-101.8228,33.6636,73.94,15.08,10.51,280,27,0,29.69,1001.3,2,38,"SCT","BKN","BKN",NA,0,18000,30000,NA,"BLDU",NA,NA,NA,40,290,"2014-03-11 16:40",71.53,"KLBB 111653Z 28027G38KT 2SM BLDU SCT000 BKN180 BKN300 23/M09 A2969 RMK AO2 PK WND 29040/1640 SLP013 BLDU SCT000 T02331094"
"119389","LBB","2014-03-11 17:05:00",-101.8228,33.6636,75.02,14,9.67,280,26,0,29.7,NA,4,35,"SCT","BKN","BKN",NA,0,20000,30000,NA,"BLDU",NA,NA,NA,35,280,"2014-03-11 16:59",72.68,"KLBB 111705Z 28026G35KT 4SM BLDU SCT000 BKN200 BKN300 24/M10 A2970 RMK AO2 PK WND 28035/1659 T02391100"
"119391","LBB","2014-03-11 18:53:00",-101.8228,33.6636,80.06,15.08,8.58,310,27,0,29.66,1000,4,33,"FEW",NA,NA,NA,0,NA,NA,NA,"BLDU",NA,NA,NA,35,300,"2014-03-11 18:03",77.78,"KLBB 111853Z 31027G33KT 4SM BLDU FEW000 27/M09 A2966 RMK AO2 PK WND 30035/1803 SLP000 BLDU FEW000 T02671094"
"119399","LBB","2014-03-12 01:03:00",-101.8228,33.6636,69.08,24.08,18.21,20,32,0,29.78,NA,3,43,"FEW","FEW",NA,NA,0,15000,NA,NA,"BLDU",NA,NA,NA,43,20,"2014-03-12 01:03",69.08,"KLBB 120103Z 02032G43KT 3SM BLDU FEW000 FEW150 21/M04 A2978 RMK AO2 PK WND 02043/0103 PRESRR VIS 3 NW-NE BLDU FEW000 T02061044"
"119400","LBB","2014-03-12 01:06:00",-101.8228,33.6636,66.92,28.04,23.11,20,31,0,29.78,NA,0.5,43,"BKN","BKN",NA,NA,0,15000,NA,NA,"BLDU",NA,NA,NA,43,20,"2014-03-12 01:03",66.92,"KLBB 120106Z 02031G43KT 1/2SM R17R/P6000FT BLDU BKN000 BKN150 19/M02 A2978 RMK AO2 PK WND 02043/0103 SFC VIS 3/4 BLDU BKN000 VIS DECREASING RAPIDLY T01941022"
"119401","LBB","2014-03-12 01:13:00",-101.8228,33.6636,64.94,30.92,27.84,20,35,0,29.8,NA,1,45,"BKN","BKN",NA,NA,0,15000,NA,NA,"BLDU",NA,NA,NA,45,10,"2014-03-12 01:11",64.94,"KLBB 120113Z 02035G45KT 1SM R17R/P6000FT BLDU BKN000 BKN150 18/M01 A2980 RMK AO2 PK WND 01045/0111 SFC VIS 2 PRESRR BLDU BKN000 T01831006"
"119402","LBB","2014-03-12 01:53:00",-101.8228,33.6636,55.94,32,40.05,10,28,0,29.86,1009.3,1,42,"BKN",NA,NA,NA,0,NA,NA,NA,"BLDU",NA,NA,NA,45,10,"2014-03-12 01:11",55.94,"KLBB 120153Z 01028G42KT 1SM R17R/P6000FT BLDU BKN000 13/00 A2986 RMK AO2 PK WND 01045/0111 SFC VIS 2 SLP093 BLDU BKN000 T01330000"
"119403","LBB","2014-03-12 02:53:00",-101.8228,33.6636,48.92,30.92,49.64,360,29,0,29.98,1012.7,1,43,"BKN",NA,NA,NA,0,NA,NA,NA,"BLDU",NA,NA,NA,45,360,"2014-03-12 02:12",40.11,"KLBB 120253Z 36029G43KT 1SM R17R/P6000FT BLDU BKN000 09/M01 A2998 RMK AO2 PK WND 36045/0212 SFC VIS 2 SLP127 BLDU BKN000 T00941006 53088"
"119404","LBB","2014-03-12 03:38:00",-101.8228,33.6636,44.96,30.02,55.56,10,29,0,30.04,NA,2,40,"BKN",NA,NA,NA,0,NA,NA,NA,"BLDU",NA,NA,NA,46,10,"2014-03-12 03:00",34.68,"KLBB 120338Z 01029G40KT 2SM BLDU BKN000 07/M01 A3004 RMK AO2 PK WND 01046/0300 SFC VIS 3 BLDU BKN000 T00721011"
"119405","LBB","2014-03-12 03:53:00",-101.8228,33.6636,44.96,30.02,55.56,10,25,0,30.05,1014.8,2,42,"BKN",NA,NA,NA,0,NA,NA,NA,"BLDU",NA,NA,NA,46,10,"2014-03-12 03:00",35.36,"KLBB 120353Z 01025G42KT 2SM BLDU BKN000 07/M01 A3005 RMK AO2 PK WND 01046/0300 SFC VIS 3 SLP148 BLDU BKN000 T00721011"
"119406","LBB","2014-03-12 04:40:00",-101.8228,33.6636,42.98,28.94,57.35,10,33,0,30.08,NA,1.75,42,"BKN",NA,NA,NA,0,NA,NA,NA,"BLDU",NA,NA,NA,47,10,"2014-03-12 04:12",31.33,"KLBB 120440Z 01033G42KT 1 3/4SM BLDU BKN000 06/M02 A3008 RMK AO2 PK WND 01047/0412 TWR VIS 2 BLDU BKN000 T00611017"
"119407","LBB","2014-03-12 04:53:00",-101.8228,33.6636,42.08,28.04,57.22,10,30,0,30.1,1016.7,1.5,45,"BKN",NA,NA,NA,0,NA,NA,NA,"BLDU",NA,NA,NA,47,10,"2014-03-12 04:12",30.56,"KLBB 120453Z 01030G45KT 1 1/2SM BLDU BKN000 06/M02 A3010 RMK AO2 PK WND 01047/0412 TWR VIS 2 PRESRR SLP167 BLDU BKN000 T00561022"
"119408","LBB","2014-03-12 05:53:00",-101.8228,33.6636,39.92,26.96,59.5,10,31,0,30.1,1016.4,1.25,46,"BKN",NA,NA,NA,0,NA,NA,NA,"BLDU",NA,NA,NA,46,20,"2014-03-12 05:50",27.42,"KLBB 120553Z 01031G46KT 1 1/4SM BLDU BKN000 04/M03 A3010 RMK AO2 PK WND 02046/0550 TWR VIS 2 SLP164 BLDU BKN000 T00441028 10256 20044 402830044 50035"
"119409","LBB","2014-03-12 06:37:00",-101.8228,33.6636,39.92,26.96,59.5,10,34,0,30.11,NA,2,43,"BKN",NA,NA,NA,0,NA,NA,NA,"BLDU",NA,NA,NA,46,10,"2014-03-12 06:14",26.92,"KLBB 120637Z 01034G43KT 2SM BLDU BKN000 04/M03 A3011 RMK AO2 PK WND 01046/0614 BLDU BKN000 T00441028"
"119410","LBB","2014-03-12 06:47:00",-101.8228,33.6636,39.2,26.6,60.29,10,30,0,30.12,NA,1.5,46,"BKN",NA,NA,NA,0,NA,NA,NA,"BLDU",NA,NA,NA,46,10,"2014-03-12 06:39",26.6,"KLBB 120647Z 01030G46KT 1 1/2SM BLDU BKN000 04/M03 A3012 RMK AO2 PK WND 01046/0639 TWR VIS 2 BLDU BKN000"
"119411","LBB","2014-03-12 06:53:00",-101.8228,33.6636,39.02,26.06,59.37,10,31,0,30.13,1017.3,1.5,41,"BKN",NA,NA,NA,0,NA,NA,NA,"BLDU",NA,NA,NA,46,10,"2014-03-12 06:39",26.17,"KLBB 120653Z 01031G41KT 1 1/2SM BLDU BKN000 04/M03 A3013 RMK AO2 PK WND 01046/0639 TWR VIS 2 SLP173 BLDU BKN000 T00391033"
"119412","LBB","2014-03-12 07:13:00",-101.8228,33.6636,39.02,26.06,59.37,10,24,0,30.13,NA,2,36,"SCT","SCT",NA,NA,0,20000,NA,NA,"BLDU",NA,NA,NA,41,10,"2014-03-12 06:59",27.53,"KLBB 120713Z 01024G36KT 2SM BLDU SCT000 SCT200 04/M03 A3013 RMK AO2 PK WND 01041/0659 SFC VIS 2 1/2 BLDU SCT000 T00391033"
"119413","LBB","2014-03-12 07:26:00",-101.8228,33.6636,39.02,24.98,56.77,10,29,0,30.13,NA,1.5,43,"BKN",NA,NA,NA,0,NA,NA,NA,"BLDU",NA,NA,NA,43,10,"2014-03-12 07:22",26.53,"KLBB 120726Z 01029G43KT 1 1/2SM BLDU BKN000 04/M04 A3013 RMK AO2 PK WND 01043/0722 BLDU BKN000 T00391039"
"119414","LBB","2014-03-12 07:46:00",-101.8228,33.6636,37.94,24.98,59.22,20,27,0,30.17,NA,2,37,"SCT","SCT",NA,NA,0,20000,NA,NA,"BLDU",NA,NA,NA,43,10,"2014-03-12 07:22",25.44,"KLBB 120746Z 02027G37KT 2SM BLDU SCT000 SCT200 03/M04 A3017 RMK AO2 PK WND 01043/0722 PRESRR BLDU SCT000 T00331039"
"119415","LBB","2014-03-12 07:53:00",-101.8228,33.6636,37.94,24.98,59.22,20,26,0,30.18,1019,2.5,33,"SCT","SCT",NA,NA,0,20000,NA,NA,"BLDU",NA,NA,NA,43,10,"2014-03-12 07:22",25.64,"KLBB 120753Z 02026G33KT 2 1/2SM BLDU SCT000 SCT200 03/M04 A3018 RMK AO2 PK WND 01043/0722 SLP190 BLDU SCT000 T00331039"
"119416","LBB","2014-03-12 08:05:00",-101.8228,33.6636,37.94,24.98,59.22,10,25,0,30.18,NA,3,34,"SCT","SCT",NA,NA,0,20000,NA,NA,"BLDU",NA,NA,NA,34,10,"2014-03-12 08:00",25.86,"KLBB 120805Z 01025G34KT 3SM BLDU SCT000 SCT200 03/M04 A3018 RMK AO2 PK WND 01034/0800 BLDU SCT000 T00331039"
"119507","LBB","2014-03-16 01:33:00",-101.8228,33.6636,57.02,35.06,43.53,10,32,0,29.81,NA,2,40,"BKN","BKN","BKN","OVC",0,7500,11000,16000,"BLDU SQ",NA,NA,NA,40,10,"2014-03-16 01:32",57.02,"KLBB 160133Z 01032G40KT 2SM BLDU SQ BKN000 BKN075 BKN110 OVC160 14/02 A2981 RMK AO2 PK WND 01040/0132 PRESRR T01390017"
"119508","LBB","2014-03-16 01:41:00",-101.8228,33.6636,53.96,39.92,58.89,10,26,1e-04,29.82,NA,4,40,"FEW","SCT","BKN",NA,0,8000,11000,NA,"-RA BLDU",NA,NA,NA,40,10,"2014-03-16 01:32",53.96,"KLBB 160141Z 01026G40KT 4SM -RA BLDU FEW000 SCT080 BKN110 12/04 A2982 RMK AO2 PK WND 01040/0132 RAB37 PRESRR BLDU FEW000 P0000 T01220044"
"119512","LBB","2014-03-16 04:30:00",-101.8228,33.6636,55.04,30.02,38.19,20,32,0,29.93,NA,1,44,"BKN","OVC",NA,NA,3200,11000,NA,NA,"BLDU",NA,NA,NA,44,20,"2014-03-16 04:29",55.04,"KLBB 160430Z 02032G44KT 1SM R17R/P6000FT BLDU BKN032 OVC110 13/M01 A2993 RMK AO2 PK WND 02044/0429 SFC VIS 2 T01281011"
"119513","LBB","2014-03-16 04:45:00",-101.8228,33.6636,53.96,30.02,39.72,10,26,0,29.93,NA,0.5,43,"OVC",NA,NA,NA,2600,NA,NA,NA,"BLDU",NA,NA,NA,44,20,"2014-03-16 04:29",53.96,"KLBB 160445Z 01026G43KT 1/2SM R17R/P6000FT BLDU OVC026 12/M01 A2993 RMK AO2 PK WND 02044/0429 SFC VIS 1 T01221011"
"119514","LBB","2014-03-16 04:53:00",-101.8228,33.6636,53.96,30.92,41.2,10,22,0,29.94,1011.3,0.5,34,"OVC",NA,NA,NA,2400,NA,NA,NA,"BLDU",NA,NA,NA,44,20,"2014-03-16 04:29",53.96,"KLBB 160453Z 01022G34KT 1/2SM R17R/P6000FT BLDU OVC024 12/M01 A2994 RMK AO2 PK WND 02044/0429 SFC VIS 1 SLP113 T01221006"
"119515","LBB","2014-03-16 05:10:00",-101.8228,33.6636,53.06,30.92,42.58,10,29,0,29.95,NA,2,39,"OVC",NA,NA,NA,2400,NA,NA,NA,"BLDU",NA,NA,NA,39,10,"2014-03-16 05:07",53.06,"KLBB 160510Z 01029G39KT 2SM BLDU OVC024 12/M01 A2995 RMK AO2 PK WND 01039/0507 T01171006"
"119516","LBB","2014-03-16 05:19:00",-101.8228,33.6636,53.06,30.92,42.58,20,29,0,29.95,NA,1.5,42,"OVC",NA,NA,NA,2400,NA,NA,NA,"BLDU",NA,NA,NA,42,20,"2014-03-16 05:16",53.06,"KLBB 160519Z 02029G42KT 1 1/2SM BLDU OVC024 12/M01 A2995 RMK AO2 PK WND 02042/0516 TWR VIS 2 T01171006"
"119517","LBB","2014-03-16 05:20:00",-101.8228,33.6636,53.06,30.02,41.05,10,30,0,29.95,NA,1,42,"OVC",NA,NA,NA,2400,NA,NA,NA,"BLDU",NA,NA,NA,42,20,"2014-03-16 05:16",53.06,"KLBB 160520Z 01030G42KT 1SM R17R/P6000FT BLDU OVC024 12/M01 A2995 RMK AO2 PK WND 02042/0516 TWR VIS 2 T01171011"
"119518","LBB","2014-03-16 05:44:00",-101.8228,33.6636,51.98,30.02,42.72,10,25,0,29.98,NA,3,36,"OVC",NA,NA,NA,2600,NA,NA,NA,"BLDU",NA,NA,NA,42,20,"2014-03-16 05:16",51.98,"KLBB 160544Z 01025G36KT 3SM BLDU OVC026 11/M01 A2998 RMK AO2 PK WND 02042/0516 T01111011"
"119519","LBB","2014-03-16 05:53:00",-101.8228,33.6636,51.08,30.02,44.16,10,29,0,29.98,1012.6,3,38,"FEW","OVC",NA,NA,2000,2600,NA,NA,"BLDU",NA,NA,NA,42,20,"2014-03-16 05:16",51.08,"KLBB 160553Z 01029G38KT 3SM BLDU FEW020 OVC026 11/M01 A2998 RMK AO2 PK WND 02042/0516 SLP126 60000 T01061011 10189 20106 402280033 51040"
"119520","LBB","2014-03-16 06:06:00",-101.8228,33.6636,50,30.02,45.97,10,28,0,29.98,NA,2,42,"FEW","BKN","OVC",NA,2000,2600,5000,NA,"BLDU",NA,NA,NA,41,10,"2014-03-16 06:00",41.73,"KLBB 160606Z 01028G42KT 2SM BLDU FEW020 BKN026 OVC050 10/M01 A2998 RMK AO2 PK WND 01041/0600 T01001011"
"119521","LBB","2014-03-16 06:27:00",-101.8228,33.6636,50,30.02,45.97,10,27,0,30,NA,3,39,"BKN","OVC",NA,NA,2600,5000,NA,NA,"BLDU",NA,NA,NA,41,10,"2014-03-16 06:00",41.88,"KLBB 160627Z 01027G39KT 3SM BLDU BKN026 OVC050 10/M01 A3000 RMK AO2 PK WND 01041/0600 BLDU BKN026 T01001011"
"119522","LBB","2014-03-16 06:53:00",-101.8228,33.6636,48.02,30.02,49.5,360,23,0,30.01,1013.5,4,35,"BKN","OVC",NA,NA,2600,5000,NA,NA,"BLDU",NA,NA,NA,41,10,"2014-03-16 06:00",39.85,"KLBB 160653Z 36023G35KT 4SM BLDU BKN026 OVC050 09/M01 A3001 RMK AO2 PK WND 01041/0600 SLP135 BLDU BKN026 T00891011"
"119523","LBB","2014-03-16 07:53:00",-101.8228,33.6636,44.06,30.92,59.64,10,29,0,30.04,1014.7,5,35,"BKN","BKN","OVC",NA,2300,5000,18000,NA,"BLDU",NA,NA,NA,41,360,"2014-03-16 07:41",33.44,"KLBB 160753Z 01029G35KT 5SM BLDU BKN023 BKN050 OVC180 07/M01 A3004 RMK AO2 PK WND 36041/0741 SLP147 BLDU BKN023 T00671006"
"119524","LBB","2014-03-16 08:05:00",-101.8228,33.6636,44.06,30.92,59.64,10,30,0,30.05,NA,7,38,"SCT","BKN","OVC",NA,2200,5000,18000,NA,"BLDU",NA,NA,NA,38,10,"2014-03-16 08:04",33.28,"KLBB 160805Z 01030G38KT 7SM BLDU SCT022 BKN050 OVC180 07/M01 A3005 RMK AO2 PK WND 01038/0804 BLDU SCT022 T00671006"
"119526","LBB","2014-03-16 09:53:00",-101.8228,33.6636,42.98,30.92,62.16,10,26,0,30.07,1015.6,5,40,"BKN","OVC",NA,NA,2600,5000,NA,NA,"BLDU",NA,NA,NA,42,360,"2014-03-16 09:43",32.49,"KLBB 160953Z 01026G40KT 5SM BLDU BKN026 OVC050 06/M01 A3007 RMK AO2 PK WND 36042/0943 SLP156 BINOVC T00611006"
"119532","LBB","2014-03-16 14:46:00",-101.8228,33.6636,41,26.06,54.97,10,27,0,30.2,NA,4,39,"FEW","FEW","SCT",NA,0,2000,27000,NA,"BLDU",NA,NA,NA,40,10,"2014-03-16 14:27",29.61,"KLBB 161446Z 01027G39KT 4SM BLDU FEW000 FEW020 SCT270 05/M03 A3020 RMK AO2 PK WND 01040/1427 BLDU FEW000 T00501033"
"119533","LBB","2014-03-16 14:53:00",-101.8228,33.6636,41,26.06,54.97,10,24,0,30.2,1021.2,5,37,"FEW","FEW","SCT",NA,0,2000,27000,NA,"BLDU",NA,NA,NA,40,10,"2014-03-16 14:27",30.2,"KLBB 161453Z 01024G37KT 5SM BLDU FEW000 FEW020 SCT270 05/M03 A3020 RMK AO2 PK WND 01040/1427 SLP212 BLDU FEW000 T00501033 53026"
"119534","LBB","2014-03-16 15:53:00",-101.8228,33.6636,44.06,24.98,46.73,360,25,0,30.22,1021.8,6,35,"FEW","FEW",NA,NA,0,3000,NA,NA,"BLDU",NA,NA,NA,39,10,"2014-03-16 15:03",34.14,"KLBB 161553Z 36025G35KT 6SM BLDU FEW000 FEW030 07/M04 A3022 RMK AO2 PK WND 01039/1503 SLP218 BLDU FEW000 T00671039"
"119535","LBB","2014-03-16 16:53:00",-101.8228,33.6636,46.04,24.98,43.34,10,25,0,30.22,1021.7,6,35,"FEW",NA,NA,NA,0,NA,NA,NA,"BLDU",NA,NA,NA,38,10,"2014-03-16 16:09",36.82,"KLBB 161653Z 01025G35KT 6SM BLDU FEW000 08/M04 A3022 RMK AO2 PK WND 01038/1609 SLP217 BLDU FEW000 T00781039"
"119538","LBB","2014-03-16 19:11:00",-101.8228,33.6636,53.96,19.04,25.12,360,24,0,30.17,NA,4,33,"SCT",NA,NA,NA,0,NA,NA,NA,"BLDU",NA,NA,NA,35,350,"2014-03-16 19:01",53.96,"KLBB 161911Z 36024G33KT 4SM BLDU SCT000 12/M07 A3017 RMK AO2 PK WND 35035/1901 BLDU SCT0000 T01221072"
"119567","LBB","2014-03-17 23:53:00",-101.8228,33.6636,73.94,12.02,9.19,210,19,0,29.55,998.6,6,28,"BKN","OVC",NA,NA,27000,30000,NA,NA,"BLDU",NA,NA,NA,NA,NA,NA,71.47,"KLBB 172353Z 21019G28KT 6SM BLDU BKN270 OVC300 23/M11 A2955 RMK AO2 PK WND 23034/2323 SLP986 T02331111 10250 20178 56033"
"119584","LBB","2014-03-18 16:09:00",-101.8228,33.6636,71.06,10.94,9.65,270,31,0,29.62,NA,2.5,38,"SCT","SCT","SCT",NA,0,25000,30000,NA,"BLDU",NA,NA,NA,38,270,"2014-03-18 16:07",68.32,"KLBB 181609Z 27031G38KT 2 1/2SM BLDU SCT000 SCT250 SCT300 22/M12 A2962 RMK AO2 PK WND 27038/1607 BLDU SCT000 T02171117"
"119585","LBB","2014-03-18 16:53:00",-101.8228,33.6636,71.06,10.94,9.65,280,28,0,29.63,999.2,2.5,38,"BKN","BKN",NA,NA,0,25000,NA,NA,"BLDU",NA,NA,NA,41,280,"2014-03-18 16:17",68.32,"KLBB 181653Z 28028G38KT 2 1/2SM BLDU BKN000 BKN250 22/M12 A2963 RMK AO2 PK WND 28041/1617 SLP992 BLDU BKN000 T02171117"
"119586","LBB","2014-03-18 17:00:00",-101.8228,33.6636,71.06,10.94,9.65,280,31,0,29.63,NA,3,41,"BKN","OVC",NA,NA,3200,4000,NA,NA,"BLDU",NA,NA,NA,41,290,"2014-03-18 16:58",68.32,"KLBB 181700Z 28031G41KT 3SM BLDU BKN032 OVC040 22/M12 A2963 RMK AO2 PK WND 29041/1658 T02171117"
"119587","LBB","2014-03-18 17:17:00",-101.8228,33.6636,71.06,10.94,9.65,290,29,0,29.64,NA,2,38,"BKN",NA,NA,NA,0,NA,NA,NA,"BLDU",NA,NA,NA,41,290,"2014-03-18 17:07",68.32,"KLBB 181717Z 29029G38KT 2SM BLDU BKN000 22/M12 A2964 RMK AO2 PK WND 29041/1707 BLDU BKN000 T02171117"
"119588","LBB","2014-03-18 17:53:00",-101.8228,33.6636,71.06,10.94,9.65,280,28,0,29.66,1000.4,2,41,"BKN",NA,NA,NA,0,NA,NA,NA,"BLDU",NA,NA,NA,43,280,"2014-03-18 17:38",68.32,"KLBB 181753Z 28028G41KT 2SM BLDU BKN000 22/M12 A2966 RMK AO2 PK WND 28043/1738 SLP004 BLDU BKN000 T02171117 10217 20067 53016"
"119589","LBB","2014-03-18 18:20:00",-101.8228,33.6636,71.06,6.98,8.08,280,32,0,29.66,NA,1,43,"BKN",NA,NA,NA,0,NA,NA,NA,"BLDU",NA,NA,NA,46,270,"2014-03-18 18:00",68.25,"KLBB 181820Z 28032G43KT 1SM R17R/2800VP6000FT BLDU BKN000 22/M14 A2966 RMK AO2 PK WND 27046/1800 TWR VIS 2 BLDU BKN000 T02171139"
"119590","LBB","2014-03-18 18:34:00",-101.8228,33.6636,69.98,1.04,6.38,270,32,0,29.66,NA,0.75,38,"BKN",NA,NA,NA,0,NA,NA,NA,"BLDU",NA,NA,NA,46,270,"2014-03-18 18:00",69.98,"KLBB 181834Z 27032G38KT 3/4SM R17R/5000VP6000FT BLDU BKN000 21/M17 A2966 RMK AO2 PK WND 27046/1800 TWR VIS 2 BLDU BKN000 T02111172"
"119591","LBB","2014-03-18 18:53:00",-101.8228,33.6636,69.98,-0.04,6.07,270,36,0,29.66,1000.7,0.75,47,"BKN",NA,NA,NA,0,NA,NA,NA,"BLDU",NA,NA,NA,47,280,"2014-03-18 18:47",69.98,"KLBB 181853Z 27036G47KT 3/4SM R17R/3000VP6000FT BLDU BKN000 21/M18 A2966 RMK AO2 PK WND 28047/1847 TWR VIS 1 SLP007 BLDU BKN000 T02111178"
"119592","LBB","2014-03-18 18:59:00",-101.8228,33.6636,69.98,-4,5.03,270,35,0,29.66,NA,0.5,50,"VV ",NA,NA,NA,200,NA,NA,NA,"DS",NA,NA,NA,50,270,"2014-03-18 18:54",69.98,"KLBB 181859Z 27035G50KT 1/2SM R17R/3000VP6000FT DS VV002 21/M20 A2966 RMK AO2 PK WND 27050/1854 TWR VIS 1 T02111200"
"119593","LBB","2014-03-18 19:53:00",-101.8228,33.6636,69.98,-9.04,3.94,290,31,0,29.67,1001.1,0.5,42,"VV ",NA,NA,NA,300,NA,NA,NA,"DS",NA,NA,NA,50,270,"2014-03-18 18:54",69.98,"KLBB 181953Z 29031G42KT 1/2SM R17R/6000VP6000FT DS VV003 21/M23 A2967 RMK AO2 PK WND 27050/1854 TWR VIS 1 SLP011 T02111228"
"119594","LBB","2014-03-18 20:27:00",-101.8228,33.6636,69.08,-11.92,3.52,290,30,0,29.67,NA,1,38,"BKN",NA,NA,NA,0,NA,NA,NA,"BLDU",NA,NA,NA,45,290,"2014-03-18 20:13",69.08,"KLBB 182027Z 29030G38KT 1SM R17R/5000VP6000FT BLDU BKN000 21/M24 A2967 RMK AO2 PK WND 29045/2013 SFC VIS 1 1/2 BLDU BKN000 T02061244"
"119595","LBB","2014-03-18 20:53:00",-101.8228,33.6636,68,-13,3.46,300,35,0,29.67,1001.5,1,44,"BKN",NA,NA,NA,0,NA,NA,NA,"BLDU",NA,NA,NA,45,290,"2014-03-18 20:13",68,"KLBB 182053Z 30035G44KT 1SM R17R/4000VP6000FT BLDU BKN000 20/M25 A2967 RMK AO2 PK WND 29045/2013 SFC VIS 1 1/4 SLP015 BLDU BKN000 T02001250 53003"
"119596","LBB","2014-03-18 21:53:00",-101.8228,33.6636,68,-9.04,4.21,290,30,0,29.72,1002.9,1,38,"BKN",NA,NA,NA,0,NA,NA,NA,"BLDU",NA,NA,NA,43,290,"2014-03-18 21:43",68,"KLBB 182153Z 29030G38KT 1SM R17R/P6000FT BLDU BKN000 20/M23 A2972 RMK AO2 PK WND 29043/2143 SFC VIS 3 SLP029 T02001228"
"119597","LBB","2014-03-18 22:05:00",-101.8228,33.6636,68,-7.96,4.44,300,26,0,29.72,NA,3,37,"BKN",NA,NA,NA,0,NA,NA,NA,"BLDU",NA,NA,NA,39,290,"2014-03-18 21:54",68,"KLBB 182205Z 30026G37KT 3SM BLDU BKN000 20/M22 A2972 RMK AO2 PK WND 29039/2154 SFC VIS 4 BLDU BKN000 T02001222"
"119598","LBB","2014-03-18 22:50:00",-101.8228,33.6636,68,-7.6,4.52,300,25,0,29.74,NA,6,34,"FEW","OVC",NA,NA,0,30000,NA,NA,"BLDU",NA,NA,NA,39,290,"2014-03-18 21:54",68,"KLBB 182250Z 30025G34KT 6SM BLDU FEW000 OVC300 20/M22 A2974 RMK AO2 PK WND 29039/2154 BLDU FEW000"
"119599","LBB","2014-03-18 22:53:00",-101.8228,33.6636,66.92,-5.98,5.08,300,27,0,29.74,1004.2,6,34,"FEW","OVC",NA,NA,0,30000,NA,NA,"BLDU",NA,NA,NA,39,290,"2014-03-18 21:54",66.92,"KLBB 182253Z 30027G34KT 6SM BLDU FEW000 OVC300 19/M21 A2974 RMK AO2 PK WND 29039/2154 SLP042 BLDU FEW000 T01941211"
"119602","LBB","2014-03-19 00:34:00",-101.8228,33.6636,62.06,8.06,11.59,20,24,0,29.83,NA,1,30,"BKN","OVC",NA,NA,0,30000,NA,NA,"BLDU",NA,NA,NA,30,360,"2014-03-19 00:31",62.06,"KLBB 190034Z 02024G30KT 1SM R17R/P6000FT BLDU BKN000 OVC300 17/M13 A2983 RMK AO2 PK WND 36030/0031 PRESRR VIS SE-SW 9 BLDU BKN000 T01671133"
"119603","LBB","2014-03-19 00:53:00",-101.8228,33.6636,59,10.94,14.7,20,24,0,29.85,1008.6,1,29,"SCT","SCT","BKN",NA,0,27000,30000,NA,"BLDU",NA,NA,NA,30,360,"2014-03-19 00:31",59,"KLBB 190053Z 02024G29KT 1SM R17R/P6000FT BLDU SCT000 SCT270 BKN300 15/M12 A2985 RMK AO2 PK WND 36030/0031 SFC VIS 2 SLP086 BLDU SCT000 T01501117"
"119604","LBB","2014-03-19 01:49:00",-101.8228,33.6636,53.6,15.8,22.13,20,15,0,29.92,NA,3,30,"BKN",NA,NA,NA,0,NA,NA,NA,"BLDU",NA,NA,NA,32,20,"2014-03-19 01:35",53.6,"KLBB 190149Z 02015G30KT 3SM BLDU BKN000 12/M09 A2992 RMK AO2 PK WND 02032/0135 BLDU BKN000"
"119605","LBB","2014-03-19 01:53:00",-101.8228,33.6636,53.06,15.08,21.88,20,19,0,29.92,1010.9,3,26,"BKN",NA,NA,NA,0,NA,NA,NA,"BLDU",NA,NA,NA,32,20,"2014-03-19 01:35",53.06,"KLBB 190153Z 02019G26KT 3SM BLDU BKN000 12/M09 A2992 RMK AO2 PK WND 02032/0135 SLP109 BLDU BKN000 T01171094"
"119606","LBB","2014-03-19 02:33:00",-101.8228,33.6636,50,17.06,26.7,20,23,0,29.95,NA,2,34,"BKN",NA,NA,NA,0,NA,NA,NA,"BLDU",NA,NA,NA,34,20,"2014-03-19 02:29",42.51,"KLBB 190233Z 02023G34KT 2SM BLDU BKN000 10/M08 A2995 RMK AO2 PK WND 02034/0229 TWR VIS 3 BLDU BKN000 T01001083"
"119607","LBB","2014-03-19 02:53:00",-101.8228,33.6636,48.92,17.96,28.89,10,26,0,29.96,1012.2,2,34,"BKN",NA,NA,NA,0,NA,NA,NA,"BLDU",NA,NA,NA,34,10,"2014-03-19 02:52",40.56,"KLBB 190253Z 01026G34KT 2SM BLDU BKN000 09/M08 A2996 RMK AO2 PK WND 01034/0252 TWR VIS 3 SLP122 BLDU BKN000 T00941078 51052"
"119608","LBB","2014-03-19 03:53:00",-101.8228,33.6636,44.06,19.04,36.36,10,21,0,29.99,1012.9,2,31,"BKN",NA,NA,NA,0,NA,NA,NA,"BLDU",NA,NA,NA,42,10,"2014-03-19 03:20",34.94,"KLBB 190353Z 01021G31KT 2SM BLDU BKN000 07/M07 A2999 RMK AO2 PK WND 01042/0320 TWR VIS 3 SLP129 BLDU BKN000 T00671072"
"119609","LBB","2014-03-19 04:23:00",-101.8228,33.6636,42.08,19.94,40.77,10,24,0,30,NA,3,33,"BKN",NA,NA,NA,0,NA,NA,NA,"BLDU",NA,NA,NA,37,360,"2014-03-19 04:00",31.66,"KLBB 190423Z 01024G33KT 3SM BLDU BKN000 06/M07 A3000 RMK AO2 PK WND 36037/0400 SFC VIS 3 T00561067"
"119610","LBB","2014-03-19 04:53:00",-101.8228,33.6636,41,19.04,40.9,20,24,0,30.02,1014.1,5,35,"BKN",NA,NA,NA,0,NA,NA,NA,"BLDU",NA,NA,NA,37,360,"2014-03-19 04:00",30.2,"KLBB 190453Z 02024G35KT 5SM BLDU BKN000 05/M07 A3002 RMK AO2 PK WND 36037/0400 SLP141 BLDU BKN000 T00501072"
"119611","LBB","2014-03-19 05:13:00",-101.8228,33.6636,39.92,19.04,42.65,10,19,0,30.03,NA,6,25,"SCT",NA,NA,NA,0,NA,NA,NA,"BLDU",NA,NA,NA,29,20,"2014-03-19 04:55",29.91,"KLBB 190513Z 01019G25KT 6SM BLDU SCT000 04/M07 A3003 RMK AO2 PK WND 02029/0455 BLDU SCT000 T00441072"
"119612","LBB","2014-03-19 05:53:00",-101.8228,33.6636,39.02,19.04,44.18,20,16,0,30.07,1015.9,6,NA,"SCT","SCT",NA,NA,0,26000,NA,NA,"BLDU",NA,NA,NA,29,20,"2014-03-19 04:55",29.57,"KLBB 190553Z 02016KT 6SM BLDU SCT000 SCT260 04/M07 A3007 RMK AO2 PK WND 02029/0455 SLP159 BLDU SCT000 T00391072 10189 20039 402170039 53033"
"119805","LBB","2014-03-27 02:53:00",-101.8228,33.6636,60.08,48.92,66.56,180,24,0,29.69,1002.8,6,32,"SCT","BKN",NA,NA,25000,30000,NA,NA,"BLDU",NA,NA,NA,32,170,"2014-03-27 02:45",60.08,"KLBB 270253Z 18024G32KT 6SM BLDU SCT250 BKN300 16/09 A2969 RMK AO2 PK WND 17032/0245 SLP028 T01560094 53008"
"119807","LBB","2014-03-27 04:53:00",-101.8228,33.6636,53.96,48.92,83,190,21,0,29.68,1002.5,6,30,"FEW","SCT",NA,NA,25000,30000,NA,NA,"BLDU",NA,NA,NA,33,190,"2014-03-27 03:54",53.96,"KLBB 270453Z 19021G30KT 6SM BLDU FEW250 SCT300 12/09 A2968 RMK AO2 PK WND 19033/0354 SLP025 T01220094"
"119808","LBB","2014-03-27 05:45:00",-101.8228,33.6636,53.06,48.92,85.78,190,26,0,29.67,NA,6,NA,"SCT","BKN",NA,NA,1000,20000,NA,NA,"BLDU",NA,NA,NA,33,190,"2014-03-27 05:00",53.06,"KLBB 270545Z 19026KT 6SM BLDU SCT010 BKN200 12/09 A2967 RMK AO2 PK WND 19033/0500 LOW CLDS FORMING RAPIDLY T01170094"
"119809","LBB","2014-03-27 05:53:00",-101.8228,33.6636,51.98,48.92,89.26,190,23,0,29.67,1002,6,30,"BKN",NA,NA,NA,1000,NA,NA,NA,"BLDU",NA,NA,NA,33,190,"2014-03-27 05:00",51.98,"KLBB 270553Z 19023G30KT 6SM BLDU BKN010 11/09 A2967 RMK AO2 PK WND 19033/0500 SLP020 T01110094 10228 20111 402330067 56007"
"119810","LBB","2014-03-27 05:59:00",-101.8228,33.6636,51.98,48.92,89.26,190,23,0,29.67,NA,6,30,"BKN",NA,NA,NA,900,NA,NA,NA,"BLDU",NA,NA,NA,30,190,"2014-03-27 05:59",51.98,"KLBB 270559Z 19023G30KT 6SM BLDU BKN009 11/09 A2967 RMK AO2 PK WND 19030/0559 T01110094"
"119811","LBB","2014-03-27 06:53:00",-101.8228,33.6636,53.06,48.92,85.78,200,22,0,29.67,1001.9,6,31,"BKN",NA,NA,NA,900,NA,NA,NA,"BLDU",NA,NA,NA,33,190,"2014-03-27 06:12",53.06,"KLBB 270653Z 20022G31KT 6SM BLDU BKN009 12/09 A2967 RMK AO2 PK WND 19033/0612 SLP019 T01170094"
"119812","LBB","2014-03-27 07:16:00",-101.8228,33.6636,53.06,48.92,85.78,200,18,0,29.68,NA,6,25,"BKN",NA,NA,NA,1000,NA,NA,NA,"BLDU",NA,NA,NA,31,200,"2014-03-27 07:04",53.06,"KLBB 270716Z 20018G25KT 6SM BLDU BKN010 12/09 A2968 RMK AO2 PK WND 20031/0704 T01170094"
"119826","LBB","2014-03-27 17:38:00",-101.8228,33.6636,69.98,24.98,18.33,280,27,0,29.77,NA,6,35,"FEW","SCT",NA,NA,0,25000,NA,NA,"BLDU",NA,NA,NA,36,280,"2014-03-27 16:58",69.98,"KLBB 271738Z 28027G35KT 6SM BLDU FEW000 SCT250 21/M04 A2977 RMK AO2 PK WND 28036/1658 VIS 2 SW-W BLDU FEW000 T02111039"
"119827","LBB","2014-03-27 17:53:00",-101.8228,33.6636,71.06,24.98,17.67,270,26,0,29.78,1004.9,6,35,"SCT","SCT",NA,NA,0,25000,NA,NA,"BLDU",NA,NA,NA,36,280,"2014-03-27 17:40",68.7,"KLBB 271753Z 27026G35KT 6SM BLDU SCT000 SCT250 22/M04 A2978 RMK AO2 PK WND 28036/1740 SLP049 VIS 2 SW-W BLDU SCT000 T02171039 10217 20094 51003"
"119828","LBB","2014-03-27 18:53:00",-101.8228,33.6636,73.04,24.08,15.91,270,22,0,29.76,1004.1,4,38,"SCT",NA,NA,NA,0,NA,NA,NA,"BLDU",NA,NA,NA,39,270,"2014-03-27 18:25",70.79,"KLBB 271853Z 27022G38KT 4SM BLDU SCT000 23/M04 A2976 RMK AO2 PK WND 27039/1825 SLP041 BLDU SCT000 T02281044"
"119829","LBB","2014-03-27 19:53:00",-101.8228,33.6636,73.94,23,14.76,260,28,0,29.75,1003.6,6,34,"SCT","SCT","SCT",NA,0,25000,30000,NA,"BLDU",NA,NA,NA,38,260,"2014-03-27 19:01",71.73,"KLBB 271953Z 26028G34KT 6SM BLDU SCT000 SCT250 SCT300 23/M05 A2975 RMK AO2 PK WND 26038/1901 SLP036 BLDU SCT000 T02331050"
"119921","LBB","2014-03-31 15:53:00",-101.8228,33.6636,69.08,17.96,14.04,300,24,0,29.91,1008.8,5,33,"FEW",NA,NA,NA,0,NA,NA,NA,"BLDU",NA,NA,NA,35,320,"2014-03-31 15:41",69.08,"KLBB 311553Z 30024G33KT 5SM BLDU FEW000 21/M08 A2991 RMK AO2 PK WND 32035/1541 SLP088 BLDU FEW000 T02061078"
"119922","LBB","2014-03-31 16:53:00",-101.8228,33.6636,73.04,14,10.34,300,27,0,29.91,1008.5,6,33,"FEW",NA,NA,NA,0,NA,NA,NA,"BLDU",NA,NA,NA,35,310,"2014-03-31 16:24",70.53,"KLBB 311653Z 30027G33KT 6SM BLDU FEW000 23/M10 A2991 RMK AO2 PK WND 31035/1624 SLP085 BLDU FEW000 T02281100"
"119970","LBB","2014-04-02 16:53:00",-101.8228,33.6636,80.06,14,8.19,260,29,0,29.77,1003.6,2.5,40,"FEW","FEW","BKN",NA,0,26000,30000,NA,"BLDU",NA,NA,NA,40,260,"2014-04-02 16:46",77.73,"KLBB 021653Z 26029G40KT 2 1/2SM R17R/5500VP6000FT BLDU FEW000 FEW260 BKN300 27/M10 A2977 RMK AO2 PK WND 26040/1646 SLP036 VIS SW-NW 2 BLDU FEW000 T02671100"
"119971","LBB","2014-04-02 17:10:00",-101.8228,33.6636,80.6,15.8,8.7,250,23,0,29.77,NA,4,34,"FEW","SCT","BKN",NA,0,26000,30000,NA,"BLDU",NA,NA,NA,NA,NA,NA,78.35,"KLBB 021710Z 25023G34KT 4SM BLDU FEW000 SCT260 BKN300 27/M09 A2977"
"119997","LBB","2014-04-03 18:53:00",-101.8228,33.6636,73.04,15.98,11.27,250,25,0,29.77,1004.2,6,36,"FEW","FEW",NA,NA,0,14000,NA,NA,"BLDU",NA,NA,NA,36,260,"2014-04-03 18:50",70.57,"KLBB 031853Z 25025G36KT 6SM BLDU FEW000 FEW140 23/M09 A2977 RMK AO2 PK WND 26036/1850 SLP042 BLDU FEW000 T02281089"
"119999","LBB","2014-04-03 20:13:00",-101.8228,33.6636,73.04,17.06,11.81,280,19,0,29.76,NA,6,35,"FEW",NA,NA,NA,12000,NA,NA,NA,"BLDU",NA,NA,NA,35,270,"2014-04-03 20:04",70.6,"KLBB 032013Z 28019G35KT 6SM BLDU FEW120 23/M08 A2976 RMK AO2 PK WND 27035/2004 VIS 4V7 T02281083"
"120000","LBB","2014-04-03 20:53:00",-101.8228,33.6636,71.06,15.08,11.59,290,25,0,29.77,1004.7,6,35,"FEW",NA,NA,NA,0,NA,NA,NA,"BLDU",NA,NA,NA,37,290,"2014-04-03 20:36",68.41,"KLBB 032053Z 29025G35KT 6SM BLDU FEW000 22/M09 A2977 RMK AO2 PK WND 29037/2036 SLP047 BLDU FEW000 VIS 4V7 T02171094 55004"
"120001","LBB","2014-04-03 21:49:00",-101.8228,33.6636,71.6,-2.2,5.18,270,29,0,29.8,NA,3,39,"BKN",NA,NA,NA,0,NA,NA,NA,"BLDU",NA,NA,NA,40,270,"2014-04-03 21:19",68.7,"KLBB 032149Z 27029G39KT 3SM BLDU BKN000 22/M19 A2980 RMK AO2 PK WND 27040/2119 BLDU BKN000 VIS 2 S-W"
"120002","LBB","2014-04-03 21:53:00",-101.8228,33.6636,69.98,-4,5.03,280,29,0,29.79,1005.4,3,39,"BKN",NA,NA,NA,0,NA,NA,NA,"BLDU",NA,NA,NA,40,270,"2014-04-03 21:19",69.98,"KLBB 032153Z 28029G39KT 3SM BLDU BKN000 21/M20 A2979 RMK AO2 PK WND 27040/2119 SLP054 BLDU BKN000 VIS 2 S-W T02111200"
"120003","LBB","2014-04-03 22:25:00",-101.8228,33.6636,68,-0.04,6.49,280,31,0,29.81,NA,4,37,"FEW","FEW",NA,NA,0,15000,NA,NA,"BLDU",NA,NA,NA,40,280,"2014-04-03 22:12",68,"KLBB 032225Z 28031G37KT 4SM BLDU FEW000 FEW150 20/M18 A2981 RMK AO2 PK WND 28040/2212 VIS 3 S-W T02001178"
"120008","LBB","2014-04-04 00:59:00",-101.8228,33.6636,62.96,8.06,11.23,330,27,0,29.88,NA,3,35,"SCT",NA,NA,NA,0,NA,NA,NA,"BLDU",NA,NA,NA,35,310,"2014-04-04 00:58",62.96,"KLBB 040059Z 33027G35KT 3SM BLDU SCT000 17/M13 A2988 RMK AO2 PK WND 31035/0058 BLDU SCT000 VIS DECREASING RAPIDLY T01721133"
"120009","LBB","2014-04-04 01:07:00",-101.8228,33.6636,59,28.04,30.53,360,24,0,29.91,NA,2,35,"SCT",NA,NA,NA,0,NA,NA,NA,"BLDU",NA,NA,NA,35,310,"2014-04-04 00:58",59,"KLBB 040107Z 36024G35KT 2SM BLDU SCT000 15/M02 A2991 RMK AO2 PK WND 31035/0058 WSHFT 0053 BLDU SCT000 T01501022"
"120010","LBB","2014-04-04 01:17:00",-101.8228,33.6636,57.92,28.04,31.74,360,24,0,29.91,NA,4,34,"FEW",NA,NA,NA,0,NA,NA,NA,"BLDU",NA,NA,NA,35,310,"2014-04-04 00:58",57.92,"KLBB 040117Z 36024G34KT 4SM BLDU FEW000 14/M02 A2991 RMK AO2 PK WND 31035/0058 WSHFT 0053 BLDU FEW000 T01441022"
"120011","LBB","2014-04-04 01:53:00",-101.8228,33.6636,55.04,28.94,36.54,360,22,0,29.96,1011.9,6,32,"CLR",NA,NA,NA,NA,NA,NA,NA,"BLDU",NA,NA,NA,35,310,"2014-04-04 00:58",55.04,"KLBB 040153Z 36022G32KT 6SM BLDU CLR 13/M02 A2996 RMK AO2 PK WND 31035/0058 WSHFT 0053 SLP119 T01281017"
"120012","LBB","2014-04-04 02:53:00",-101.8228,33.6636,50,26.96,40.55,360,22,0,30.02,1014,5,30,"CLR",NA,NA,NA,NA,NA,NA,NA,"BLDU",NA,NA,NA,34,360,"2014-04-04 02:19",42.68,"KLBB 040253Z 36022G30KT 5SM BLDU CLR 10/M03 A3002 RMK AO2 PK WND 36034/0219 SLP140 T01001028 53055"
"120110","LBB","2014-04-07 22:53:00",-101.8228,33.6636,60.98,26.06,26.22,350,32,0,30.02,1014.6,4,43,"FEW","BKN","BKN",NA,0,8500,27000,NA,"BLDU",NA,NA,NA,43,350,"2014-04-07 22:53",60.98,"KLBB 072253Z 35032G43KT 4SM BLDU FEW000 BKN085CB BKN270 16/M03 A3002 RMK AO2 PK WND 35043/2253 SLP146 CB W-NW-NE AND DSNT S-SW MOV S VIRGA W-NW-NE BLDU FEW000 T01611033"
"120200","LBB","2014-04-11 16:53:00",-101.8228,33.6636,71.06,37.94,29.83,70,10,0,30.05,1013.8,6,NA,"FEW","SCT","BKN",NA,0,26000,30000,NA,"BLDU",NA,NA,NA,NA,NA,NA,69.27,"KLBB 111653Z 07010KT 6SM BLDU FEW000 SCT260 BKN300 22/03 A3005 RMK AO2 SLP138 BLDU FEW000 T02170033"
"120201","LBB","2014-04-11 17:53:00",-101.8228,33.6636,75.02,35.96,24.14,40,8,0,30.03,1012.9,7,14,"CLR",NA,NA,NA,NA,NA,NA,NA,"BLDU",NA,NA,NA,NA,NA,NA,73.36,"KLBB 111753Z 04008G14KT 7SM BLDU CLR 24/02 A3003 RMK AO2 SLP129 T02390022 10244 20078 50002"
"120236","LBB","2014-04-13 04:22:00",-101.8228,33.6636,75.92,33.98,21.66,220,32,0,29.69,NA,3,41,"BKN","OVC",NA,NA,1500,3000,NA,NA,"BLDU",NA,NA,NA,NA,NA,NA,74.23,"KLBB 130422Z 22032G41KT 3SM BLDU BKN015 OVC030 24/01 A2969 RMK AO2 PK WND 22041/0420 BLDU BKN015 T02440011"
"120237","LBB","2014-04-13 04:53:00",-101.8228,33.6636,75.92,35.96,23.43,230,27,0,29.69,999.8,4,38,"BKN","OVC",NA,NA,1100,3000,NA,NA,"BLDU",NA,NA,NA,NA,NA,NA,74.31,"KLBB 130453Z 23027G38KT 4SM BLDU BKN011 OVC030 24/02 A2969 RMK AO2 PK WND 23043/0435 SLP998 BLDU BKN011 T02440022"
"120238","LBB","2014-04-13 05:16:00",-101.8228,33.6636,75.02,35.96,24.14,220,26,0,29.7,NA,6,34,"SCT","OVC",NA,NA,1100,3000,NA,NA,"BLDU",NA,NA,NA,NA,NA,NA,73.36,"KLBB 130516Z 22026G34KT 6SM BLDU SCT011 OVC030 24/02 A2970 RMK AO2 PK WND 21037/0502 BLDU SCT011 T02390022"
"120544","LBB","2014-04-24 11:02:00",-101.8228,33.6636,59,24.98,26.9,330,16,0,29.85,NA,3,NA,"SCT",NA,NA,NA,0,NA,NA,NA,"BLDU",NA,NA,NA,NA,NA,NA,59,"KLBB 241102Z 33016KT 3SM BLDU SCT000 15/M04 A2985 RMK AO2 BLDU SCT000 T01501039 $"
"120545","LBB","2014-04-24 11:15:00",-101.8228,33.6636,57.92,30.92,35.69,340,20,0,29.86,NA,2.5,NA,"SCT",NA,NA,NA,0,NA,NA,NA,"BLDU",NA,NA,NA,NA,NA,NA,57.92,"KLBB 241115Z 34020KT 2 1/2SM BLDU SCT000 14/M01 A2986 RMK AO2 BLDU SCT000 T01441006 $"
"120546","LBB","2014-04-24 11:47:00",-101.8228,33.6636,57.2,33.8,41.13,350,20,0,29.89,NA,1.75,28,"SCT",NA,NA,NA,0,NA,NA,NA,"BLDU",NA,NA,NA,28,360,"2014-04-24 11:46",57.2,"KLBB 241147Z 35020G28KT 1 3/4SM BLDU SCT000 14/01 A2989 RMK AO2 PK WND 36028/1146 BLDU SCT000"
"120547","LBB","2014-04-24 11:53:00",-101.8228,33.6636,57.02,33.08,40.22,350,18,0,29.89,1007.7,1.75,31,"SCT",NA,NA,NA,0,NA,NA,NA,"BLDU",NA,NA,NA,31,350,"2014-04-24 11:53",57.02,"KLBB 241153Z 35018G31KT 1 3/4SM BLDU SCT000 14/01 A2989 RMK AO2 PK WND 35031/1153 SLP077 BLDU SCT000 T01390006 10217 20139 51036"
"120548","LBB","2014-04-24 12:21:00",-101.8228,33.6636,53.96,33.08,44.95,350,20,0,29.92,NA,2.5,31,"SCT",NA,NA,NA,0,NA,NA,NA,"BLDU",NA,NA,NA,31,360,"2014-04-24 12:17",53.96,"KLBB 241221Z 35020G31KT 2 1/2SM BLDU SCT000 12/01 A2992 RMK AO2 PK WND 36031/1217 T01220006"
"120549","LBB","2014-04-24 12:29:00",-101.8228,33.6636,53.96,33.08,44.95,350,19,0,29.93,NA,3,27,"SCT",NA,NA,NA,0,NA,NA,NA,"BLDU",NA,NA,NA,31,360,"2014-04-24 12:17",53.96,"KLBB 241229Z 35019G27KT 3SM BLDU SCT000 12/01 A2993 RMK AO2 PK WND 36031/1217 PRESRR T01220006"
"120550","LBB","2014-04-24 12:53:00",-101.8228,33.6636,53.96,32,43.04,350,20,0,29.94,1009.7,5,30,"FEW",NA,NA,NA,0,NA,NA,NA,"BLDU",NA,NA,NA,31,360,"2014-04-24 12:17",53.96,"KLBB 241253Z 35020G30KT 5SM BLDU FEW000 12/00 A2994 RMK AO2 PK WND 36031/1217 SLP097 BLDU FEW000 T01220000"
"120551","LBB","2014-04-24 13:53:00",-101.8228,33.6636,53.96,33.98,46.6,360,22,0,29.99,1011.5,5,32,"FEW",NA,NA,NA,0,NA,NA,NA,"BLDU",NA,NA,NA,35,360,"2014-04-24 13:40",53.96,"KLBB 241353Z 36022G32KT 5SM BLDU FEW000 12/01 A2999 RMK AO2 PK WND 36035/1340 SLP115 T01220011"
"120616","LBB","2014-04-27 06:38:00",-101.8228,33.6636,69.08,28.94,22.26,310,20,0,29.59,NA,3,27,"FEW","BKN","OVC",NA,2500,3500,4400,NA,"BLDU",NA,NA,NA,30,270,"2014-04-27 06:28",69.08,"KLBB 270638Z 31020G27KT 3SM BLDU FEW025 BKN035 OVC044 21/M02 A2959 RMK AO2 PK WND 27030/0628 WSHFT 0618 PRESRR BLDU ALQDS T02061017"
"120617","LBB","2014-04-27 06:53:00",-101.8228,33.6636,66.02,30.92,26.81,300,17,0,29.6,996.7,3,25,"BKN","OVC",NA,NA,3000,4000,NA,NA,"BLDU",NA,NA,NA,30,270,"2014-04-27 06:28",66.02,"KLBB 270653Z 30017G25KT 3SM BLDU BKN030 OVC040 19/M01 A2960 RMK AO2 PK WND 27030/0628 WSHFT 0618 SLP967 BLDU ALQDS T01891006"
"120618","LBB","2014-04-27 07:53:00",-101.8228,33.6636,62.96,32,31.17,300,22,0,29.61,997.4,6,29,"BKN","OVC",NA,NA,3000,5500,NA,NA,"BLDU",NA,NA,NA,30,300,"2014-04-27 07:25",62.96,"KLBB 270753Z 30022G29KT 6SM BLDU BKN030 OVC055 17/00 A2961 RMK AO2 PK WND 30030/0725 SLP974 BLDU ALQDS T01720000"
"120627","LBB","2014-04-27 16:05:00",-101.8228,33.6636,66.92,21.02,17.24,260,24,0,29.57,NA,6,36,"FEW",NA,NA,NA,0,NA,NA,NA,"BLDU",NA,NA,NA,36,240,"2014-04-27 15:55",66.92,"KLBB 271605Z 26024G36KT 6SM BLDU FEW000 19/M06 A2957 RMK AO2 PK WND 24036/1555 BLDU FEW000 T01941061"
"120628","LBB","2014-04-27 16:53:00",-101.8228,33.6636,69.08,21.02,16,250,29,0,29.57,996.6,6,38,"SCT","SCT",NA,NA,0,28000,NA,NA,"BLDU",NA,NA,NA,39,260,"2014-04-27 16:12",69.08,"KLBB 271653Z 25029G38KT 6SM BLDU SCT000 SCT280 21/M06 A2957 RMK AO2 PK WND 26039/1612 SLP966 BLDU SCT000 T02061061"
"120629","LBB","2014-04-27 17:36:00",-101.8228,33.6636,71.06,21.02,14.96,260,31,0,29.56,NA,3,38,"SCT",NA,NA,NA,0,NA,NA,NA,"BLDU",NA,NA,NA,39,260,"2014-04-27 17:13",68.57,"KLBB 271736Z 26031G38KT 3SM BLDU SCT000 22/M06 A2956 RMK AO2 PK WND 26039/1713 BLDU SCT300 T02171061"
"120630","LBB","2014-04-27 17:53:00",-101.8228,33.6636,71.06,21.02,14.96,270,33,0,29.55,995.5,4,43,"SCT",NA,NA,NA,0,NA,NA,NA,"BLDU",NA,NA,NA,43,260,"2014-04-27 17:52",68.57,"KLBB 271753Z 27033G43KT 4SM BLDU SCT000 22/M06 A2955 RMK AO2 PK WND 26043/1752 SLP955 BLDU SCT300 T02171061 10217 20100 58010"
"120631","LBB","2014-04-27 18:12:00",-101.8228,33.6636,71.96,21.02,14.51,260,33,0,29.54,NA,2.5,45,"SCT",NA,NA,NA,0,NA,NA,NA,"BLDU",NA,NA,NA,45,260,"2014-04-27 18:11",69.54,"KLBB 271812Z 26033G45KT 2 1/2SM BLDU SCT000 22/M06 A2954 RMK AO2 PK WND 26045/1811 T02221061"
"120632","LBB","2014-04-27 18:55:00",-101.8228,33.6636,71.96,19.04,13.33,280,33,0,29.52,NA,1.75,42,"SCT",NA,NA,NA,0,NA,NA,NA,"BLDU",NA,NA,NA,39,270,"2014-04-27 18:55",69.48,"KLBB 271855Z 28033G42KT 1 3/4SM R17R/5000VP6000FT BLDU SCT000 22/M07 A2952 RMK AO2 PK WND 27039/1855 T02221072"
"120633","LBB","2014-04-27 19:13:00",-101.8228,33.6636,73.04,17.96,12.27,270,32,0,29.52,NA,2,42,"SCT",NA,NA,NA,0,NA,NA,NA,"BLDU",NA,NA,NA,43,260,"2014-04-27 19:01",70.62,"KLBB 271913Z 27032G42KT 2SM BLDU SCT000 23/M08 A2952 RMK AO2 PK WND 26043/1901 BLDU SCT000 T02281078"
"120634","LBB","2014-04-27 19:53:00",-101.8228,33.6636,71.96,19.94,13.86,270,34,0,29.53,995.6,2,45,"SCT","SCT",NA,NA,0,9000,NA,NA,"BLDU",NA,NA,NA,47,280,"2014-04-27 19:24",69.51,"KLBB 271953Z 27034G45KT 2SM BLDU SCT000 SCT090 22/M07 A2953 RMK AO2 PK WND 28047/1924 SLP956 VIS W-N LWR BLDU SCT000 T02221067"
"120635","LBB","2014-04-27 19:55:00",-101.8228,33.6636,71.96,19.94,13.86,270,31,0,29.53,NA,1.75,45,"SCT",NA,NA,NA,0,NA,NA,NA,"BLDU",NA,NA,NA,39,270,"2014-04-27 19:55",69.51,"KLBB 271955Z 27031G45KT 1 3/4SM BLDU SCT000 22/M07 A2953 RMK AO2 PK WND 27039/1955 BLDU SCT200 T02221067"
"120636","LBB","2014-04-27 20:03:00",-101.8228,33.6636,71.96,21.02,14.51,280,36,0,29.52,NA,2,48,"SCT","SCT",NA,NA,0,9000,NA,NA,"BLDU",NA,NA,NA,48,270,"2014-04-27 19:59",69.54,"KLBB 272003Z 28036G48KT 2SM BLDU SCT000 SCT090 22/M06 A2952 RMK AO2 PK WND 27048/1959 BLDU SCT000 T02221061"
"120637","LBB","2014-04-27 20:32:00",-101.8228,33.6636,73.04,19.04,12.86,270,34,0,29.52,NA,1.5,47,"SCT","SCT",NA,NA,0,9000,NA,NA,"BLDU",NA,NA,NA,48,270,"2014-04-27 19:59",70.65,"KLBB 272032Z 27034G47KT 1 1/2SM R17R/6000VP6000FT BLDU SCT000 SCT090 23/M07 A2952 RMK AO2 PK WND 27048/1959 BLDU SCT000 T02281072"
"120638","LBB","2014-04-27 20:48:00",-101.8228,33.6636,71.6,19.4,13.71,270,39,0,29.51,NA,2,47,"SCT","BKN",NA,NA,0,9000,NA,NA,"BLDU",NA,NA,NA,48,270,"2014-04-27 19:59",69.1,"KLBB 272048Z 27039G47KT 2SM R17R/5500VP6000FT BLDU SCT000 BKN090 22/M07 A2951 RMK AO2 PK WND 27048/1959 BLDU SCT000"
"120639","LBB","2014-04-27 20:53:00",-101.8228,33.6636,71.96,19.94,13.86,260,38,0,29.51,995.3,1,47,"SCT","BKN",NA,NA,0,9000,NA,NA,"BLDU",NA,NA,NA,48,270,"2014-04-27 19:59",69.51,"KLBB 272053Z 26038G47KT 1SM R17R/5500VP6000FT BLDU SCT000 BKN090 22/M07 A2951 RMK AO2 PK WND 27048/1959 SLP953 BLDU SCT000 T02221067 56009"
"120640","LBB","2014-04-27 21:35:00",-101.8228,33.6636,73.04,19.94,13.36,270,31,0,29.51,NA,2,46,"SCT","SCT",NA,NA,0,10000,NA,NA,"BLDU",NA,NA,NA,50,260,"2014-04-27 21:10",70.67,"KLBB 272135Z 27031G46KT 2SM BLDU SCT000 SCT100 23/M07 A2951 RMK AO2 PK WND 26050/2110 T02281067"
"120641","LBB","2014-04-27 21:53:00",-101.8228,33.6636,71.96,19.04,13.33,260,31,0,29.5,995.2,1,49,"SCT","SCT",NA,NA,0,10000,NA,NA,"BLDU",NA,NA,NA,50,260,"2014-04-27 21:10",69.48,"KLBB 272153Z 26031G49KT 1SM BLDU SCT000 SCT100 22/M07 A2950 RMK AO2 PK WND 26050/2110 SLP952 BLDU SCT000 T02221072 RVRNO"
"120642","LBB","2014-04-27 22:53:00",-101.8228,33.6636,71.06,17.96,13.13,270,33,0,29.5,995.1,2,44,"SCT","SCT",NA,NA,0,10000,NA,NA,"BLDU",NA,NA,NA,50,260,"2014-04-27 22:03",68.48,"KLBB 272253Z 27033G44KT 2SM R17R/5000VP6000FT BLDU SCT000 SCT100 22/M08 A2950 RMK AO2 PK WND 26050/2203 SLP951 BLDU SCT000 T02171078"
"120643","LBB","2014-04-27 23:07:00",-101.8228,33.6636,71.06,17.06,12.63,260,37,0,29.49,NA,1,48,"SCT","SCT",NA,NA,0,10000,NA,NA,"BLDU",NA,NA,NA,48,270,"2014-04-27 23:01",68.46,"KLBB 272307Z 26037G48KT 1SM R17R/P6000FT BLDU SCT000 SCT100 22/M08 A2949 RMK AO2 PK WND 27048/2301 BLDU SCT000 T02171083"
"120644","LBB","2014-04-27 23:53:00",-101.8228,33.6636,71.06,15.08,11.59,270,29,0,29.51,995.9,2,43,"SCT","SCT",NA,NA,0,12000,NA,NA,"BLDU",NA,NA,NA,48,270,"2014-04-27 23:41",68.41,"KLBB 272353Z 27029G43KT 2SM BLDU SCT000 SCT120 22/M09 A2951 RMK AO2 PK WND 27048/2341 SLP959 BLDU SCT000 T02171094 10233 20217 55001"
"120645","LBB","2014-04-28 00:41:00",-101.8228,33.6636,69.98,17.06,13.1,280,25,0,29.52,NA,3,40,"SCT","SCT",NA,NA,0,12000,NA,NA,"BLDU",NA,NA,NA,45,260,"2014-04-28 00:16",69.98,"KLBB 280041Z 28025G40KT 3SM BLDU SCT000 SCT120 21/M08 A2952 RMK AO2 PK WND 26045/0016 BLDU SCT000 T02111083"
"120646","LBB","2014-04-28 00:53:00",-101.8228,33.6636,69.08,17.06,13.51,280,28,0,29.53,996.3,3,42,"SCT","SCT",NA,NA,0,12000,NA,NA,"BLDU",NA,NA,NA,45,260,"2014-04-28 00:16",69.08,"KLBB 280053Z 28028G42KT 3SM BLDU SCT000 SCT120 21/M08 A2953 RMK AO2 PK WND 26045/0016 SLP963 BLDU SCT000 T02061083"
"120647","LBB","2014-04-28 01:53:00",-101.8228,33.6636,66.92,15.98,13.89,280,25,0,29.55,996.9,5,32,"FEW",NA,NA,NA,0,NA,NA,NA,"BLDU",NA,NA,NA,41,270,"2014-04-28 01:03",66.92,"KLBB 280153Z 28025G32KT 5SM BLDU FEW000 19/M09 A2955 RMK AO2 PK WND 27041/0103 SLP969 BLDU FEW000 T01941089"
"120664","LBB","2014-04-28 18:44:00",-101.8228,33.6636,75.92,15.08,9.84,300,27,0,29.69,NA,6,38,"FEW","FEW",NA,NA,0,11000,NA,NA,"BLDU",NA,NA,NA,38,290,"2014-04-28 17:57",73.67,"KLBB 281844Z 30027G38KT 6SM BLDU FEW000 FEW110 24/M09 A2969 RMK AO2 PK WND 29038/1757 BLDU FEW000 T02441094"
"120665","LBB","2014-04-28 18:53:00",-101.8228,33.6636,73.94,12.92,9.56,300,26,0,29.69,1001.3,6,37,"FEW","FEW",NA,NA,0,11000,NA,NA,"BLDU",NA,NA,NA,38,290,"2014-04-28 17:57",71.48,"KLBB 281853Z 30026G37KT 6SM BLDU FEW000 FEW110 23/M11 A2969 RMK AO2 PK WND 29038/1757 SLP013 BLDU FEW000 T02331106"
"120666","LBB","2014-04-28 19:39:00",-101.8228,33.6636,78.08,12.02,8.01,290,33,0,29.66,NA,2.5,44,"SCT","BKN",NA,NA,0,2800,NA,NA,"BLDU",NA,NA,NA,47,300,"2014-04-28 19:21",75.96,"KLBB 281939Z 29033G44KT 2 1/2SM BLDU SCT000 BKN028 26/M11 A2966 RMK AO2 PK WND 30047/1921 BLDU FEW000 T02561111"
"120667","LBB","2014-04-28 19:53:00",-101.8228,33.6636,77,10.94,7.91,290,24,0,29.66,1000.4,4,40,"SCT","BKN",NA,NA,0,2600,NA,NA,"BLDU",NA,NA,NA,47,300,"2014-04-28 19:21",74.77,"KLBB 281953Z 29024G40KT 4SM BLDU SCT000 BKN026 25/M12 A2966 RMK AO2 PK WND 30047/1921 SLP004 BLDU FEW000 T02501117"
"120668","LBB","2014-04-28 20:44:00",-101.8228,33.6636,73.04,17.06,11.81,260,31,0,29.66,NA,3,44,"SCT","BKN",NA,NA,0,12000,NA,NA,"BLDU",NA,NA,NA,47,280,"2014-04-28 20:10",70.6,"KLBB 282044Z 26031G44KT 3SM BLDU SCT000 BKN120 23/M08 A2966 RMK AO2 PK WND 28047/2010 VIS S-W 3 T02281083"
"120669","LBB","2014-04-28 20:53:00",-101.8228,33.6636,73.04,17.96,12.27,280,27,0,29.66,1001.2,3,42,"SCT","BKN",NA,NA,0,4000,NA,NA,"BLDU",NA,NA,NA,47,280,"2014-04-28 20:10",70.62,"KLBB 282053Z 28027G42KT 3SM BLDU SCT000 BKN040 23/M08 A2966 RMK AO2 PK WND 28047/2010 SLP012 VIS S-W 1 1/2 T02281078 55018"
"120670","LBB","2014-04-28 21:44:00",-101.8228,33.6636,75.02,14,9.67,280,33,0,29.65,NA,2.5,43,"SCT","BKN",NA,NA,0,3500,NA,NA,"BLDU",NA,NA,NA,45,280,"2014-04-28 21:24",72.68,"KLBB 282144Z 28033G43KT 2 1/2SM R17R/5500VP6000FT BLDU SCT000 BKN035 24/M10 A2965 RMK AO2 PK WND 28045/2124 VIS S-W 1 1/2 BLDU SCT000 T02391100"
"120671","LBB","2014-04-28 21:53:00",-101.8228,33.6636,75.02,12.02,8.86,290,40,0,29.64,1000.3,2.5,49,"SCT","BKN",NA,NA,0,3500,NA,NA,"BLDU",NA,NA,NA,49,290,"2014-04-28 21:52",72.64,"KLBB 282153Z 29040G49KT 2 1/2SM BLDU SCT000 BKN035 24/M11 A2964 RMK AO2 PK WND 29049/2152 SLP003 VIS S-W 1 BLDU SCT000 T02391111"
"120672","LBB","2014-04-28 22:35:00",-101.8228,33.6636,73.94,12.92,9.56,300,35,0,29.64,NA,1.75,45,"SCT","BKN",NA,NA,2800,3800,NA,NA,"BLDU",NA,NA,NA,47,290,"2014-04-28 22:09",71.48,"KLBB 282235Z 30035G45KT 1 3/4SM BLDU SCT028 BKN038 23/M11 A2964 RMK AO2 PK WND 29047/2209 TWR VIS 2 1/2 VIS SE-SW-W 1 BLDU SCT000 T02331106"
"120673","LBB","2014-04-28 22:53:00",-101.8228,33.6636,73.94,15.08,10.51,280,30,0,29.64,1000.5,1,50,"SCT","OVC",NA,NA,0,3800,NA,NA,"BLDU",NA,NA,NA,50,290,"2014-04-28 22:44",71.53,"KLBB 282253Z 28030G50KT 1SM BLDU SCT000 OVC038 23/M09 A2964 RMK AO2 PK WND 29050/2244 TWR VIS 2 1/2 SLP005 BLDU SCT000 T02331094 RVRNO"
"120674","LBB","2014-04-28 23:17:00",-101.8228,33.6636,73.94,15.08,10.51,290,34,0,29.64,NA,2.5,46,"SCT","SCT",NA,NA,0,3800,NA,NA,"BLDU",NA,NA,NA,48,290,"2014-04-28 22:58",71.53,"KLBB 282317Z 29034G46KT 2 1/2SM R17R/6000VP6000FT BLDU SCT000 SCT038 23/M09 A2964 RMK AO2 PK WND 29048/2258 BLDU SCT000 T02331094"
"120675","LBB","2014-04-28 23:53:00",-101.8228,33.6636,73.04,15.08,10.84,290,31,0,29.65,1000.7,2.5,41,"SCT","SCT",NA,NA,0,4100,NA,NA,"BLDU",NA,NA,NA,48,290,"2014-04-28 22:58",70.55,"KLBB 282353Z 29031G41KT 2 1/2SM BLDU SCT000 SCT041 23/M09 A2965 RMK AO2 PK WND 29048/2258 SFC VIS 3 SLP007 BLDU SCT000 T02281094 10256 20228 55004"
"120676","LBB","2014-04-29 00:05:00",-101.8228,33.6636,73.04,15.08,10.84,290,35,0,29.65,NA,3,45,"SCT","SCT",NA,NA,0,3200,NA,NA,"BLDU",NA,NA,NA,45,280,"2014-04-29 00:04",70.55,"KLBB 290005Z 29035G45KT 3SM BLDU SCT000 SCT032 23/M09 A2965 RMK AO2 PK WND 28045/0004 SFC VIS 4 BLDU SCT000 T02281094"
"120677","LBB","2014-04-29 00:53:00",-101.8228,33.6636,71.06,15.08,11.59,300,29,0,29.66,1001.1,5,39,"FEW",NA,NA,NA,0,NA,NA,NA,"BLDU",NA,NA,NA,45,280,"2014-04-29 00:04",68.41,"KLBB 290053Z 30029G39KT 5SM BLDU FEW000 22/M09 A2966 RMK AO2 PK WND 28045/0004 SLP011 BLDU FEW000 T02171094"
"120693","LBB","2014-04-29 15:33:00",-101.8228,33.6636,59,21.02,22.78,350,27,0,30.02,NA,6,42,"FEW",NA,NA,NA,0,NA,NA,NA,"BLDU",NA,NA,NA,42,350,"2014-04-29 15:24",59,"KLBB 291533Z 35027G42KT 6SM BLDU FEW000 15/M06 A3002 RMK AO2 PK WND 35042/1524 BLDU FEW000 T01501061"
"120694","LBB","2014-04-29 15:53:00",-101.8228,33.6636,60.08,19.94,20.93,340,29,0,30.01,1013,5,39,"FEW",NA,NA,NA,0,NA,NA,NA,"BLDU",NA,NA,NA,42,350,"2014-04-29 15:24",60.08,"KLBB 291553Z 34029G39KT 5SM BLDU FEW000 16/M07 A3001 RMK AO2 PK WND 35042/1524 SLP130 BLDU FEW000 VIS SW-NW 3 T01561067"
"120695","LBB","2014-04-29 16:53:00",-101.8228,33.6636,60.98,21.02,21.23,340,33,0,30.01,1013.6,4,44,"SCT","SCT",NA,NA,0,9000,NA,NA,"BLDU",NA,NA,NA,44,360,"2014-04-29 16:48",60.98,"KLBB 291653Z 34033G44KT 4SM BLDU SCT000 SCT090 16/M06 A3001 RMK AO2 PK WND 36044/1648 SLP136 BLDU SCT000 T01611061"
"120696","LBB","2014-04-29 17:17:00",-101.8228,33.6636,60.98,19.04,19.51,340,28,0,30.02,NA,2,43,"SCT","SCT",NA,NA,0,3200,NA,NA,"BLDU",NA,NA,NA,47,340,"2014-04-29 17:04",60.98,"KLBB 291717Z 34028G43KT 2SM BLDU SCT000 SCT032 16/M07 A3002 RMK AO2 PK WND 34047/1704 BLDU SCT000 T01611072"
"120697","LBB","2014-04-29 17:30:00",-101.8228,33.6636,62.06,19.04,18.78,340,27,0,30.02,NA,1,41,"SCT","SCT",NA,NA,0,3200,NA,NA,"BLDU",NA,NA,NA,47,340,"2014-04-29 17:04",62.06,"KLBB 291730Z 34027G41KT 1SM R17R/P6000FT BLDU SCT000 SCT032 17/M07 A3002 RMK AO2 PK WND 34047/1704 BLDU SCT000 T01671072"
"120698","LBB","2014-04-29 17:39:00",-101.8228,33.6636,62.06,19.04,18.78,350,22,0,30.01,NA,0.75,45,"SCT","OVC",NA,NA,0,3200,NA,NA,"BLDU",NA,NA,NA,47,340,"2014-04-29 17:04",62.06,"KLBB 291739Z 35022G45KT 3/4SM R17R/P6000FT BLDU SCT000 OVC032 17/M07 A3001 RMK AO2 PK WND 34047/1704 BLDU SCT000 T01671072"
"120699","LBB","2014-04-29 17:53:00",-101.8228,33.6636,62.06,19.94,19.51,350,29,0,30.01,1013.5,0.75,37,"SCT","OVC",NA,NA,0,3500,NA,NA,"BLDU",NA,NA,NA,47,340,"2014-04-29 17:04",62.06,"KLBB 291753Z 35029G37KT 3/4SM R17R/P6000FT BLDU SCT000 OVC035 17/M07 A3001 RMK AO2 PK WND 34047/1704 SLP135 BLDU SCT000 T01671067 10167 20072 56006"
"120700","LBB","2014-04-29 18:00:00",-101.8228,33.6636,62.96,19.04,18.19,340,22,0,30.01,NA,2.5,37,"OVC",NA,NA,NA,2900,NA,NA,NA,"BLDU",NA,NA,NA,37,330,"2014-04-29 17:57",62.96,"KLBB 291800Z 34022G37KT 2 1/2SM BLDU OVC029 17/M07 A3001 RMK AO2 PK WND 33037/1757 T01721072"
"120701","LBB","2014-04-29 18:19:00",-101.8228,33.6636,62.96,19.94,18.9,340,26,0,30,NA,3,41,"FEW","BKN","OVC",NA,2500,3100,4000,NA,"BLDU",NA,NA,NA,42,330,"2014-04-29 18:02",62.96,"KLBB 291819Z 34026G41KT 3SM BLDU FEW025 BKN031 OVC040 17/M07 A3000 RMK AO2 PK WND 33042/1802 T01721067"
"120702","LBB","2014-04-29 18:25:00",-101.8228,33.6636,64.04,19.04,17.52,340,27,0,30,NA,3,41,"SCT","OVC",NA,NA,0,3600,NA,NA,"BLDU",NA,NA,NA,42,330,"2014-04-29 18:02",64.04,"KLBB 291825Z 34027G41KT 3SM BLDU SCT000 OVC036 18/M07 A3000 RMK AO2 PK WND 33042/1802 BLDU SCT000 T01781072"
"120703","LBB","2014-04-29 18:53:00",-101.8228,33.6636,64.04,17.96,16.72,340,26,0,30,1013.2,5,41,"FEW","SCT",NA,NA,0,4000,NA,NA,"BLDU",NA,NA,NA,42,330,"2014-04-29 18:02",64.04,"KLBB 291853Z 34026G41KT 5SM BLDU FEW000 SCT040 18/M08 A3000 RMK AO2 PK WND 33042/1802 SLP132 BLDU FEW000 T01781078"
"120704","LBB","2014-04-29 19:53:00",-101.8228,33.6636,66.02,15.98,14.33,350,22,0,30,1013.1,3,42,"SCT","BKN",NA,NA,0,3700,NA,NA,"BLDU",NA,NA,NA,42,320,"2014-04-29 19:44",66.02,"KLBB 291953Z 35022G42KT 3SM BLDU SCT000 BKN037 19/M09 A3000 RMK AO2 PK WND 32042/1944 SLP131 BLDU SCT000 T01891089"
"120705","LBB","2014-04-29 20:53:00",-101.8228,33.6636,64.94,17.96,16.2,340,25,0,30,1013.2,3,31,"SCT","SCT","BKN",NA,0,2900,3000,NA,"BLDU",NA,NA,NA,39,330,"2014-04-29 20:07",64.94,"KLBB 292053Z 34025G31KT 3SM BLDU SCT000 SCT029 BKN030 18/M08 A3000 RMK AO2 PK WND 33039/2007 SFC VIS 4 SLP132 T01831078 56003"
"120706","LBB","2014-04-29 21:53:00",-101.8228,33.6636,64.04,21.02,19.06,340,23,0,30,1013.5,4,34,"SCT","BKN",NA,NA,0,3200,NA,NA,"BLDU",NA,NA,NA,38,350,"2014-04-29 21:13",64.04,"KLBB 292153Z 34023G34KT 4SM BLDU SCT000 BKN032 18/M06 A3000 RMK AO2 PK WND 35038/2113 SLP135 BLDU SCT000 T01781061"
"120707","LBB","2014-04-29 22:53:00",-101.8228,33.6636,62.06,21.92,21.22,360,22,0,30.01,1013.9,3,30,"SCT","BKN",NA,NA,0,3400,NA,NA,"BLDU",NA,NA,NA,36,340,"2014-04-29 22:31",62.06,"KLBB 292253Z 36022G30KT 3SM BLDU SCT000 BKN034 17/M06 A3001 RMK AO2 PK WND 34036/2231 SLP139 BLDU SCT000 T01671056"
"120708","LBB","2014-04-29 23:53:00",-101.8228,33.6636,60.98,21.92,22.05,350,19,0,30.02,1014.4,3,29,"SCT","BKN","BKN",NA,0,3200,4500,NA,"BLDU",NA,NA,NA,36,340,"2014-04-29 23:17",60.98,"KLBB 292353Z 35019G29KT 3SM BLDU SCT000 BKN032 BKN045 16/M06 A3002 RMK AO2 PK WND 34036/2317 SLP144 BLDU SCT000 T01611056 10194 20161 53007"
"120709","LBB","2014-04-30 00:19:00",-101.8228,33.6636,60.98,23,23.08,20,20,0,30.03,NA,2.5,26,"SCT","BKN","BKN",NA,0,3300,4500,NA,"BLDU",NA,NA,NA,NA,NA,NA,60.98,"KLBB 300019Z 02020G26KT 2 1/2SM BLDU SCT000 BKN033 BKN045 16/M05 A3003 RMK AO2 PK WND 36028/2356 BLDU SCT000 T01611050"
"120710","LBB","2014-04-30 00:53:00",-101.8228,33.6636,60.08,21.92,22.77,360,14,0,30.04,1015.2,2.5,NA,"SCT","SCT",NA,NA,0,3100,NA,NA,"BLDU",NA,NA,NA,NA,NA,NA,60.08,"KLBB 300053Z 36014KT 2 1/2SM BLDU SCT000 SCT031 16/M06 A3004 RMK AO2 PK WND 36028/2356 SLP152 BLDU SCT000 T01561056"
"120711","LBB","2014-04-30 01:53:00",-101.8228,33.6636,57.92,21.92,24.6,360,11,0,30.06,1015.5,2,NA,"SCT","SCT",NA,NA,0,3900,NA,NA,"BLDU",NA,NA,NA,NA,NA,NA,57.92,"KLBB 300153Z 36011KT 2SM BLDU SCT000 SCT039 14/M06 A3006 RMK AO2 SFC VIS 2 1/2 SLP155 BLDU SCT000 T01441056"
"120712","LBB","2014-04-30 02:53:00",-101.8228,33.6636,55.94,21.92,26.42,10,12,0,30.09,1016.4,4,20,"SCT","SCT",NA,NA,0,4000,NA,NA,"BLDU",NA,NA,NA,NA,NA,NA,55.94,"KLBB 300253Z 01012G20KT 4SM BLDU SCT000 SCT040 13/M06 A3009 RMK AO2 SLP164 BLDU SCT000 T01331056 53022"
"120713","LBB","2014-04-30 03:53:00",-101.8228,33.6636,53.96,24.08,31.09,20,14,0,30.12,1017.5,4,NA,"SCT",NA,NA,NA,0,NA,NA,NA,"DU",NA,NA,NA,NA,NA,NA,53.96,"KLBB 300353Z 02014KT 4SM DU SCT000 12/M04 A3012 RMK AO2 SLP175 DU SCT000 T01221044"
"120714","LBB","2014-04-30 04:53:00",-101.8228,33.6636,53.06,24.98,33.36,10,10,0,30.14,1018.1,4,NA,"SCT",NA,NA,NA,0,NA,NA,NA,"DU",NA,NA,NA,NA,NA,NA,53.06,"KLBB 300453Z 01010KT 4SM DU SCT000 12/M04 A3014 RMK AO2 SLP181 DU SCT000 T01171039"
"120715","LBB","2014-04-30 05:53:00",-101.8228,33.6636,51.98,26.06,36.31,10,9,0,30.16,1018.7,4,NA,"SCT","BKN",NA,NA,0,11000,NA,NA,"DU",NA,NA,NA,NA,NA,NA,51.98,"KLBB 300553Z 01009KT 4SM DU SCT000 BKN110 11/M03 A3016 RMK AO2 SLP187 DU SCT000 T01111033 10161 20111 401940072 51021"
"120716","LBB","2014-04-30 06:53:00",-101.8228,33.6636,50,26.06,39.07,350,15,0,30.17,1019.1,6,NA,"FEW","SCT",NA,NA,0,11000,NA,NA,"DU",NA,NA,NA,NA,NA,NA,44.12,"KLBB 300653Z 35015KT 6SM DU FEW000 SCT110 10/M03 A3017 RMK AO2 SLP191 DU FEW000 T01001033"
"120875","LBB","2014-05-06 20:53:00",-101.8228,33.6636,93.92,19.94,6.81,220,24,0,29.68,999.4,6,35,"FEW",NA,NA,NA,16000,NA,NA,NA,"BLDU",NA,NA,NA,37,220,"2014-05-06 20:29",87.74,"KLBB 062053Z 22024G35KT 6SM BLDU FEW160 34/M07 A2968 RMK AO2 PK WND 22037/2029 SLP994 T03441067 58023"
"121011","LBB","2014-05-12 07:39:00",-101.8228,33.6636,59,42.98,55.24,360,31,0,29.75,NA,2,40,"BKN","BKN",NA,NA,2500,4000,NA,NA,"BLDU",NA,NA,NA,40,360,"2014-05-12 07:38",59,"KLBB 120739Z 36031G40KT 2SM BLDU BKN025 BKN040 15/06 A2975 RMK AO2 PK WND 36040/0738 WSHFT 0725 BLDU ALQDS T01500061"
"121012","LBB","2014-05-12 07:53:00",-101.8228,33.6636,55.94,39.92,54.8,360,27,0,29.79,1003.5,4,36,"BKN","BKN",NA,NA,2700,3400,NA,NA,"BLDU",NA,NA,NA,40,360,"2014-05-12 07:38",55.94,"KLBB 120753Z 36027G36KT 4SM BLDU BKN027 BKN034 13/04 A2979 RMK AO2 PK WND 36040/0738 WSHFT 0725 SLP035 BLDU ALQDS T01330044"
"121013","LBB","2014-05-12 08:06:00",-101.8228,33.6636,55.04,39.92,56.62,360,22,0,29.8,NA,5,36,"FEW","SCT","BKN",NA,2700,3300,4300,NA,"BLDU",NA,NA,NA,36,360,"2014-05-12 07:59",55.04,"KLBB 120806Z 36022G36KT 5SM BLDU FEW027 SCT033 BKN043 13/04 A2980 RMK AO2 PK WND 36036/0759 BLDU ALQDS T01280044"
"121014","LBB","2014-05-12 08:53:00",-101.8228,33.6636,51.98,37.94,58.62,360,22,0,29.82,1004.9,7,34,"BKN",NA,NA,NA,3500,NA,NA,NA,"BLDU",NA,NA,NA,36,360,"2014-05-12 08:09",51.98,"KLBB 120853Z 36022G34KT 7SM BLDU BKN035 11/03 A2982 RMK AO2 PK WND 36036/0809 SLP049 BLDU ALQDS T01110033 53042"
"121132","LBB","2014-05-17 06:14:00",-101.8228,33.6636,68,33.08,27.31,20,22,0,29.94,NA,4,31,"SCT","SCT","BKN",NA,1700,11000,30000,NA,"BLDU",NA,NA,NA,31,10,"2014-05-17 06:02",68,"KLBB 170614Z 02022G31KT 4SM BLDU SCT017 SCT110 BKN300 20/01 A2994 RMK AO2 PK WND 01031/0602 WSHFT 0554 BLDU ALQDS T02000006 $"
"121248","LBB","2014-05-22 00:44:00",-101.8228,33.6636,82.94,48.92,30.63,280,22,0,30,NA,3,27,"FEW","SCT","BKN","BKN",9000,12000,15000,30000,"TS BLDU",NA,NA,NA,27,270,"2014-05-22 00:43",81.23,"KLBB 220044Z 28022G27KT 3SM R17R/2600VP6000FT TS BLDU FEW090CB SCT120 BKN150 BKN300 28/09 A3000 RMK AO2 PK WND 27027/0043 TSB38 PRESRR FRQ LTGICCG W-NW TS W-NW MOV NE CB DSNT SW MOV NE T02830094"
"121249","LBB","2014-05-22 00:53:00",-101.8228,33.6636,75.92,51.08,41.8,300,28,1e-04,30,1011.2,5,35,"BKN","BKN","BKN",NA,9000,12000,30000,NA,"-TSRA BLDU",NA,NA,NA,35,290,"2014-05-22 00:50",75.92,"KLBB 220053Z 30028G35KT 5SM -TSRA BLDU BKN090CB BKN120 BKN300 24/11 A3000 RMK AO2 PK WND 29035/0050 RAB53 TSB38 SLP112 OCNL LTGICCG W-NW TS W-NW MOV NE CB DSNT SW MOV NE P0000 T02440106"
"121250","LBB","2014-05-22 01:00:00",-101.8228,33.6636,75.02,51.98,44.53,310,25,1e-04,30,NA,5,34,"FEW","BKN",NA,NA,1300,9000,NA,NA,"-TSRA BLDU",NA,NA,NA,34,310,"2014-05-22 01:00",75.02,"KLBB 220100Z 31025G34KT 5SM -TSRA BLDU FEW013 BKN090 24/11 A3000 RMK AO2 PK WND 31034/0100 WSHFT 0042 LTG DSNT SW-N P0000 T02390111"
"122027","LBB","2014-06-16 15:53:00",-101.8228,33.6636,80.96,62.96,54.35,210,14,0,29.98,1009.5,5,23,"FEW","FEW","SCT","BKN",0,13000,26000,30000,"BLDU",NA,NA,NA,NA,NA,NA,82.24,"KLBB 161553Z 21014G23KT 5SM BLDU FEW000 FEW130 SCT260 BKN300 27/17 A2998 RMK AO2 SLP095 BLDU FEW000 T02720172"
"122028","LBB","2014-06-16 16:53:00",-101.8228,33.6636,84.02,64.04,51.12,200,18,0,29.97,1009.1,5,NA,"FEW","SCT","BKN",NA,0,26000,30000,NA,"BLDU",NA,NA,NA,NA,NA,NA,85.4,"KLBB 161653Z 20018KT 5SM BLDU FEW000 SCT260 BKN300 29/18 A2997 RMK AO2 SLP091 BLDU FEW000 T02890178"
"122029","LBB","2014-06-16 17:53:00",-101.8228,33.6636,87.08,64.04,46.35,200,13,0,29.97,1008.9,6,NA,"FEW","SCT","BKN",NA,0,26000,30000,NA,"BLDU",NA,NA,NA,NA,NA,NA,88.42,"KLBB 161753Z 20013KT 6SM BLDU FEW000 SCT260 BKN300 31/18 A2997 RMK AO2 SLP089 BLDU FEW000 T03060178 10306 20222 58002"
"122063","LBB","2014-06-18 02:53:00",-101.8228,33.6636,80.06,62.06,54.23,200,27,1e-04,29.94,1008.3,6,35,"SCT","BKN","BKN",NA,5000,17000,30000,NA,"-TSRA BLDU",NA,NA,NA,35,190,"2014-06-18 02:44",81.27,"KLBB 180253Z 20027G35KT 6SM -TSRA BLDU SCT050CB BKN170 BKN300 27/17 A2994 RMK AO2 PK WND 19035/0244 RAB52 TSB38 PRESRR SLP083 CONS LTGICCACG SE-SW TS SE-SW MOV NE SLO P0000 60000 T02670167 53022"
"122066","LBB","2014-06-18 04:53:00",-101.8228,33.6636,80.06,48.92,33.65,160,29,0,29.92,1007.3,6,44,"FEW","BKN","OVC",NA,5000,16000,23000,NA,"BLDU",NA,NA,NA,44,150,"2014-06-18 04:47",80.06,"KLBB 180453Z 16029G44KT 6SM BLDU FEW050 BKN160 OVC230 27/09 A2992 RMK AO2 PK WND 15044/0447 SLP073 OCNL LTG DSNT SE-S AND SW-NW CB DSNT SE-S AND SW-NW T02670094"
"126208","LBB","2014-11-11 03:53:00",-101.8228,33.6636,46.94,30.92,53.47,10,22,0,29.77,1005.4,7,33,"FEW",NA,NA,NA,1800,NA,NA,NA,"BLDU",NA,NA,NA,NA,NA,NA,38.58,"KLBB 110353Z 01022G33KT 7SM BLDU FEW018 08/M01 A2977 RMK AO2 SLP054 WSHFT 0325 FROPA PK WND 0138/0338 BLDU FEW018 T00831006"
"126209","LBB","2014-11-11 04:53:00",-101.8228,33.6636,41,26.06,54.97,10,24,0,29.86,1008.3,6,35,"FEW",NA,NA,NA,3100,NA,NA,NA,"BLDU",NA,NA,NA,37,10,"2014-11-11 03:58",30.2,"KLBB 110453Z 01024G35KT 6SM BLDU FEW031 05/M03 A2986 RMK AO2 PK WND 01037/0358 SLP083 BLDU FEW031 T00501033"
"128969","LBB","2015-02-11 18:53:00",-101.8228,33.6636,42.98,37.04,79.38,30,26,0,30.22,1022.6,5,34,"FEW","BKN","OVC",NA,0,1400,2200,NA,"BLDU",NA,NA,NA,38,30,"2015-02-11 18:27",32.49,"KLBB 111853Z 03026G34KT 5SM BLDU FEW000 BKN014 OVC022 06/03 A3022 RMK AO2 PK WND 03038/1827 SLP226 BLDU FEW000 T00610028"
"130248","LBB","2015-03-26 01:53:00",-101.8228,33.6636,59,35.06,40.54,10,31,0,29.96,1011.8,4,43,"SCT","SCT","BKN",NA,2500,23000,30000,NA,"BLDU",NA,NA,NA,43,10,"2015-03-26 01:46",59,"KLBB 260153Z 01031G43KT 4SM BLDU SCT025 SCT230 BKN300 15/02 A2996 RMK AO2 PK WND 01043/0146 PRESRR SLP118 BLDU SCT025 T01500017"
"130249","LBB","2015-03-26 02:53:00",-101.8228,33.6636,51.08,35.06,54.09,10,27,0,30.05,1015,6,42,"SCT",NA,NA,NA,2100,NA,NA,NA,"BLDU",NA,NA,NA,46,10,"2015-03-26 02:00",51.08,"KLBB 260253Z 01027G42KT 6SM BLDU SCT021 11/02 A3005 RMK AO2 PK WND 01046/0200 PRESRR SLP150 BLDU SCT021 T01060017 53071"
"130250","LBB","2015-03-26 03:53:00",-101.8228,33.6636,46.94,35.06,63.13,20,30,0,30.1,1016.6,6,42,"FEW","OVC",NA,NA,2100,30000,NA,NA,"BLDU",NA,NA,NA,46,20,"2015-03-26 03:39",37.24,"KLBB 260353Z 02030G42KT 6SM BLDU FEW021 OVC300 08/02 A3010 RMK AO2 PK WND 02046/0339 SLP166 BLDU FEW021 T00830017"
"130457","LBB","2015-04-03 08:42:00",-101.8228,33.6636,55.94,24.98,30.04,350,24,0,29.93,NA,6,31,"SCT",NA,NA,NA,25000,NA,NA,NA,"HZ BLDU",NA,NA,NA,31,340,"2015-04-03 08:40",55.94,"KLBB 030842Z 35024G31KT 6SM HZ BLDU SCT250 13/M04 A2993 RMK AO2 PK WND 34031/0840 PRESRR WSHFT 0837 FROPA T01331039"
"130458","LBB","2015-04-03 08:46:00",-101.8228,33.6636,53.06,30.92,42.58,350,26,0,29.94,NA,6,37,"SCT",NA,NA,NA,25000,NA,NA,NA,"HZ BLDU",NA,NA,NA,37,350,"2015-04-03 08:44",53.06,"KLBB 030846Z 35026G37KT 6SM HZ BLDU SCT250 12/M01 A2994 RMK AO2 PK WND 35037/0844 WSHFT 0831 PRESRR WSHFT 0837 FROPA T01171006"
"130459","LBB","2015-04-03 08:48:00",-101.8228,33.6636,51.8,32,46.59,350,27,0,29.94,NA,3,37,"SCT","BKN",NA,NA,1300,25000,NA,NA,"HZ BLDU",NA,NA,NA,37,350,"2015-04-03 08:44",51.8,"KLBB 030848Z 35027G37KT 3SM HZ BLDU SCT013 BKN250 11/00 A2994 RMK AO2 PK WND 35037/0844 WSHFT 0831 WSHFT 0837 FROPA"
"130460","LBB","2015-04-03 08:53:00",-101.8228,33.6636,50,33.08,52.02,350,23,0,29.94,1009.8,2.5,37,"BKN","BKN",NA,NA,1300,25000,NA,NA,"HZ BLDU",NA,NA,NA,37,350,"2015-04-03 08:44",42.51,"KLBB 030853Z 35023G37KT 2 1/2SM HZ BLDU BKN013 BKN250 10/01 A2994 RMK AO2 PK WND 35037/0844 WSHFT 0831 SLP098 T01000006 53023"
"130461","LBB","2015-04-03 08:58:00",-101.8228,33.6636,50,33.08,52.02,350,21,0,29.94,NA,3,35,"BKN","BKN",NA,NA,1300,25000,NA,NA,"HZ BLDU",NA,NA,NA,29,350,"2015-04-03 08:57",42.86,"KLBB 030858Z 35021G35KT 3SM HZ BLDU BKN013 BKN250 10/01 A2994 RMK AO2 PK WND 35029/0857 T01000006"
"130462","LBB","2015-04-03 09:22:00",-101.8228,33.6636,48.02,33.98,58.07,350,23,0,29.97,NA,5,31,"SCT","SCT",NA,NA,1400,25000,NA,NA,"HZ BLDU",NA,NA,NA,31,350,"2015-04-03 08:59",39.85,"KLBB 030922Z 35023G31KT 5SM HZ BLDU SCT014 SCT250 09/01 A2997 RMK AO2 PK WND 35031/0859 PRESRR T00890011"
"130463","LBB","2015-04-03 09:53:00",-101.8228,33.6636,46.94,33.98,60.47,350,21,0,29.98,1011.3,4,32,"FEW","SCT",NA,NA,1600,25000,NA,NA,"HZ BLDU",NA,NA,NA,32,350,"2015-04-03 09:45",38.78,"KLBB 030953Z 35021G32KT 4SM HZ BLDU FEW016 SCT250 08/01 A2998 RMK AO2 PK WND 35032/0945 SLP113 T00830011"
"130464","LBB","2015-04-03 10:53:00",-101.8228,33.6636,44.96,33.98,65.18,360,21,0,30.02,1012.9,6,33,"FEW","SCT","BKN",NA,2000,20000,25000,NA,"HZ BLDU",NA,NA,NA,36,350,"2015-04-03 10:03",36.14,"KLBB 031053Z 36021G33KT 6SM HZ BLDU FEW020 SCT200 BKN250 07/01 A3002 RMK AO2 PK WND 35036/1003 SLP129 T00720011"
"130618","LBB","2015-04-09 00:25:00",-101.8228,33.6636,73.04,42.98,33.92,260,44,1e-04,29.73,NA,5,56,"FEW","SCT","OVC",NA,2600,9000,11000,NA,"-RA BLDU",NA,NA,NA,56,260,"2015-04-09 00:24",71.64,"KLBB 090025Z 26044G56KT 5SM -RA BLDU FEW026 SCT090 OVC110 23/06 A2973 RMK AO2 PK WND 26056/0024 WSHFT 2353 RAB15 PRESRR CB DSNT N AND SE AND W MOV NE VIRGA ALQDS LARGE MICROBURST AT AIRPORT P0000 T02280061"
"131605","LBB","2015-05-09 20:53:00",-101.8228,33.6636,80.96,28.94,14.96,250,23,0,29.77,1003.5,6,30,"SCT",NA,NA,NA,3200,NA,NA,NA,"BLDU",NA,NA,NA,30,240,"2015-05-09 20:48",78.97,"KLBB 092053Z 25023G30KT 6SM BLDU SCT032 27/M02 A2977 RMK AO2 PK WND 24030/2048 SLP035 SKY PTLY OBSCD T02721017 56019"
"131825","LBB","2015-05-16 20:53:00",-101.8228,33.6636,78.98,46.94,32.36,240,31,0,29.74,1002.5,5,37,"FEW","SCT","BKN",NA,3500,8000,10000,NA,"BLDU",NA,NA,NA,NA,NA,NA,78.98,"KLBB 162053Z 24031G37KT 5SM BLDU FEW035 SCT080 BKN100 26/08 A2974 RMK AO2 PK WND 24037/2053 SLP025 VIS NW-NE 2 1/2 FEW000 BLDU TCU E AND DSNT W MDT CU ALQDS T02610083 56008"
"131826","LBB","2015-05-16 21:53:00",-101.8228,33.6636,78.98,44.96,30.02,250,25,0,29.75,1002.7,5,35,"FEW","SCT","SCT",NA,0,8000,10000,NA,"BLDU",NA,NA,NA,NA,NA,NA,78.98,"KLBB 162153Z 25025G35KT 5SM BLDU FEW000 SCT080 SCT100 26/07 A2975 RMK AO2 PK WND 24038/2111 SLP027 VIS N-NE 2 1/2 BLDU FEW000 TCU DSNT SW MDT CU E-S-SW T02610072"
"131827","LBB","2015-05-16 22:53:00",-101.8228,33.6636,78.08,39.02,24.6,240,25,0,29.74,1002.5,4,36,"SCT","SCT","SCT",NA,0,8000,10000,NA,"BLDU",NA,NA,NA,NA,NA,NA,76.74,"KLBB 162253Z 24025G36KT 4SM BLDU SCT000 SCT080 SCT100 26/04 A2974 RMK AO2 PK WND 25038/2207 SLP025 BLDU SCT000 T02560039"
"131828","LBB","2015-05-16 23:03:00",-101.8228,33.6636,78.08,35.96,21.81,240,29,0,29.75,NA,2.5,38,"SCT","SCT","SCT",NA,0,8000,10000,NA,"BLDU",NA,NA,NA,NA,NA,NA,76.61,"KLBB 162303Z 24029G38KT 2 1/2SM BLDU SCT000 SCT080 SCT100 26/02 A2975 RMK AO2 PK WND 24038/2258 VIS W-N-NE 1 1/2 BLDU SCT000 T02560022"
"131829","LBB","2015-05-16 23:21:00",-101.8228,33.6636,78.08,33.08,19.45,260,30,0,29.74,NA,1.5,40,"SCT",NA,NA,NA,0,NA,NA,NA,"BLDU",NA,NA,NA,NA,NA,NA,76.5,"KLBB 162321Z 26030G40KT 1 1/2SM BLDU SCT000 26/01 A2974 RMK AO2 PK WND 25040/2320 BLDU SCT000 T02560006"
"131830","LBB","2015-05-16 23:53:00",-101.8228,33.6636,75.92,28.94,17.66,260,24,0,29.75,1002.9,1.25,39,"SCT","SCT",NA,NA,0,10000,NA,NA,"BLDU",NA,NA,NA,NA,NA,NA,74.04,"KLBB 162353Z 26024G39KT 1 1/4SM BLDU SCT000 SCT100 24/M02 A2975 RMK AO2 PK WND 25042/2341 SLP029 BLDU SCT000 T02441017 10278 20244 53002"
"131831","LBB","2015-05-17 00:02:00",-101.8228,33.6636,75.92,30.02,18.46,260,27,0,29.74,NA,0.75,36,"SCT","SCT",NA,NA,0,10000,NA,NA,"DS",NA,NA,NA,36,270,"2015-05-16 23:57",74.08,"KLBB 170002Z 26027G36KT 3/4SM DS SCT000 SCT100 24/M01 A2974 RMK AO2 PK WND 27036/2357 T02441011 RVRNO"
"131832","LBB","2015-05-17 00:41:00",-101.8228,33.6636,73.94,28.94,18.87,270,34,0,29.74,NA,1.25,41,"FEW","FEW",NA,NA,0,10000,NA,NA,"BLDU",NA,NA,NA,45,270,"2015-05-17 00:26",71.92,"KLBB 170041Z 27034G41KT 1 1/4SM BLDU FEW000 FEW100 23/M02 A2974 RMK AO2 PK WND 27045/0026 TWR VIS 3 BLDU FEW000 T02331017"
"131833","LBB","2015-05-17 00:53:00",-101.8228,33.6636,73.04,28.94,19.45,270,28,0,29.77,1003.6,4,39,"FEW","FEW",NA,NA,0,10000,NA,NA,"BLDU",NA,NA,NA,45,270,"2015-05-17 00:26",70.96,"KLBB 170053Z 27028G39KT 4SM BLDU FEW000 FEW100 23/M02 A2977 RMK AO2 PK WND 27045/0026 PRESRR SLP036 BLDU FEW000 T02281017"
"132295","LBB","2015-05-30 02:53:00",-101.8228,33.6636,64.94,51.98,62.83,340,30,0,30.12,1016.6,6,38,"SCT","OVC",NA,NA,4400,5000,NA,NA,"BLDU",NA,NA,NA,38,350,"2015-05-30 02:50",64.94,"KLBB 300253Z 34030G38KT 6SM BLDU SCT044 OVC050 18/11 A3012 RMK AO2 PK WND 35038/0250 SLP166 CONS LTGICCCCACG DSNT SW-NW-N CB DSNT SW-NW-N MOV SE T01830111 51036"
"132973","LBB","2015-06-23 18:53:00",-101.8228,33.6636,84.92,60.98,44.59,160,14,0,30.22,1018.2,6,20,"CLR",NA,NA,NA,NA,NA,NA,NA,"BLDU",NA,NA,NA,NA,NA,NA,85.13,"KLBB 231853Z 16014G20KT 6SM BLDU CLR 29/16 A3022 RMK AO2 SLP182 T02940161"
"133124","LBB","2015-06-29 23:42:00",-101.8228,33.6636,77,59,53.8,350,24,0,30.05,NA,1,35,"BKN","BKN","OVC",NA,8000,9000,18000,NA,"TS BLDU",NA,NA,NA,35,350,"2015-06-29 23:40",77,"KLBB 292342Z 35024G35KT 1SM TS BLDU BKN080CB BKN090 OVC180 25/15 A3005 RMK AO2 PK WND 35035/2340 WSHFT 2327 TSB24 OCNL LTGIC W-N TS OHD AND W-N T02500150 RVRNO"
"133125","LBB","2015-06-29 23:53:00",-101.8228,33.6636,73.04,60.98,65.9,360,22,1e-04,30.06,1013.5,4,40,"SCT","BKN","BKN","OVC",300,8000,9500,18000,"-TSRA BLDU",NA,NA,NA,40,350,"2015-06-29 23:44",73.04,"KLBB 292353Z 36022G40KT 4SM -TSRA BLDU SCT003 BKN080CB BKN095 OVC180 23/16 A3006 RMK AO2 PK WND 35040/2344 WSHFT 2327 RAB43 TSB24 SLP135 OCNL LTGICCG W-N TS W-N MOV S P0000 60000 T02280161 10344 20228 53008"
"133713","LBB","2015-07-21 04:04:00",-101.8228,33.6636,73.94,62.96,68.57,340,34,0,30.05,NA,4,43,"FEW","BKN","OVC",NA,800,10000,14000,NA,"BLDU",NA,NA,NA,43,340,"2015-07-21 04:03",73.94,"KLBB 210404Z 34034G43KT 4SM BLDU FEW008 BKN100 OVC140 23/17 A3005 RMK AO2 PK WND 34043/0403 WSHFT 0349 CONS LTGICCC DSNT NW-NE CB DSNT W-NE MOV NE T02330172"
"137605","LBB","2015-12-13 00:53:00",-101.8228,33.6636,55.94,44.06,64.28,280,26,0,29.59,999.6,4,42,"FEW","BKN","OVC",NA,3500,5000,11000,NA,"TS BLDU SQ",NA,NA,NA,42,280,"2015-12-13 00:51",55.94,"KLBB 130053Z 28026G42KT 4SM TS BLDU SQ FEW035CB BKN050 OVC110 13/07 A2959 RMK AO2 PK WND 28042/0051 TSB48 PRESRR SLP996 FRQ LTGICCACG S-SW FRQ LTGICCGCA DSNT W-NW AND NE TS S-SW MOV NE CB DSNT W-NW AND NE MOV NE T01330067"
"137982","LBB","2015-12-27 05:42:00",-101.8228,33.6636,28.04,24.98,88.12,360,19,0,29.95,NA,2,24,"OVC",NA,NA,NA,1500,NA,NA,NA,"+TSSNPL",NA,NA,NA,NA,NA,NA,14.2,"KLBB 270542Z 36019G24KT 2SM +TSSNPL OVC015CB M02/M04 A2995 RMK AO2 SNB28 TSB00E28B41 OCNL LTGIC SE-S TS ALQDS MOV N T10221039 PNO"
"137983","LBB","2015-12-27 05:53:00",-101.8228,33.6636,26.96,24.98,92.12,360,16,0,29.96,1014.7,2,30,"OVC",NA,NA,NA,1500,NA,NA,NA,"+TSSNPL",NA,NA,NA,NA,NA,NA,13.85,"KLBB 270553Z 36016G30KT 2SM +TSSNPL OVC015CB M03/M04 A2996 RMK AO2 SNB28 TSB00E28B41 SLP147 OCNL LTGIC NE-SE TS ALQDS MOV N 6//// I6/// T10281039 10017 21028 401111028 51043 PNO"
"137984","LBB","2015-12-27 06:02:00",-101.8228,33.6636,26.96,24.98,92.12,360,19,0,29.97,NA,0.75,30,"OVC",NA,NA,NA,1500,NA,NA,NA,"+TSSNPL",NA,NA,NA,NA,NA,NA,12.77,"KLBB 270602Z 36019G30KT 3/4SM +TSSNPL OVC015CB M03/M04 A2997 RMK AO2 TWR VIS 1 OCNL LTGIC NE-SE TS ALQDS MOV N T10281039 RVRNO PNO"
"138771","LBB","2016-01-21 19:53:00",-101.8228,33.6636,51.98,23,31.96,350,27,0,30.16,1020,6,42,"SCT","SCT",NA,NA,0,6500,NA,NA,"BLDU",NA,NA,NA,45,340,"2016-01-21 19:21",51.98,"KLBB 211953Z 35027G42KT 6SM BLDU SCT000 SCT065 11/M05 A3016 RMK AO2 PK WND 34045/1921 SLP200 BLDU SCT000 T01111050 $"
"138772","LBB","2016-01-21 20:53:00",-101.8228,33.6636,51.98,21.92,30.53,350,24,0,30.16,1020.4,6,37,"FEW","FEW",NA,NA,0,6500,NA,NA,"BLDU",NA,NA,NA,42,350,"2016-01-21 20:23",51.98,"KLBB 212053Z 35024G37KT 6SM BLDU FEW000 FEW065 11/M06 A3016 RMK AO2 PK WND 35042/2023 SLP204 BLDU FEW000 T01111056 55018 $"
"138847","LBB","2016-01-24 23:53:00",-101.8228,33.6636,66.92,8.96,10.18,240,16,0,29.69,1003.5,6,NA,"FEW","FEW","SCT","SCT",0,21000,26000,30000,"BLDU",NA,NA,NA,30,240,"2016-01-24 23:16",66.92,"KLBB 242353Z 24016KT 6SM BLDU FEW000 FEW210 SCT260 SCT300 19/M13 A2969 RMK AO2 PK WND 24030/2316 SLP035 BLDU FEW000 T01941128 10244 20156 55010 $"
"139039","LBB","2016-02-01 21:27:00",-101.8228,33.6636,68,23,18.06,240,21,0,29.46,NA,6,28,"FEW","BKN","BKN",NA,6500,12000,20000,NA,"HZ BLDU",NA,NA,NA,28,250,"2016-02-01 21:25",68,"KLBB 012127Z 24021G28KT 6SM HZ BLDU FEW065 BKN120 BKN200 20/M05 A2946 RMK AO2 PK WND 25028/2125 VIS DCRG RPDLY T02001050 $"
"139040","LBB","2016-02-01 21:33:00",-101.8228,33.6636,68,19.04,15.27,240,27,0,29.45,NA,5,33,"FEW","BKN","BKN",NA,6500,12000,20000,NA,"BLDU",NA,NA,NA,33,240,"2016-02-01 21:33",68,"KLBB 012133Z 24027G33KT 5SM BLDU FEW065 BKN120 BKN200 20/M07 A2945 RMK AO2 PK WND 24033/2133 WSHFT 2115 T02001072 $"
"139041","LBB","2016-02-01 21:53:00",-101.8228,33.6636,55.94,30.92,38.34,310,29,0,29.48,996.6,3,40,"FEW","BKN","OVC",NA,10000,12000,15000,NA,"BLDU",NA,NA,NA,40,290,"2016-02-01 21:45",55.94,"KLBB 012153Z 31029G40KT 3SM BLDU FEW100 BKN120 OVC150 13/M01 A2948 RMK AO2 PK WND 29040/2145 WSHFT 2115 SLP966 VIRGA NW T01331006"
"139042","LBB","2016-02-01 21:57:00",-101.8228,33.6636,55.94,30.92,38.34,310,31,0,29.49,NA,5,39,"FEW","FEW","OVC",NA,0,3500,11000,NA,"BLDU",NA,NA,NA,39,310,"2016-02-01 21:57",55.94,"KLBB 012157Z 31031G39KT 5SM BLDU FEW000 FEW035 OVC110 13/M01 A2949 RMK AO2 PK WND 31039/2157 WSHFT 2140 BLDU FEW000 T01331006"
"139043","LBB","2016-02-01 22:53:00",-101.8228,33.6636,53.06,30.92,42.58,290,23,0,29.55,999.4,5,32,"CLR",NA,NA,NA,NA,NA,NA,NA,"BLDU",NA,NA,NA,40,310,"2016-02-01 22:04",53.06,"KLBB 012253Z 29023G32KT 5SM BLDU CLR 12/M01 A2955 RMK AO2 PK WND 31040/2204 WSHFT 2140 PRESRR SLP994 BLDU FEW000 T01171006"
"139558","LBB","2016-02-23 03:53:00",-101.8228,33.6636,39.02,32,75.69,20,14,0.04,29.86,1010.4,6,19,"BKN","OVC",NA,NA,2500,4000,NA,NA,"TSSNRA",NA,NA,NA,NA,NA,NA,30.21,"KLBB 230353Z 02014G19KT 6SM TSSNRA BKN025CB OVC040 04/00 A2986 RMK AO2 RAB11SNB43 SLP104 OCNL LTGIC E TS E MOV NE P0004 T00390000"
"139783","LBB","2016-03-02 19:53:00",-101.8228,33.6636,82.94,19.94,9.64,280,19,0,29.84,1006.7,6,32,"CLR",NA,NA,NA,NA,NA,NA,NA,"BLDU",NA,NA,NA,33,270,"2016-03-02 19:42",79.85,"KLBB 021953Z 28019G32KT 6SM BLDU CLR 28/M07 A2984 RMK AO2 PK WND 27033/1942 SLP067 T02831067"
"139784","LBB","2016-03-02 20:53:00",-101.8228,33.6636,84.02,17.06,8.22,280,24,0,29.81,1005.5,6,33,"CLR",NA,NA,NA,NA,NA,NA,NA,"BLDU",NA,NA,NA,34,280,"2016-03-02 19:59",80.44,"KLBB 022053Z 28024G33KT 6SM BLDU CLR 29/M08 A2981 RMK AO2 PK WND 28034/1959 SLP055 T02891083 56049"
"140129","LBB","2016-03-14 15:53:00",-101.8228,33.6636,69.08,21.02,16,280,28,0,29.82,1006.2,5,39,"BKN","BKN",NA,NA,26000,30000,NA,NA,"BLDU",NA,NA,NA,39,280,"2016-03-14 15:46",69.08,"KLBB 141553Z 28028G39KT 5SM BLDU BKN260 BKN300 21/M06 A2982 RMK AO2 PK WND 28039/1546 SLP062 T02061061"
"140130","LBB","2016-03-14 16:53:00",-101.8228,33.6636,73.94,23,14.76,270,33,0,29.82,1005.9,6,38,"FEW",NA,NA,NA,1600,NA,NA,NA,"BLDU",NA,NA,NA,41,270,"2016-03-14 16:26",71.73,"KLBB 141653Z 27033G38KT 6SM BLDU FEW016 23/M05 A2982 RMK AO2 PK WND 27041/1626 SLP059 T02331050"
"140131","LBB","2016-03-14 17:53:00",-101.8228,33.6636,77,24.08,13.94,270,23,0,29.79,1005,8,31,"BKN","BKN",NA,NA,26000,30000,NA,NA,"BLDU",NA,NA,NA,39,260,"2016-03-14 17:15",75.06,"KLBB 141753Z 27023G31KT 8SM BLDU BKN260 BKN300 25/M04 A2979 RMK AO2 PK WND 26039/1715 SLP050 T02501044 10250 20061 58011"
"140132","LBB","2016-03-14 18:53:00",-101.8228,33.6636,78.98,26.06,14.18,280,25,0,29.76,1004,9,32,"CLR",NA,NA,NA,NA,NA,NA,NA,"BLDU",NA,NA,NA,36,270,"2016-03-14 18:39",77.24,"KLBB 141853Z 28025G32KT 9SM BLDU CLR 26/M03 A2976 RMK AO2 PK WND 27036/1839 SLP040 T02611033"
"140341","LBB","2016-03-22 19:53:00",-101.8228,33.6636,86,19.04,8.4,240,30,0,29.75,1003.1,6,40,"FEW","SCT","BKN",NA,21000,26000,30000,NA,"BLDU",NA,NA,NA,40,230,"2016-03-22 19:52",81.92,"KLBB 221953Z 24030G40KT 6SM BLDU FEW210 SCT260 BKN300 30/M07 A2975 RMK AO2 PK WND 23040/1952 SLP031 T03001072 $"
"140342","LBB","2016-03-22 20:53:00",-101.8228,33.6636,82.94,17.96,8.85,230,27,0,29.73,1002.7,9,39,"BKN","BKN",NA,NA,26000,30000,NA,NA,"BLDU",NA,NA,NA,43,240,"2016-03-22 20:05",79.74,"KLBB 222053Z 23027G39KT 9SM BLDU BKN260 BKN300 28/M08 A2973 RMK AO2 PK WND 24043/2005 SLP027 LGT BLDU ALQDS T02831078 56033 $"
"140361","LBB","2016-03-23 15:53:00",-101.8228,33.6636,60.08,17.06,18.5,290,26,0,29.75,1003.7,6,32,"SCT","SCT",NA,NA,27000,30000,NA,NA,"BLDU",NA,NA,NA,36,300,"2016-03-23 14:56",60.08,"KLBB 231553Z 29026G32KT 6SM BLDU SCT270 SCT300 16/M08 A2975 RMK AO2 PK WND 30036/1456 SLP037 T01561083"
"140362","LBB","2016-03-23 16:53:00",-101.8228,33.6636,64.94,15.08,14.3,270,30,0,29.75,1003.5,6,38,"SCT","SCT",NA,NA,27000,30000,NA,NA,"BLDU",NA,NA,NA,38,280,"2016-03-23 16:49",64.94,"KLBB 231653Z 27030G38KT 6SM BLDU SCT270 SCT300 18/M09 A2975 RMK AO2 PK WND 28038/1649 SLP035 T01831094"
"140363","LBB","2016-03-23 17:53:00",-101.8228,33.6636,66.92,14,12.74,270,28,0,29.73,1003,5,41,"FEW","SCT",NA,NA,0,27000,NA,NA,"BLDU",NA,NA,NA,41,280,"2016-03-23 17:50",66.92,"KLBB 231753Z 27028G41KT 5SM BLDU FEW000 SCT270 19/M10 A2973 RMK AO2 PK WND 28041/1750 SLP030 BLDU FEW000 T01941100 10200 20117 58001"
"140364","LBB","2016-03-23 18:53:00",-101.8228,33.6636,68,14,12.27,270,24,0,29.72,1002.4,4,42,"SCT","SCT",NA,NA,0,27000,NA,NA,"BLDU",NA,NA,NA,43,260,"2016-03-23 18:03",68,"KLBB 231853Z 27024G42KT 4SM BLDU SCT000 SCT270 20/M10 A2972 RMK AO2 PK WND 26043/1803 SLP024 BLDU SCT000 T02001100"
"140365","LBB","2016-03-23 19:53:00",-101.8228,33.6636,69.98,12.92,10.93,250,30,0,29.7,1001.9,4,44,"SCT","SCT",NA,NA,0,10000,NA,NA,"BLDU",NA,NA,NA,44,270,"2016-03-23 19:46",69.98,"KLBB 231953Z 25030G44KT 4SM BLDU SCT000 SCT100 21/M11 A2970 RMK AO2 PK WND 27044/1946 SLP019 T02111106"
"140366","LBB","2016-03-23 20:53:00",-101.8228,33.6636,69.08,8.06,9.08,270,29,0,29.7,1002.1,5,46,"SCT","SCT",NA,NA,3400,25000,NA,NA,"BLDU",NA,NA,NA,46,290,"2016-03-23 20:46",69.08,"KLBB 232053Z 27029G46KT 5SM BLDU SCT034 SCT250 21/M13 A2970 RMK AO2 PK WND 29046/2046 SLP021 BLDU SCT000 T02061133 55009"
"140367","LBB","2016-03-23 21:51:00",-101.8228,33.6636,68,6.8,8.9,270,31,0,29.72,NA,4,42,"SCT","SCT",NA,NA,0,15000,NA,NA,"BLDU",NA,NA,NA,44,280,"2016-03-23 21:41",68,"KLBB 232151Z 27031G42KT 4SM BLDU SCT000 SCT150 20/M14 A2972 RMK AO2 PK WND 28044/2141 BLDU SCT000"
"140368","LBB","2016-03-23 21:53:00",-101.8228,33.6636,68,6.08,8.61,280,30,0,29.72,1002.7,4,41,"SCT","SCT",NA,NA,0,15000,NA,NA,"BLDU",NA,NA,NA,44,280,"2016-03-23 21:41",68,"KLBB 232153Z 28030G41KT 4SM BLDU SCT000 SCT150 20/M14 A2972 RMK AO2 PK WND 28044/2141 SLP027 BLDU SCT000 T02001144"
"140369","LBB","2016-03-23 22:53:00",-101.8228,33.6636,66.02,1.04,7.31,280,32,0,29.73,1003.5,4,45,"SCT","SCT",NA,NA,0,25000,NA,NA,"BLDU",NA,NA,NA,46,280,"2016-03-23 22:25",66.02,"KLBB 232253Z 28032G45KT 4SM BLDU SCT000 SCT250 19/M17 A2973 RMK AO2 PK WND 28046/2225 SLP035 BLDU SCT000 T01891172"
"140448","LBB","2016-03-27 03:23:00",-101.8228,33.6636,55.94,33.98,43.36,10,30,0,29.93,NA,2,44,"OVC",NA,NA,NA,15000,NA,NA,NA,"BLDU",NA,NA,NA,44,10,"2016-03-27 03:21",55.94,"KLBB 270323Z 01030G44KT 2SM BLDU OVC150 13/01 A2993 RMK AO2 PK WND 01044/0321 WSHFT 0305 PRESRR FROPA T01330011"
"140449","LBB","2016-03-27 03:32:00",-101.8228,33.6636,53.96,33.98,46.6,20,29,0,29.94,NA,5,42,"OVC",NA,NA,NA,15000,NA,NA,NA,"BLDU",NA,NA,NA,44,10,"2016-03-27 03:21",53.96,"KLBB 270332Z 02029G42KT 5SM BLDU OVC150 12/01 A2994 RMK AO2 PK WND 01044/0321 WSHFT 0305 FROPA T01220011"
"140450","LBB","2016-03-27 03:53:00",-101.8228,33.6636,48.02,35.06,60.62,20,31,0,29.94,1012.1,6,40,"OVC",NA,NA,NA,14000,NA,NA,NA,"BLDU",NA,NA,NA,44,10,"2016-03-27 03:21",38.59,"KLBB 270353Z 02031G40KT 6SM BLDU OVC140 09/02 A2994 RMK AO2 PK WND 01044/0321 WSHFT 0305 SLP121 FROPA BINOVC T00890017"
"140712","LBB","2016-04-06 06:10:00",-101.8228,33.6636,59,33.08,37.46,20,31,0,30.03,NA,3,37,"SCT",NA,NA,NA,1800,NA,NA,NA,"BLDU",NA,NA,NA,37,10,"2016-04-06 06:08",59,"KLBB 060610Z 02031G37KT 3SM BLDU SCT018 15/01 A3003 RMK AO2 PK WND 01037/0608 T01500006 $"
"140713","LBB","2016-04-06 06:24:00",-101.8228,33.6636,57.02,28.94,34.01,20,30,0,30.04,NA,5,40,"BKN",NA,NA,NA,2700,NA,NA,NA,"BLDU",NA,NA,NA,41,20,"2016-04-06 06:12",57.02,"KLBB 060624Z 02030G40KT 5SM BLDU BKN027 14/M02 A3004 RMK AO2 PK WND 02041/0612 T01391017 $"
"140714","LBB","2016-04-06 06:38:00",-101.8228,33.6636,55.94,26.96,32.61,20,28,0,30.05,NA,5,34,"BKN","BKN",NA,NA,3400,30000,NA,NA,"BLDU",NA,NA,NA,41,20,"2016-04-06 06:12",55.94,"KLBB 060638Z 02028G34KT 5SM BLDU BKN034 BKN300 13/M03 A3005 RMK AO2 PK WND 02041/0612 T01331028 $"
"140715","LBB","2016-04-06 06:53:00",-101.8228,33.6636,55.94,26.96,32.61,20,23,0,30.07,1013.8,6,36,"BKN","BKN","BKN",NA,4100,16000,30000,NA,"BLDU",NA,NA,NA,41,20,"2016-04-06 06:12",55.94,"KLBB 060653Z 02023G36KT 6SM BLDU BKN041 BKN160 BKN300 13/M03 A3007 RMK AO2 PK WND 02041/0612 SLP138 T01331028 $"
"141346","LBB","2016-04-26 19:53:00",-101.8228,33.6636,80.96,24.08,12.24,220,18,0,29.61,998,8,32,"SCT","BKN","BKN",NA,2300,12000,26000,NA,"BLDU",NA,NA,NA,35,240,"2016-04-26 19:15",78.8,"KLBB 261953Z 22018G32KT 8SM BLDU SCT023 BKN120 BKN260 27/M04 A2961 RMK AO2 PK WND 24035/1915 SLP980 CB DSNT S-W-NW MOV E T02721044"
"141347","LBB","2016-04-26 20:16:00",-101.8228,33.6636,82.94,21.92,10.48,240,30,0,29.61,NA,7,40,"BKN","BKN",NA,NA,14000,26000,NA,NA,"BLDU",NA,NA,NA,40,240,"2016-04-26 20:09",79.96,"KLBB 262016Z 24030G40KT 7SM BLDU BKN140 BKN260 28/M06 A2961 RMK AO2 PK WND 24040/2009 VIRGA SW-NW-N VIS SW-NW-N 2 1/2 T02831056"
"141348","LBB","2016-04-26 20:33:00",-101.8228,33.6636,78.98,26.96,14.72,270,29,0,29.61,NA,2.5,38,"BKN","BKN",NA,NA,14000,26000,NA,NA,"BLDU",NA,NA,NA,40,240,"2016-04-26 20:09",77.27,"KLBB 262033Z 27029G38KT 2 1/2SM BLDU BKN140 BKN260 26/M03 A2961 RMK AO2 PK WND 24040/2009 VIRGA ALQDS VIS E-S 4 T02611028"
"141349","LBB","2016-04-26 20:43:00",-101.8228,33.6636,78.08,30.02,17.18,310,19,0,29.61,NA,3,36,"FEW","BKN","BKN",NA,2700,3200,4000,NA,"BLDU",NA,NA,NA,40,240,"2016-04-26 20:09",76.4,"KLBB 262043Z 31019G36KT 3SM BLDU FEW027 BKN032 BKN040 26/M01 A2961 RMK AO2 PK WND 24040/2009 WSHFT 2028 T02561011"
"141350","LBB","2016-04-26 20:53:00",-101.8228,33.6636,78.98,28.04,15.39,260,21,0,29.6,997.4,6,27,"BKN","BKN","BKN",NA,3000,14800,27000,NA,"BLDU",NA,NA,NA,40,240,"2016-04-26 20:09",77.3,"KLBB 262053Z 26021G27KT 6SM BLDU BKN030 BKN148 BKN270 26/M02 A2960 RMK AO2 PK WND 24040/2009 WSHFT 2028 SLP974 T02611022 56018"
"141353","LBB","2016-04-26 22:53:00",-101.8228,33.6636,80.06,12.92,7.81,250,36,0,29.58,996.9,5,45,"SCT","SCT","SCT",NA,2700,11000,30000,NA,"BLDU",NA,NA,NA,45,260,"2016-04-26 22:37",77.68,"KLBB 262253Z 25036G45KT 5SM BLDU SCT027 SCT110 SCT300 27/M11 A2958 RMK AO2 PK WND 26045/2237 SLP969 BLDU SCT027 T02671106"
"148335","LBB","2016-05-22 23:27:00",-101.8228,33.6636,77,64.4,65.12,150,30,0,29.8,NA,2.5,40,"FEW","BKN","BKN",NA,2000,6500,8000,NA,"BLDU",NA,NA,NA,NA,NA,NA,77,"KLBB 222327Z 15030G40KT 2 1/2SM BLDU FEW020 BKN065 BKN080 25/18 A2980 RMK PK WND 16040/2324 CB DSNT NE-SE MOV N"
"148336","LBB","2016-05-22 23:30:00",-101.8228,33.6636,NA,NA,NA,NA,NA,NA,29.8,NA,2.5,NA,"SCT","SCT","BKN",NA,2900,5000,6500,NA,"BLDU",NA,NA,NA,NA,NA,NA,NA,"KLBB 222330Z AUTO /////KT 2 1/2SM BLDU SCT029 SCT050 BKN065 24/18 A2980 RMK T02400180  LTG DSNT NE-S!CB DSNT NE-SE MOV N MADISHF"
"148337","LBB","2016-05-22 23:35:00",-101.8228,33.6636,NA,NA,NA,NA,NA,NA,29.8,NA,2.5,NA,"SCT","BKN","OVC",NA,2700,5500,11000,NA,"BLDU",NA,NA,NA,NA,NA,NA,NA,"KLBB 222335Z AUTO /////KT 2 1/2SM BLDU SCT027 BKN055 OVC110 24/17 A2980 RMK T02400170  LTG DSNT NE-SE!CB DSNT NE-SE MOV N MADISHF"
"148338","LBB","2016-05-22 23:40:00",-101.8228,33.6636,NA,NA,NA,NA,NA,NA,29.8,NA,2.5,NA,"SCT","BKN","BKN",NA,2700,6000,7999,NA,"BLDU",NA,NA,NA,NA,NA,NA,NA,"KLBB 222340Z AUTO /////KT 2 1/2SM BLDU SCT027 BKN060 BKN079 24/16 A2980 RMK T02400160  LTG DSNT NE-SE!CB DSNT NE-SE MOV N MADISHF"
"148339","LBB","2016-05-22 23:42:00",-101.8228,33.6636,75.02,60.98,61.66,140,25,0,29.8,NA,5,35,"SCT","BKN","BKN",NA,2700,5500,9500,NA,"BLDU",NA,NA,NA,NA,NA,NA,75.02,"KLBB 222342Z 14025G35KT 5SM BLDU SCT027 BKN055TCU BKN095 24/16 A2980 RMK AO2 PK WND 16040/2324 VIS N-NE 3 CB DSNT NE-SE MOV N TCU E T02390161"
"148340","LBB","2016-05-22 23:45:00",-101.8228,33.6636,NA,NA,NA,130,28,NA,29.81,NA,5,NA,"SCT","BKN","BKN",NA,2700,5500,9500,NA,"BLDU",NA,NA,NA,NA,NA,NA,NA,"KLBB 222345Z AUTO 13028KT 5SM BLDU SCT027 BKN055 BKN095 23/16 A2981 RMK T02300160  LTG DSNT NE-SE!VIS 3 N-NE CB DSNT NE-SE MOV N TCU E MADISHF"
"148341","LBB","2016-05-22 23:50:00",-101.8228,33.6636,NA,NA,NA,NA,NA,NA,29.82,NA,5,NA,"SCT","BKN","BKN",NA,2700,5500,9500,NA,"BLDU",NA,NA,NA,NA,NA,NA,NA,"KLBB 222350Z AUTO /////KT 5SM BLDU SCT027 BKN055 BKN095 23/17 A2982 RMK T02300170  LTG DSNT NE-SE!VIS 3 N-NE CB DSNT NE-SE MOV N TCU E MADISHF"
"148342","LBB","2016-05-22 23:53:00",-101.8228,33.6636,73.94,62.06,66.43,140,24,0,29.81,1004.9,5,34,"FEW","SCT","BKN",NA,2700,4900,8000,NA,"BLDU",NA,NA,NA,NA,NA,NA,73.94,"KLBB 222353Z 14024G34KT 5SM BLDU FEW027 SCT049TCU BKN080 23/17 A2981 RMK AO2 PK WND 16040/2324 SLP049 VIS 3 N-NE CB DSNT NE-SE MOV N TCU NE-E T02330167 10306 20233 55020"
"148343","LBB","2016-05-22 23:55:00",-101.8228,33.6636,NA,NA,NA,NA,NA,NA,29.81,NA,4,NA,"FEW","SCT","BKN",NA,2700,4900,7999,NA,"BLDU",NA,NA,NA,NA,NA,NA,NA,"KLBB 222355Z AUTO /////KT 4SM BLDU FEW027 SCT049 BKN079 23/17 A2981 RMK T02300170  LTG DSNT NE-SE!VIS 3 N-NE CB DSNT NE-SE MOV N TCU NE-E MADISHF"
"148344","LBB","2016-05-23 00:00:00",-101.8228,33.6636,NA,NA,NA,NA,NA,NA,29.81,NA,4,NA,"FEW","SCT","BKN",NA,2700,4900,7999,NA,"BLDU",NA,NA,NA,NA,NA,NA,NA,"KLBB 230000Z AUTO /////KT 4SM BLDU FEW027 SCT049 BKN079 23/16 A2981 RMK T02300160  LTG DSNT NE-SE!VIS 3 N-NE CB DSNT NE-SE MOV N TCU NE-E MADISHF"
"148345","LBB","2016-05-23 00:05:00",-101.8228,33.6636,NA,NA,NA,140,22,NA,29.81,NA,4,NA,"FEW","SCT","BKN",NA,2700,4900,7999,NA,"BLDU",NA,NA,NA,NA,NA,NA,NA,"KLBB 230005Z AUTO 14022KT 4SM BLDU FEW027 SCT049 BKN079 23/17 A2981 RMK T02300170  LTG DSNT NE AND E!VIS 3 N-NE CB DSNT NE-SE MOV N TCU NE-E MADISHF"
"148685","LBB","2016-05-24 01:55:00",-101.8228,33.6636,NA,NA,NA,160,24,NA,29.78,NA,5,NA,"CLR",NA,NA,NA,NA,NA,NA,NA,"BLDU",NA,NA,NA,NA,NA,NA,NA,"KLBB 240155Z AUTO 16024KT 5SM BLDU CLR 26/17 A2978 RMK T02600170 MADISHF"
"148686","LBB","2016-05-24 02:00:00",-101.8228,33.6636,NA,NA,NA,160,20,NA,29.79,NA,4,NA,"CLR",NA,NA,NA,NA,NA,NA,NA,"BLDU",NA,NA,NA,NA,NA,NA,NA,"KLBB 240200Z AUTO 16020KT 4SM BLDU CLR 26/18 A2979 RMK T02600180 MADISHF"
"148687","LBB","2016-05-24 02:05:00",-101.8228,33.6636,NA,NA,NA,160,20,NA,29.78,NA,4,NA,"CLR",NA,NA,NA,NA,NA,NA,NA,"BLDU",NA,NA,NA,NA,NA,NA,NA,"KLBB 240205Z AUTO 16020KT 4SM BLDU CLR 25/18 A2978 RMK T02500180 MADISHF"
"148688","LBB","2016-05-24 02:10:00",-101.8228,33.6636,NA,NA,NA,170,19,NA,29.78,NA,5,NA,"CLR",NA,NA,NA,NA,NA,NA,NA,"BLDU",NA,NA,NA,NA,NA,NA,NA,"KLBB 240210Z AUTO 17019KT 5SM BLDU CLR 25/18 A2978 RMK T02500180 MADISHF"
"148689","LBB","2016-05-24 02:15:00",-101.8228,33.6636,NA,NA,NA,160,18,NA,29.78,NA,6,NA,"CLR",NA,NA,NA,NA,NA,NA,NA,"BLDU",NA,NA,NA,NA,NA,NA,NA,"KLBB 240215Z AUTO 16018KT 6SM BLDU CLR 25/18 A2978 RMK T02500180 MADISHF"
"150546","LBB","2016-05-30 00:05:00",-101.8228,33.6636,NA,NA,NA,NA,NA,NA,30.06,NA,0.5,NA,NA,"SCT",NA,NA,NA,1200,NA,NA,"-RA BLDU",NA,NA,NA,NA,NA,NA,NA,"KLBB 300005Z AUTO /////KT 1/2SM -RA BLDU SCT012 A3006 RMK  LTG DSNT NW-NE!CB DSNT W-N-E BLDU SCT000 MADISHF"
"150547","LBB","2016-05-30 00:10:00",-101.8228,33.6636,64.04,51.98,64.84,20,40,1e-04,30.07,NA,0.5,49,"SCT","SCT","OVC",NA,0,1200,26000,NA,"-RA BLDU SQ",NA,NA,NA,49,360,"2016-05-30 00:02",64.04,"KLBB 300010Z 02040G49KT 1/2SM -RA BLDU SQ SCT000 SCT012 OVC260 18/11 A3007 RMK AO2 PK WND 36049/0002 RAB04 CB DSNT W-N-E BLDU SCT000 P0000 T01780111 RVRNO $"
"150548","LBB","2016-05-30 00:15:00",-101.8228,33.6636,NA,NA,NA,NA,NA,NA,30.09,NA,0.75,NA,"FEW","SCT","BKN",NA,999,5000,6000,NA,"HZ +DS",NA,NA,NA,NA,NA,NA,NA,"KLBB 300015Z AUTO /////KT 1SM HZ +DS FEW009 SCT050 BKN060 17/12 A3009 RMK T01700120  LTG DSNT NW-E! MADISHF"
"150549","LBB","2016-05-30 00:20:00",-101.8228,33.6636,62.06,53.06,72.33,30,40,1e-04,30.08,NA,1,50,"SCT","SCT","BKN","OVC",0,1000,5000,13000,"BLDU",NA,NA,NA,50,20,"2016-05-30 00:11",62.06,"KLBB 300020Z 03040G50KT 1SM BLDU SCT000 SCT010 BKN050 OVC130 17/12 A3008 RMK AO2 PK WND 02050/0011 RAB04E11 BLDU SCT000 P0000 T01670117 RVRNO $"
"150550","LBB","2016-05-30 00:25:00",-101.8228,33.6636,NA,NA,NA,NA,NA,NA,30.08,NA,1.5,NA,"FEW","BKN","BKN",NA,1500,5000,6000,NA,"BLDU",NA,NA,NA,NA,NA,NA,NA,"KLBB 300025Z AUTO /////KT 1 1/2SM BLDU FEW015 BKN050 BKN060 17/12 A3008 RMK T01700120  LTG DSNT NW-NE!BLDU SCT000 MADISHF"
"150551","LBB","2016-05-30 00:30:00",-101.8228,33.6636,NA,NA,NA,NA,NA,NA,30.07,NA,1.25,NA,"FEW","BKN","OVC",NA,1300,5500,8500,NA,"BLDU",NA,NA,NA,NA,NA,NA,NA,"KLBB 300030Z AUTO /////KT 1 1/2SM BLDU FEW013 BKN055 OVC085 17/12 A3007 RMK T01700120  LTG DSNT NW-NE!BLDU SCT000 MADISHF"
"150552","LBB","2016-05-30 00:35:00",-101.8228,33.6636,NA,NA,NA,NA,NA,NA,30.08,NA,1,NA,"FEW","BKN","OVC",NA,1100,5000,7999,NA,"BLDU",NA,NA,NA,NA,NA,NA,NA,"KLBB 300035Z AUTO /////KT 1SM BLDU FEW011 BKN050 OVC079 16/12 A3008 RMK T01600120  LTG DSNT ALQDS!BLDU SCT000 MADISHF"
"150553","LBB","2016-05-30 00:40:00",-101.8228,33.6636,NA,NA,NA,50,29,NA,30.08,NA,1.25,NA,"FEW","BKN","OVC",NA,900,5000,8500,NA,"BLDU",NA,NA,NA,NA,NA,NA,NA,"KLBB 300040Z AUTO 05029KT 1 1/2SM BLDU FEW009 BKN050 OVC085 17/12 A3008 RMK T01700120  LTG DSNT ALQDS!BLDU SCT000 MADISHF"
"150554","LBB","2016-05-30 00:45:00",-101.8228,33.6636,62.06,53.06,72.33,50,34,0,30.08,NA,1.75,45,"SCT","SCT","BKN","OVC",0,900,5000,8500,"TS BLDU",NA,NA,NA,50,20,"2016-05-30 00:11",62.06,"KLBB 300045Z 05034G45KT 1 3/4SM TS BLDU SCT000 SCT009 BKN050CB OVC085 17/12 A3008 RMK AO2 PK WND 02050/0011 OCNL LTGIC NW-NE TS NW-NE MOV SE TCU SE-SW BLDU SCT000 T01670117"
"150555","LBB","2016-05-30 00:50:00",-101.8228,33.6636,NA,NA,NA,40,32,NA,30.08,NA,2,NA,NA,"SCT","BKN",NA,NA,900,5000,NA,"BLDU",NA,NA,NA,NA,NA,NA,NA,"KLBB 300050Z AUTO 04032KT 2SM BLDU SCT009 BKN050 16/12 A3008 RMK T01600120  LTG DSNT ALQDS!OCNL LTGIC NW-NE TS NW-NE MOV SE TCU SE-SW BLDU SCT000 MADISHF"
"150556","LBB","2016-05-30 00:53:00",-101.8228,33.6636,60.98,53.96,77.66,50,31,0,30.08,1015.1,2,47,"SCT","SCT","BKN","OVC",0,1200,3800,5500,"TS BLDU",NA,NA,NA,50,20,"2016-05-30 00:11",60.98,"KLBB 300053Z 05031G47KT 2SM TS BLDU SCT000 SCT012 BKN038 OVC055CB 16/12 A3008 RMK AO2 PK WND 02050/0011 SLP151 VIS S-SW 4 OCNL LTGIC NW-NE TS NW-NE MOV SE TCU SE-SW BLDU SCT000 T01610122"
"150557","LBB","2016-05-30 00:55:00",-101.8228,33.6636,NA,NA,NA,NA,NA,NA,30.07,NA,2,NA,"FEW","BKN","OVC",NA,1200,4200,5500,NA,"BLDU",NA,NA,NA,NA,NA,NA,NA,"KLBB 300055Z AUTO /////KT 2SM BLDU FEW012 BKN042 OVC055 16/12 A3007 RMK T01600120  LTG DSNT ALQDS! MADISHF"
"150558","LBB","2016-05-30 01:00:00",-101.8228,33.6636,NA,NA,NA,NA,NA,NA,30.07,NA,1.25,NA,"FEW","BKN","OVC",NA,999,4400,5500,NA,"BLDU",NA,NA,NA,NA,NA,NA,NA,"KLBB 300100Z AUTO /////KT 1 1/2SM BLDU FEW009 BKN044 OVC055 16/12 A3007 RMK T01600120  LTG DSNT ALQDS! MADISHF"
"150559","LBB","2016-05-30 01:02:00",-101.8228,33.6636,60.08,53.96,80.19,40,34,0,30.07,NA,1.25,48,"SCT","SCT","BKN","OVC",0,1200,4200,5500,"BLDU",NA,NA,NA,48,40,"2016-05-30 00:56",60.08,"KLBB 300102Z 04034G48KT 1 1/4SM BLDU SCT000 SCT012 BKN042 OVC055CB 16/12 A3007 RMK AO2 PK WND 04048/0056 TSE02 CB E AND DSNT NW-NE BLDU SCT000 T01560122"
"150560","LBB","2016-05-30 01:05:00",-101.8228,33.6636,NA,NA,NA,NA,NA,NA,30.08,NA,1.25,NA,NA,"SCT","BKN",NA,NA,1200,4200,NA,"BLDU",NA,NA,NA,NA,NA,NA,NA,"KLBB 300105Z AUTO /////KT 1 1/2SM BLDU SCT012 BKN042 16/12 A3008 RMK T01600120  LTG DSNT ALQDS!CB E AND DSNT NW-NE BLDU SCT000 MADISHF"
"150561","LBB","2016-05-30 01:10:00",-101.8228,33.6636,59,55.04,86.69,50,33,1e-04,30.08,NA,2.5,44,"SCT","SCT","OVC",NA,600,1200,4200,NA,"-TSRA BLDU",NA,NA,NA,48,40,"2016-05-30 00:56",59,"KLBB 300110Z 05033G44KT 2 1/2SM -TSRA BLDU SCT006 SCT012 OVC042CB 15/13 A3008 RMK AO2 PK WND 04048/0056 RAB06 TSE02B10 OCNL LTGICCG W-N-E TS W-N-E MOV SE P0000 T01500128"
"150562","LBB","2016-05-30 01:15:00",-101.8228,33.6636,59,55.94,89.57,50,32,1e-04,30.09,NA,4,43,"SCT","SCT","OVC",NA,900,1200,4200,NA,"-TSRA BLDU",NA,NA,NA,48,40,"2016-05-30 00:56",59,"KLBB 300115Z 05032G43KT 4SM -TSRA BLDU SCT009 SCT012 OVC042CB 15/13 A3009 RMK PK WND 04048/0056 RAB06 TSE02B10 OCNL LTGICCG W-N-E MOV SE P0000 T01500133"
"150563","LBB","2016-05-30 01:20:00",-101.8228,33.6636,NA,NA,NA,NA,NA,NA,30.1,NA,6,36,"SCT","SCT","OVC",NA,900,1200,4200,NA,"-RA BLDU",NA,NA,NA,NA,NA,NA,NA,"KLBB 300120Z AUTO /////G36KT 6SM -RA BLDU SCT009 SCT012 OVC042 14/13 A3010 RMK T01400130  LTG DSNT ALQDS!OCNL LTGICCG W-N-E TS W-N-E MOV SE MADISHF"
"150564","LBB","2016-05-30 01:25:00",-101.8228,33.6636,NA,NA,NA,NA,NA,0.01,30.09,NA,5,36,"SCT","OVC",NA,NA,900,4400,NA,NA,"RA BLDU",NA,NA,NA,NA,NA,NA,NA,"KLBB 300125Z AUTO /////G36KT 5SM RA BLDU SCT009 OVC044 14/13 A3009 RMK P0001 T01400130  LTG DSNT ALQDS!OCNL LTGICCG W-N-E TS W-N-E MOV SE MADISHF"
"154692","LBB","2016-06-12 02:25:00",-101.8228,33.6636,NA,NA,NA,230,24,NA,30.08,NA,6,NA,"FEW","SCT",NA,NA,2700,3500,NA,NA,"BLDU",NA,NA,NA,NA,NA,NA,NA,"KLBB 120225Z AUTO 23024KT 6SM BLDU FEW027 SCT035 25/17 A3008 RMK T02500170  LTG DSNT S-NW!CONS LTGCGICCA S-W-NW TS S-W-NW MOV E MADISHF"
"154693","LBB","2016-06-12 02:30:00",-101.8228,33.6636,NA,NA,NA,NA,NA,NA,30.08,NA,6,NA,"FEW","BKN","BKN",NA,2600,3500,11000,NA,"-RA BLDU",NA,NA,NA,NA,NA,NA,NA,"KLBB 120230Z AUTO /////KT 6SM -RA BLDU FEW026 BKN035 BKN110 22/16 A3008 RMK T02200160  LTG DSNT S-W!CONS LTGCGIC S-W AND OHD TS S-W-OHD MOV E MADISHF"
"154694","LBB","2016-06-12 02:31:00",-101.8228,33.6636,69.98,60.98,73.11,220,22,1e-04,30.08,NA,6,35,"FEW","BKN","BKN","OVC",2600,3500,11000,26000,"-TSRA BLDU",NA,NA,NA,NA,NA,NA,69.98,"KLBB 120231Z 22022G35KT 6SM -TSRA BLDU FEW026 BKN035CB BKN110 OVC260 21/16 A3008 RMK AO2 PK WND 22035/0228 WSHFT 0215 RAB27 CONS LTGCGIC S-W TS S-W MOV E P0000 T02110161"
"154695","LBB","2016-06-12 02:35:00",-101.8228,33.6636,NA,NA,NA,220,17,NA,30.08,NA,6,NA,"FEW","BKN","BKN",NA,2600,3500,11000,NA,"-RA BLDU",NA,NA,NA,NA,NA,NA,NA,"KLBB 120235Z AUTO 22017KT 6SM -RA BLDU FEW026 BKN035 BKN110 20/16 A3008 RMK T02000160  LTG DSNT S-W!CONS LTGCGIC S-W TS S-W MOV E MADISHF"
"159295","LBB","2016-06-26 20:53:00",-101.8228,33.6636,86,60.08,41.71,180,24,0,30.16,1015.7,6,31,"FEW","SCT","BKN","BKN",0,6500,8000,14000,"BLDU",NA,NA,NA,NA,NA,NA,85.81,"KLBB 262053Z 18024G31KT 6SM BLDU FEW000 SCT065TCU BKN080 BKN140 BKN260 30/16 A3016 RMK AO2 PK WND 18031/2053 SLP157 BLDU SCT000 CB DSNT NW-NE AND S-SW MOV NW TCU S-OHD T03000156 56008"
"159296","LBB","2016-06-26 20:55:00",-101.8228,33.6636,NA,NA,NA,NA,NA,NA,30.16,NA,7,NA,"BKN",NA,NA,NA,6500,NA,NA,NA,"BLDU",NA,NA,NA,NA,NA,NA,NA,"KLBB 262055Z AUTO /////KT 7SM BLDU BKN065 29/16 A3016 RMK T02900160 MADISHF"
"162133","LBB","2016-07-05 22:45:00",-101.8228,33.6636,NA,NA,NA,NA,NA,NA,29.93,NA,5,NA,"FEW","SCT",NA,NA,5500,11000,NA,NA,"HZ BLDU",NA,NA,NA,NA,NA,NA,NA,"KLBB 052245Z AUTO /////KT 5SM HZ BLDU FEW055 SCT110 32/19 A2993 RMK T03200190  LTG DSNT S!FRQ LTGICCG S-SW TS SW-SW AND NW MOV NE MADISHF"
"162134","LBB","2016-07-05 22:50:00",-101.8228,33.6636,NA,NA,NA,150,25,NA,29.91,NA,5,NA,"FEW","SCT",NA,NA,5500,11000,NA,NA,"HZ BLDU",NA,NA,NA,NA,NA,NA,NA,"KLBB 052250Z AUTO 15025KT 5SM HZ BLDU FEW055 SCT110 31/19 A2991 RMK T03100190  FRQ LTGICCG S-SW TS SW-SW AND NW MOV NE MADISHF"
"162135","LBB","2016-07-05 22:53:00",-101.8228,33.6636,87.08,66.02,49.66,150,26,0,29.89,1006,5,40,"FEW","SCT","BKN","BKN",5500,11000,15000,26000,"TS BLDU",NA,NA,NA,NA,NA,NA,89.43,"KLBB 052253Z 15026G40KT 5SM TS BLDU FEW055CB SCT110 BKN150 BKN260 31/19 A2989 RMK AO2 PK WND 18040/2245 TSB33 PRESFR SLP060 FRQ LTGICCG S-SW TS SW-SW AND NW MOV NE T03060189"
"162454","LBB","2016-07-06 23:07:00",-101.8228,33.6636,89.96,57.02,32.97,190,29,1e-04,29.87,NA,5,48,"CLR",NA,NA,NA,NA,NA,NA,NA,"-TSRA BLDU SQ",NA,NA,NA,NA,NA,NA,88.57,"KLBB 062307Z 19029G48KT 5SM -TSRA BLDU SQ CLR 32/14 A2987 RMK AO2 PK WND 20048/2304 RAB06 OCNL LTGICCG E-S-SW TS E-S-SW MICROBURST P0000 T03220139"
"162455","LBB","2016-07-06 23:10:00",-101.8228,33.6636,NA,NA,NA,180,29,NA,29.86,NA,5,NA,"CLR",NA,NA,NA,NA,NA,NA,NA,"-RA BLDU SQ",NA,NA,NA,NA,NA,NA,NA,"KLBB 062310Z AUTO 18029KT 5SM -RA BLDU SQ CLR 31/14 A2986 RMK T03100140  LTG DSNT SE-SW!OCNL LTGICCG E-S-SW TS E-S-SW MICROBURST MADISHF"
"162456","LBB","2016-07-06 23:15:00",-101.8228,33.6636,NA,NA,NA,NA,NA,NA,29.86,NA,8,NA,"CLR",NA,NA,NA,NA,NA,NA,NA,"BLDU",NA,NA,NA,NA,NA,NA,NA,"KLBB 062315Z AUTO /////KT 8SM BLDU CLR 31/14 A2986 RMK T03100140  LTG DSNT SE AND SW!OCNL LTGICCG E-S-SW TS E-S-SW MICROBURST MADISHF"
"162457","LBB","2016-07-06 23:20:00",-101.8228,33.6636,NA,NA,NA,190,16,NA,29.86,NA,10,NA,"CLR",NA,NA,NA,NA,NA,NA,NA,"BLDU",NA,NA,NA,NA,NA,NA,NA,"KLBB 062320Z AUTO 19016KT 10SM BLDU CLR 31/14 A2986 RMK T03100140 WND 16V22 OCNL LTGICCG E-S-SW TS E-S-SW MICROBURST MADISHF"
"162583","LBB","2016-07-07 08:50:00",-101.8228,33.6636,NA,NA,NA,200,15,NA,29.9,NA,6,NA,"CLR",NA,NA,NA,NA,NA,NA,NA,"BLDU",NA,NA,NA,NA,NA,NA,NA,"KLBB 070850Z AUTO 20015KT 6SM BLDU CLR 27/14 A2990 RMK T02700140 MADISHF"
"162584","LBB","2016-07-07 08:53:00",-101.8228,33.6636,80.06,57.02,45.3,200,16,0,29.9,1005.7,6,NA,"CLR",NA,NA,NA,NA,NA,NA,NA,"BLDU",NA,NA,NA,NA,NA,NA,80.42,"KLBB 070853Z 20016KT 6SM BLDU CLR 27/14 A2990 RMK AO2 SLP057 T02670139 58012"
"162585","LBB","2016-07-07 08:55:00",-101.8228,33.6636,NA,NA,NA,200,16,NA,29.9,NA,6,NA,"CLR",NA,NA,NA,NA,NA,NA,NA,"BLDU",NA,NA,NA,NA,NA,NA,NA,"KLBB 070855Z AUTO 20016KT 6SM BLDU CLR 27/14 A2990 RMK T02700140 MADISHF"
"162586","LBB","2016-07-07 09:00:00",-101.8228,33.6636,NA,NA,NA,200,18,NA,29.9,NA,7,NA,"CLR",NA,NA,NA,NA,NA,NA,NA,"BLDU",NA,NA,NA,NA,NA,NA,NA,"KLBB 070900Z AUTO 20018KT 7SM BLDU CLR 27/14 A2990 RMK T02700140 MADISHF"
"162834","LBB","2016-07-08 04:00:00",-101.8228,33.6636,NA,NA,NA,190,20,NA,29.9,NA,6,NA,"BKN",NA,NA,NA,1300,NA,NA,NA,"BLDU",NA,NA,NA,NA,NA,NA,NA,"KLBB 080400Z AUTO 19020KT 6SM BLDU BKN013 32/12 A2990 RMK T03200120 MADISHF"
"162835","LBB","2016-07-08 04:05:00",-101.8228,33.6636,NA,NA,NA,200,25,NA,29.91,NA,6,NA,"SCT",NA,NA,NA,1300,NA,NA,NA,"BLDU",NA,NA,NA,NA,NA,NA,NA,"KLBB 080405Z AUTO 20025KT 6SM BLDU SCT013 32/12 A2991 RMK T03200120 MADISHF"
"164987","LBB","2016-07-15 01:20:00",-101.8228,33.6636,NA,NA,NA,150,14,NA,29.95,NA,3.5,NA,"FEW",NA,NA,NA,9000,NA,NA,NA,"BLDU",NA,NA,NA,NA,NA,NA,NA,"KLBB 150120Z AUTO 15014KT 3SM BLDU FEW090 31/07 A2995 RMK T03100070  BLDU ALQDS MADISHF"
"164988","LBB","2016-07-15 01:23:00",-101.8228,33.6636,87.98,44.96,22.45,150,13,0,29.95,NA,2,NA,"FEW","BKN",NA,NA,9000,25000,NA,NA,"BLDU",NA,NA,NA,28,170,"2016-07-15 01:00",84.7,"KLBB 150123Z 15013KT 2SM BLDU FEW090 BKN250 31/07 A2995 RMK AO2 PK WND 17028/0100 SFC VIS 4 BLDU ALQDS T03110072"
"164989","LBB","2016-07-15 01:25:00",-101.8228,33.6636,NA,NA,NA,150,13,NA,29.94,NA,5,NA,"FEW",NA,NA,NA,9000,NA,NA,NA,"BLDU",NA,NA,NA,NA,NA,NA,NA,"KLBB 150125Z AUTO 15013KT 5SM BLDU FEW090 31/07 A2994 RMK T03100070  BLDU ALQDS MADISHF"
"164990","LBB","2016-07-15 01:30:00",-101.8228,33.6636,NA,NA,NA,150,14,NA,NA,NA,7,NA,"FEW",NA,NA,NA,9000,NA,NA,NA,"BLDU",NA,NA,NA,NA,NA,NA,NA,"KLBB 150130Z AUTO 15014KT 7SM BLDU FEW090 31/07 RMK T03100070  BLDU ALQDS MADISHF"
"164991","LBB","2016-07-15 01:35:00",-101.8228,33.6636,NA,NA,NA,150,10,NA,29.94,NA,8,NA,"FEW",NA,NA,NA,9000,NA,NA,NA,"BLDU",NA,NA,NA,NA,NA,NA,NA,"KLBB 150135Z AUTO 15010KT 8SM BLDU FEW090 31/07 A2994 RMK T03100070  BLDU ALQDS MADISHF"
"164992","LBB","2016-07-15 01:40:00",-101.8228,33.6636,NA,NA,NA,130,11,NA,29.95,NA,9,NA,"FEW",NA,NA,NA,9000,NA,NA,NA,"BLDU",NA,NA,NA,NA,NA,NA,NA,"KLBB 150140Z AUTO 13011KT 9SM BLDU FEW090 31/07 A2995 RMK T03100070  BLDU ALQDS MADISHF"
"164993","LBB","2016-07-15 01:45:00",-101.8228,33.6636,NA,NA,NA,100,14,NA,29.96,NA,10,NA,"FEW",NA,NA,NA,9000,NA,NA,NA,"BLDU",NA,NA,NA,NA,NA,NA,NA,"KLBB 150145Z AUTO 10014KT 10SM BLDU FEW090 30/08 A2996 RMK T03000080  BLDU ALQDS MADISHF"
"164994","LBB","2016-07-15 01:50:00",-101.8228,33.6636,NA,NA,NA,NA,NA,NA,NA,NA,10,NA,"FEW",NA,NA,NA,9000,NA,NA,NA,"BLDU",NA,NA,NA,NA,NA,NA,NA,"KLBB 150150Z AUTO /////KT 10SM BLDU FEW090 29/08 RMK T02900080  BLDU ALQDS MADISHF"
"168374","LBB","2016-07-25 22:29:00",-101.8228,33.6636,84.92,62.96,47.82,20,28,0,30.06,NA,1,40,"SCT","BKN",NA,NA,8000,11000,NA,NA,"BLDU SQ",NA,NA,NA,40,10,"2016-07-25 22:26",85.83,"KLBB 252229Z 02028G40KT 1SM BLDU SQ SCT080TCU BKN110 29/17 A3006 RMK AO2 PK WND 01040/2226 WSHFT 2210 LTG DSNT NW-E TSE28 PRESRR CB DSNT NW-NE-E MOV S TCU ALQDS T02940172 RVRNO"
"168375","LBB","2016-07-25 22:30:00",-101.8228,33.6636,NA,NA,NA,NA,NA,NA,30.05,NA,1,NA,"SCT","BKN",NA,NA,7999,11000,NA,NA,"BLDU SQ",NA,NA,NA,NA,NA,NA,NA,"KLBB 252230Z AUTO /////KT 1SM BLDU SQ SCT079 BKN110 28/18 A3005 RMK T02800180  LTG DSNT NW-E!CB DSNT NW-NE-E MOV S TCU ALQDS MADISHF"
"168376","LBB","2016-07-25 22:35:00",-101.8228,33.6636,NA,NA,NA,NA,NA,NA,30.05,NA,1,NA,"SCT","BKN",NA,NA,7999,11000,NA,NA,"BLDU SQ",NA,NA,NA,NA,NA,NA,NA,"KLBB 252235Z AUTO /////KT 1SM BLDU SQ SCT079 BKN110 27/18 A3005 RMK T02700180  LTG DSNT NW-E!CB DSNT NW-NE-E MOV S TCU ALQDS MADISHF"
"168377","LBB","2016-07-25 22:40:00",-101.8228,33.6636,80.96,64.04,56.45,30,24,0,30.05,NA,3,40,"BKN","BKN",NA,NA,8500,11000,NA,NA,"BLDU",NA,NA,NA,40,20,"2016-07-25 22:33",82.52,"KLBB 252240Z 03024G40KT 3SM BLDU BKN085TCU BKN110 27/18 A3005 RMK AO2 PK WND 02040/2233 WSHFT 2210 TSE28 CB DSNT NW-N AND E MOV S TCU ALQDS T02720178"
"168677","LBB","2016-07-26 21:45:00",-101.8228,33.6636,NA,NA,NA,NA,NA,NA,30,NA,5,NA,"BKN",NA,NA,NA,9000,NA,NA,NA,"BLDU",NA,NA,NA,NA,NA,NA,NA,"KLBB 262145Z AUTO /////KT 5SM BLDU BKN090 34/17 A3000 RMK T03400170 MADISHF"
"168678","LBB","2016-07-26 21:50:00",-101.8228,33.6636,NA,NA,NA,NA,NA,NA,30,NA,5,NA,"BKN",NA,NA,NA,8500,NA,NA,NA,"BLDU",NA,NA,NA,NA,NA,NA,NA,"KLBB 262150Z AUTO /////KT 5SM BLDU BKN085 32/18 A3000 RMK T03200180  TCU ALQDS MADISHF"
"168679","LBB","2016-07-26 21:53:00",-101.8228,33.6636,89.06,64.04,43.53,110,21,0,30.01,1010.4,5,28,"BKN","BKN",NA,NA,8500,25000,NA,NA,"BLDU",NA,NA,NA,NA,NA,NA,90.46,"KLBB 262153Z 11021G28KT 5SM BLDU BKN085TCU BKN250 32/18 A3001 RMK AO2 PK WND 12028/2141 SLP104 TCU ALQDS T03170178"
"168680","LBB","2016-07-26 21:55:00",-101.8228,33.6636,NA,NA,NA,NA,NA,NA,30.01,NA,5,NA,"BKN","OVC",NA,NA,9000,10000,NA,NA,"BLDU",NA,NA,NA,NA,NA,NA,NA,"KLBB 262155Z AUTO /////KT 5SM BLDU BKN090 OVC100 32/18 A3001 RMK T03200180 MADISHF"
"168681","LBB","2016-07-26 22:00:00",-101.8228,33.6636,NA,NA,NA,110,20,NA,30.01,NA,6,NA,"BKN","OVC",NA,NA,9000,11000,NA,NA,"BLDU",NA,NA,NA,NA,NA,NA,NA,"KLBB 262200Z AUTO 11020KT 6SM BLDU BKN090 OVC110 31/18 A3001 RMK T03100180 MADISHF"
"168682","LBB","2016-07-26 22:05:00",-101.8228,33.6636,NA,NA,NA,110,19,NA,30.01,NA,6,NA,"BKN","OVC",NA,NA,9000,11000,NA,NA,"BLDU",NA,NA,NA,NA,NA,NA,NA,"KLBB 262205Z AUTO 11019KT 6SM BLDU BKN090 OVC110 31/18 A3001 RMK T03100180  LTG DSNT NE! MADISHF"
"177206","LBB","2016-08-24 00:40:00",-101.8228,33.6636,NA,NA,NA,NA,NA,NA,30.09,NA,2.5,NA,"FEW","SCT","OVC",NA,3000,4900,6000,NA,"BLDU",NA,NA,NA,NA,NA,NA,NA,"KLBB 240040Z AUTO /////KT 2 1/2SM BLDU FEW030 SCT049 OVC060 23/14 A3009 RMK T02300140  LTG DSNT ALQDS!VIS DCRG RPDLY CONS LTGICCG W-NW TS W-NW MOV NE MADISHF"
"177207","LBB","2016-08-24 00:42:00",-101.8228,33.6636,71.96,57.02,59.32,310,27,0,30.08,NA,2,40,"BKN","OVC",NA,NA,4900,6500,NA,NA,"BLDU",NA,NA,NA,40,300,"2016-08-24 00:36",71.96,"KLBB 240042Z 31027G40KT 2SM BLDU BKN049 OVC065 22/14 A3008 RMK AO2 PK WND 30040/0036 WSHFT 0016 VIS 1V5 TSE42 CB DSNT NE MOV NE T02220139"
"177208","LBB","2016-08-24 00:45:00",-101.8228,33.6636,NA,NA,NA,320,27,NA,30.08,NA,2,NA,"BKN","OVC",NA,NA,4900,6500,NA,NA,"BLDU",NA,NA,NA,NA,NA,NA,NA,"KLBB 240045Z AUTO 32027KT 2SM BLDU BKN049 OVC065 22/14 A3008 RMK T02200140  LTG DSNT W-NE!CB DSNT NE MOV NE MADISHF"
"177209","LBB","2016-08-24 00:50:00",-101.8228,33.6636,NA,NA,NA,NA,NA,NA,30.09,NA,2,19,"OVC",NA,NA,NA,4900,NA,NA,NA,"BLDU",NA,NA,NA,NA,NA,NA,NA,"KLBB 240050Z AUTO /////G19KT 2SM BLDU OVC049 21/13 A3009 RMK T02100130  LTG DSNT W-NE!CB DSNT NE MOV NE MADISHF"
"177210","LBB","2016-08-24 00:53:00",-101.8228,33.6636,71.06,57.02,61.16,320,12,0,30.08,1014.4,5,33,"OVC",NA,NA,NA,4900,NA,NA,NA,"BLDU",NA,NA,NA,40,300,"2016-08-24 00:36",71.06,"KLBB 240053Z 32012G33KT 5SM BLDU OVC049 22/14 A3008 RMK AO2 PK WND 30040/0036 WSHFT 0016 TSE42 SLP144 CB DSNT N-NE MOV NE T02170139"
"177211","LBB","2016-08-24 00:55:00",-101.8228,33.6636,NA,NA,NA,320,10,NA,30.08,NA,8,NA,"BKN","BKN","OVC",NA,4900,6000,10000,NA,"BLDU",NA,NA,NA,NA,NA,NA,NA,"KLBB 240055Z AUTO 32010KT 8SM BLDU BKN049 BKN060 OVC100 22/14 A3008 RMK T02200140  LTG DSNT W-NE! MADISHF"
"177212","LBB","2016-08-24 01:00:00",-101.8228,33.6636,NA,NA,NA,320,5,NA,30.08,NA,8,NA,"BKN","BKN","BKN",NA,4900,10000,12000,NA,"BLDU",NA,NA,NA,NA,NA,NA,NA,"KLBB 240100Z AUTO 32005KT 8SM BLDU BKN049 BKN100 BKN120 23/15 A3008 RMK T02300150  LTG DSNT W-NE! MADISHF"
"177213","LBB","2016-08-24 01:05:00",-101.8228,33.6636,NA,NA,NA,40,9,NA,30.07,NA,8,NA,"SCT","SCT","OVC",NA,4900,6000,11000,NA,"BLDU",NA,NA,NA,NA,NA,NA,NA,"KLBB 240105Z AUTO 04009KT 8SM BLDU SCT049 SCT060 OVC110 23/15 A3007 RMK T02300150  LTG DSNT NW-NE! MADISHF"
"187473","LBB","2016-09-25 17:05:00",-101.8228,33.6636,NA,NA,NA,30,28,NA,30.2,NA,6,NA,"BKN","OVC",NA,NA,1400,1999,NA,NA,"BLDU",NA,NA,NA,NA,NA,NA,NA,"KLBB 251705Z AUTO 03028KT 6SM BLDU BKN014 OVC019 17/11 A3020 RMK T01700110 MADISHF"
"187474","LBB","2016-09-25 17:07:00",-101.8228,33.6636,62.96,51.08,65.14,30,24,0,30.2,NA,6,37,"BKN","OVC",NA,NA,1600,2500,NA,NA,"BLDU",NA,NA,NA,37,30,"2016-09-25 17:00",62.96,"KLBB 251707Z 03024G37KT 6SM BLDU BKN016 OVC025 17/11 A3020 RMK AO2 PK WND 03037/1700 T01720106"
"187475","LBB","2016-09-25 17:10:00",-101.8228,33.6636,NA,NA,NA,20,23,NA,30.2,NA,6,NA,"BKN","BKN","OVC",NA,1500,1900,2500,NA,"BLDU",NA,NA,NA,NA,NA,NA,NA,"KLBB 251710Z AUTO 02023KT 6SM BLDU BKN015 BKN019 OVC025 17/11 A3020 RMK T01700110 MADISHF"
"187476","LBB","2016-09-25 17:15:00",-101.8228,33.6636,NA,NA,NA,30,21,NA,30.2,NA,7,NA,"SCT","BKN","OVC",NA,1500,2100,2900,NA,"BLDU",NA,NA,NA,NA,NA,NA,NA,"KLBB 251715Z AUTO 03021KT 7SM BLDU SCT015 BKN021 OVC029 17/11 A3020 RMK T01700110 MADISHF"
"187479","LBB","2016-09-25 17:30:00",-101.8228,33.6636,NA,NA,NA,30,28,NA,30.2,NA,6,NA,"FEW","BKN","BKN",NA,1699,2600,3200,NA,"BLDU",NA,NA,NA,NA,NA,NA,NA,"KLBB 251730Z AUTO 03028KT 6SM BLDU FEW016 BKN026 BKN032 18/10 A3020 RMK T01800100 MADISHF"
"187480","LBB","2016-09-25 17:35:00",-101.8228,33.6636,NA,NA,NA,40,22,NA,30.2,NA,5,NA,"SCT","BKN",NA,NA,2300,2900,NA,NA,"BLDU",NA,NA,NA,NA,NA,NA,NA,"KLBB 251735Z AUTO 04022KT 5SM BLDU SCT023 BKN029 18/09 A3020 RMK T01800090 MADISHF"
"187481","LBB","2016-09-25 17:40:00",-101.8228,33.6636,NA,NA,NA,40,22,NA,30.21,NA,5,NA,"SCT",NA,NA,NA,2600,NA,NA,NA,"BLDU",NA,NA,NA,NA,NA,NA,NA,"KLBB 251740Z AUTO 04022KT 5SM BLDU SCT026 18/10 A3021 RMK T01800100 MADISHF"
"187482","LBB","2016-09-25 17:45:00",-101.8228,33.6636,NA,NA,NA,40,23,NA,30.21,NA,5,NA,"SCT","SCT",NA,NA,2600,3000,NA,NA,"BLDU",NA,NA,NA,NA,NA,NA,NA,"KLBB 251745Z AUTO 04023KT 5SM BLDU SCT026 SCT030 18/09 A3021 RMK T01800090 MADISHF"
"187483","LBB","2016-09-25 17:48:00",-101.8228,33.6636,64.4,48.2,55.63,40,24,0,30.21,NA,5,35,"SCT","SCT","BKN","OVC",2600,3000,17000,26000,"BLDU HZ",NA,NA,NA,40,30,"2016-09-25 17:28",64.4,"KLBB 251748Z 04024G35KT 5SM BLDU HZ SCT026 SCT030 BKN170 OVC260 18/09 A3021 RMK AO2 PK WND 03040/1728"
"187484","LBB","2016-09-25 17:50:00",-101.8228,33.6636,NA,NA,NA,NA,NA,NA,30.21,NA,5,NA,"SCT","SCT",NA,NA,2600,3000,NA,NA,"HZ BLDU",NA,NA,NA,NA,NA,NA,NA,"KLBB 251750Z AUTO /////KT 5SM HZ BLDU SCT026 SCT030 18/09 A3021 RMK T01800090 MADISHF"
"187485","LBB","2016-09-25 17:53:00",-101.8228,33.6636,64.94,48.92,56.08,30,22,0,30.21,1019.5,6,33,"SCT","BKN","OVC",NA,2800,17000,26000,NA,"BLDU HZ",NA,NA,NA,40,30,"2016-09-25 17:28",64.94,"KLBB 251753Z 03022G33KT 6SM BLDU HZ SCT028 BKN170 OVC260 18/09 A3021 RMK AO2 PK WND 03040/1728 SLP195 T01830094 10217 20172 51016"
"187486","LBB","2016-09-25 17:55:00",-101.8228,33.6636,NA,NA,NA,40,22,NA,30.21,NA,6,28,"SCT",NA,NA,NA,3000,NA,NA,NA,"HZ BLDU",NA,NA,NA,NA,NA,NA,NA,"KLBB 251755Z AUTO 04022G28KT 6SM HZ BLDU SCT030 18/09 A3021 RMK T01800090 MADISHF"
"187492","LBB","2016-09-25 18:25:00",-101.8228,33.6636,NA,NA,NA,30,26,NA,30.21,NA,6,NA,"FEW","SCT","SCT",NA,3200,9500,12000,NA,"HZ BLDU",NA,NA,NA,NA,NA,NA,NA,"KLBB 251825Z AUTO 03026KT 6SM HZ BLDU FEW032 SCT095 SCT120 18/09 A3021 RMK T01800090  CB DSNT SE-SW MOV SW MADISHF"
"187493","LBB","2016-09-25 18:30:00",-101.8228,33.6636,NA,NA,NA,NA,NA,NA,30.22,NA,6,NA,"FEW","SCT","SCT",NA,3399,9500,12000,NA,"HZ BLDU",NA,NA,NA,NA,NA,NA,NA,"KLBB 251830Z AUTO /////KT 6SM HZ BLDU FEW033 SCT095 SCT120 18/08 A3022 RMK T01800080  CB DSNT SE-SW MOV SW MADISHF"
"187494","LBB","2016-09-25 18:35:00",-101.8228,33.6636,NA,NA,NA,NA,NA,NA,30.22,NA,6,NA,"FEW","SCT","BKN",NA,3800,9500,12000,NA,"HZ BLDU",NA,NA,NA,NA,NA,NA,NA,"KLBB 251835Z AUTO /////KT 6SM HZ BLDU FEW038 SCT095 BKN120 18/08 A3022 RMK T01800080  CB DSNT SE-SW MOV SW MADISHF"
"187495","LBB","2016-09-25 18:40:00",-101.8228,33.6636,NA,NA,NA,40,24,NA,30.22,NA,6,NA,"BKN","BKN",NA,NA,10000,12000,NA,NA,"HZ BLDU",NA,NA,NA,NA,NA,NA,NA,"KLBB 251840Z AUTO 04024KT 6SM HZ BLDU BKN100 BKN120 18/08 A3022 RMK T01800080  CB DSNT SE-SW MOV SW MADISHF"
"187496","LBB","2016-09-25 18:45:00",-101.8228,33.6636,NA,NA,NA,30,23,NA,30.22,NA,6,NA,"SCT","BKN",NA,NA,10000,12000,NA,NA,"HZ BLDU",NA,NA,NA,NA,NA,NA,NA,"KLBB 251845Z AUTO 03023KT 6SM HZ BLDU SCT100 BKN120 18/08 A3022 RMK T01800080  CB DSNT SE-SW MOV SW MADISHF"
"187497","LBB","2016-09-25 18:50:00",-101.8228,33.6636,NA,NA,NA,30,20,NA,30.22,NA,8,NA,"SCT","OVC",NA,NA,10000,12000,NA,NA,"BLDU",NA,NA,NA,NA,NA,NA,NA,"KLBB 251850Z AUTO 03020KT 8SM BLDU SCT100 OVC120 18/08 A3022 RMK T01800080  CB DSNT SE-SW MOV SW MADISHF"
"191065","LBB","2016-10-07 05:00:00",-101.8228,33.6636,NA,NA,NA,20,NA,NA,30.06,NA,6,NA,"CLR",NA,NA,NA,NA,NA,NA,NA,"BLDU",NA,NA,NA,NA,NA,NA,NA,"KLBB 070500Z AUTO 020//KT 6SM BLDU CLR 17/09 A3006 RMK T01700090 MADISHF"
"211672","LBB","2016-12-11 18:15:00",-101.8228,33.6636,NA,NA,NA,290,26,NA,29.82,NA,5,NA,"CLR",NA,NA,NA,NA,NA,NA,NA,"BLDU",NA,NA,NA,NA,NA,NA,NA,"KLBB 111815Z AUTO 29026KT 5SM BLDU CLR 20/M02 A2982 RMK T02001020 MADISHF"
"211673","LBB","2016-12-11 18:20:00",-101.8228,33.6636,NA,NA,NA,290,25,NA,29.82,NA,6,NA,"CLR",NA,NA,NA,NA,NA,NA,NA,"BLDU",NA,NA,NA,NA,NA,NA,NA,"KLBB 111820Z AUTO 29025KT 6SM BLDU CLR 20/M02 A2982 RMK T02001020 MADISHF"
"213232","LBB","2016-12-16 17:44:00",-101.8228,33.6636,73,25,16.56,240,27,0,29.7,NA,4,38,"SCT","SCT","SCT","BKN",0,15000,26000,30000,"BLDU",NA,NA,NA,NA,NA,NA,70.78,"KLBB 161744Z 24027G38KT 4SM BLDU SCT000 SCT150 SCT260 BKN300 23/M04 A2970 RMK AO2 PK WND 25038/1740 BLDU SCT000 BKN LYR THN T02281039"
"213233","LBB","2016-12-16 17:45:00",-101.8228,33.6636,NA,NA,NA,240,28,NA,29.71,NA,4,NA,NA,NA,NA,NA,NA,NA,NA,NA,"BLDU",NA,NA,NA,NA,NA,NA,NA,"KLBB 161745Z AUTO 24028KT 4SM BLDU A2971 RMK  BLDU SCT000 BKN LYR THN MADISHF"
"213234","LBB","2016-12-16 17:50:00",-101.8228,33.6636,NA,NA,NA,250,28,NA,29.71,NA,5,NA,NA,NA,NA,NA,NA,NA,NA,NA,"BLDU",NA,NA,NA,NA,NA,NA,NA,"KLBB 161750Z AUTO 25028KT 5SM BLDU A2971 RMK  BLDU SCT000 BKN LYR THN MADISHF"
"213235","LBB","2016-12-16 17:53:00",-101.8228,33.6636,73.9,25,16.06,240,26,0,29.7,1003,5,39,"SCT","SCT","SCT","BKN",0,15000,26000,30000,"BLDU",NA,NA,NA,NA,NA,NA,71.75,"KLBB 161753Z 24026G39KT 5SM BLDU SCT000 SCT150 SCT260 BKN300 23/M04 A2970 RMK AO2 PK WND 25039/1751 SLP030 BLDU SCT000 BKN LYR THN T02331039 10233 20044 58019"
"213236","LBB","2016-12-16 17:55:00",-101.8228,33.6636,NA,NA,NA,240,26,NA,29.7,NA,6,NA,"FEW",NA,NA,NA,1999,NA,NA,NA,"BLDU",NA,NA,NA,NA,NA,NA,NA,"KLBB 161755Z AUTO 24026KT 6SM BLDU FEW019 A2970 RMK MADISHF"
"213237","LBB","2016-12-16 18:00:00",-101.8228,33.6636,NA,NA,NA,240,28,NA,29.69,NA,6,NA,"FEW",NA,NA,NA,1999,NA,NA,NA,"BLDU",NA,NA,NA,NA,NA,NA,NA,"KLBB 161800Z AUTO 24028KT 6SM BLDU FEW019 A2969 RMK MADISHF"
"213238","LBB","2016-12-16 18:05:00",-101.8228,33.6636,NA,NA,NA,240,29,NA,29.69,NA,6,NA,"FEW",NA,NA,NA,1999,NA,NA,NA,"BLDU",NA,NA,NA,NA,NA,NA,NA,"KLBB 161805Z AUTO 24029KT 6SM BLDU FEW019 A2969 RMK MADISHF"
"213239","LBB","2016-12-16 18:10:00",-101.8228,33.6636,NA,NA,NA,240,29,NA,29.68,NA,6,NA,"CLR",NA,NA,NA,NA,NA,NA,NA,"BLDU",NA,NA,NA,NA,NA,NA,NA,"KLBB 161810Z AUTO 24029KT 6SM BLDU CLR A2968 RMK MADISHF"
"213240","LBB","2016-12-16 18:15:00",-101.8228,33.6636,NA,NA,NA,240,31,NA,29.68,NA,6,NA,"CLR",NA,NA,NA,NA,NA,NA,NA,"BLDU",NA,NA,NA,NA,NA,NA,NA,"KLBB 161815Z AUTO 24031KT 6SM BLDU CLR A2968 RMK MADISHF"
"213241","LBB","2016-12-16 18:20:00",-101.8228,33.6636,NA,NA,NA,240,27,NA,29.68,NA,6,NA,"CLR",NA,NA,NA,NA,NA,NA,NA,"BLDU",NA,NA,NA,NA,NA,NA,NA,"KLBB 161820Z AUTO 24027KT 6SM BLDU CLR A2968 RMK MADISHF"
"213242","LBB","2016-12-16 18:25:00",-101.8228,33.6636,NA,NA,NA,240,27,NA,29.68,NA,6,NA,"CLR",NA,NA,NA,NA,NA,NA,NA,"BLDU",NA,NA,NA,NA,NA,NA,NA,"KLBB 161825Z AUTO 24027KT 6SM BLDU CLR A2968 RMK MADISHF"
"213243","LBB","2016-12-16 18:30:00",-101.8228,33.6636,NA,NA,NA,250,28,NA,29.68,NA,7,NA,"CLR",NA,NA,NA,NA,NA,NA,NA,"BLDU",NA,NA,NA,NA,NA,NA,NA,"KLBB 161830Z AUTO 25028KT 7SM BLDU CLR A2968 RMK MADISHF"
"213244","LBB","2016-12-16 18:35:00",-101.8228,33.6636,NA,NA,NA,250,28,NA,29.67,NA,7,NA,"CLR",NA,NA,NA,NA,NA,NA,NA,"BLDU",NA,NA,NA,NA,NA,NA,NA,"KLBB 161835Z AUTO 25028KT 7SM BLDU CLR A2967 RMK MADISHF"
"213245","LBB","2016-12-16 18:40:00",-101.8228,33.6636,NA,NA,NA,250,28,NA,29.67,NA,6,NA,"FEW",NA,NA,NA,2500,NA,NA,NA,"BLDU",NA,NA,NA,NA,NA,NA,NA,"KLBB 161840Z AUTO 25028KT 6SM BLDU FEW025 A2967 RMK MADISHF"
"213246","LBB","2016-12-16 18:45:00",-101.8228,33.6636,NA,NA,NA,250,33,NA,29.67,NA,5,NA,"SCT",NA,NA,NA,2500,NA,NA,NA,"BLDU",NA,NA,NA,NA,NA,NA,NA,"KLBB 161845Z AUTO 25033KT 5SM BLDU SCT025 A2967 RMK MADISHF"
"213247","LBB","2016-12-16 18:50:00",-101.8228,33.6636,NA,NA,NA,250,31,NA,29.67,NA,5,NA,"BKN",NA,NA,NA,2500,NA,NA,NA,"BLDU",NA,NA,NA,NA,NA,NA,NA,"KLBB 161850Z AUTO 25031KT 5SM BLDU BKN025 A2967 RMK MADISHF"
"213248","LBB","2016-12-16 18:53:00",-101.8228,33.6636,78.1,25,13.97,250,32,0,29.66,1001.1,5,40,"SCT","SCT","SCT","BKN",0,2500,26000,30000,"BLDU",NA,NA,NA,NA,NA,NA,76.27,"KLBB 161853Z 25032G40KT 5SM BLDU SCT000 SCT025 SCT260 BKN300 26/M04 A2966 RMK AO2 PK WND 26042/1842 SLP011 BLDU SCT000 BKN LYR THN T02561039"
"213249","LBB","2016-12-16 18:55:00",-101.8228,33.6636,NA,NA,NA,250,30,NA,29.66,NA,5,NA,"BKN",NA,NA,NA,2500,NA,NA,NA,"BLDU",NA,NA,NA,NA,NA,NA,NA,"KLBB 161855Z AUTO 25030KT 5SM BLDU BKN025 A2966 RMK MADISHF"
"213250","LBB","2016-12-16 19:00:00",-101.8228,33.6636,NA,NA,NA,250,28,NA,29.66,NA,5,NA,"SCT",NA,NA,NA,2500,NA,NA,NA,"BLDU",NA,NA,NA,NA,NA,NA,NA,"KLBB 161900Z AUTO 25028KT 5SM BLDU SCT025 A2966 RMK MADISHF"
"213251","LBB","2016-12-16 19:05:00",-101.8228,33.6636,NA,NA,NA,240,30,NA,29.65,NA,5,NA,"SCT",NA,NA,NA,2400,NA,NA,NA,"BLDU",NA,NA,NA,NA,NA,NA,NA,"KLBB 161905Z AUTO 24030KT 5SM BLDU SCT024 A2965 RMK MADISHF"
"213252","LBB","2016-12-16 19:10:00",-101.8228,33.6636,NA,NA,NA,250,29,NA,29.65,NA,5,NA,"FEW",NA,NA,NA,2400,NA,NA,NA,"BLDU",NA,NA,NA,NA,NA,NA,NA,"KLBB 161910Z AUTO 25029KT 5SM BLDU FEW024 A2965 RMK MADISHF"
"213253","LBB","2016-12-16 19:15:00",-101.8228,33.6636,NA,NA,NA,240,29,NA,29.64,NA,6,NA,"FEW",NA,NA,NA,2400,NA,NA,NA,"BLDU",NA,NA,NA,NA,NA,NA,NA,"KLBB 161915Z AUTO 24029KT 6SM BLDU FEW024 A2964 RMK MADISHF"
"213254","LBB","2016-12-16 19:20:00",-101.8228,33.6636,NA,NA,NA,240,28,NA,29.64,NA,6,NA,"FEW",NA,NA,NA,3200,NA,NA,NA,"BLDU",NA,NA,NA,NA,NA,NA,NA,"KLBB 161920Z AUTO 24028KT 6SM BLDU FEW032 A2964 RMK MADISHF"
"213255","LBB","2016-12-16 19:25:00",-101.8228,33.6636,NA,NA,NA,250,30,NA,29.64,NA,6,NA,"SCT",NA,NA,NA,3200,NA,NA,NA,"BLDU",NA,NA,NA,NA,NA,NA,NA,"KLBB 161925Z AUTO 25030KT 6SM BLDU SCT032 A2964 RMK MADISHF"
"213256","LBB","2016-12-16 19:30:00",-101.8228,33.6636,NA,NA,NA,250,28,NA,29.64,NA,6,NA,"SCT",NA,NA,NA,3399,NA,NA,NA,"BLDU",NA,NA,NA,NA,NA,NA,NA,"KLBB 161930Z AUTO 25028KT 6SM BLDU SCT033 A2964 RMK MADISHF"
"213257","LBB","2016-12-16 19:35:00",-101.8228,33.6636,NA,NA,NA,250,25,NA,29.64,NA,6,NA,"SCT",NA,NA,NA,3399,NA,NA,NA,"BLDU",NA,NA,NA,NA,NA,NA,NA,"KLBB 161935Z AUTO 25025KT 6SM BLDU SCT033 A2964 RMK MADISHF"
"213258","LBB","2016-12-16 19:40:00",-101.8228,33.6636,NA,NA,NA,250,28,NA,29.63,NA,6,NA,"SCT",NA,NA,NA,3600,NA,NA,NA,"BLDU",NA,NA,NA,NA,NA,NA,NA,"KLBB 161940Z AUTO 25028KT 6SM BLDU SCT036 A2963 RMK MADISHF"
"213259","LBB","2016-12-16 19:45:00",-101.8228,33.6636,NA,NA,NA,250,26,NA,29.63,NA,6,NA,"SCT",NA,NA,NA,3600,NA,NA,NA,"BLDU",NA,NA,NA,NA,NA,NA,NA,"KLBB 161945Z AUTO 25026KT 6SM BLDU SCT036 A2963 RMK MADISHF"
"213260","LBB","2016-12-16 19:50:00",-101.8228,33.6636,NA,NA,NA,260,28,NA,29.64,NA,6,NA,"FEW",NA,NA,NA,3600,NA,NA,NA,"BLDU",NA,NA,NA,NA,NA,NA,NA,"KLBB 161950Z AUTO 26028KT 6SM BLDU FEW036 A2964 RMK MADISHF"
"213261","LBB","2016-12-16 19:53:00",-101.8228,33.6636,78.1,27,15.17,260,32,0,29.64,1000.2,6,45,"FEW",NA,NA,NA,3600,NA,NA,NA,"BLDU",NA,NA,NA,NA,NA,NA,76.32,"KLBB 161953Z 26032G45KT 6SM BLDU FEW036 26/M03 A2964 RMK AO2 PK WND 25045/1953 SLP002 T02561028"
"213262","LBB","2016-12-16 19:55:00",-101.8228,33.6636,NA,NA,NA,260,30,NA,29.64,NA,6,NA,"FEW",NA,NA,NA,3600,NA,NA,NA,"BLDU",NA,NA,NA,NA,NA,NA,NA,"KLBB 161955Z AUTO 26030KT 6SM BLDU FEW036 A2964 RMK MADISHF"
"213263","LBB","2016-12-16 20:00:00",-101.8228,33.6636,NA,NA,NA,250,24,NA,29.64,NA,6,NA,"CLR",NA,NA,NA,NA,NA,NA,NA,"BLDU",NA,NA,NA,NA,NA,NA,NA,"KLBB 162000Z AUTO 25024KT 6SM BLDU CLR A2964 RMK MADISHF"
"213264","LBB","2016-12-16 20:05:00",-101.8228,33.6636,NA,NA,NA,250,33,NA,29.63,NA,6,NA,"CLR",NA,NA,NA,NA,NA,NA,NA,"BLDU",NA,NA,NA,NA,NA,NA,NA,"KLBB 162005Z AUTO 25033KT 6SM BLDU CLR A2963 RMK MADISHF"
"213265","LBB","2016-12-16 20:10:00",-101.8228,33.6636,NA,NA,NA,250,33,NA,29.63,NA,6,NA,"CLR",NA,NA,NA,NA,NA,NA,NA,"BLDU",NA,NA,NA,NA,NA,NA,NA,"KLBB 162010Z AUTO 25033KT 6SM BLDU CLR A2963 RMK MADISHF"
"213266","LBB","2016-12-16 20:15:00",-101.8228,33.6636,NA,NA,NA,260,30,NA,29.63,NA,6,NA,"CLR",NA,NA,NA,NA,NA,NA,NA,"BLDU",NA,NA,NA,NA,NA,NA,NA,"KLBB 162015Z AUTO 26030KT 6SM BLDU CLR A2963 RMK MADISHF"
"213267","LBB","2016-12-16 20:20:00",-101.8228,33.6636,NA,NA,NA,250,28,NA,29.63,NA,7,NA,"CLR",NA,NA,NA,NA,NA,NA,NA,"BLDU",NA,NA,NA,NA,NA,NA,NA,"KLBB 162020Z AUTO 25028KT 7SM BLDU CLR A2963 RMK MADISHF"
"213268","LBB","2016-12-16 20:25:00",-101.8228,33.6636,NA,NA,NA,240,29,NA,29.63,NA,6,NA,"FEW",NA,NA,NA,3800,NA,NA,NA,"BLDU",NA,NA,NA,NA,NA,NA,NA,"KLBB 162025Z AUTO 24029KT 6SM BLDU FEW038 A2963 RMK MADISHF"
"213269","LBB","2016-12-16 20:30:00",-101.8228,33.6636,NA,NA,NA,250,24,NA,29.62,NA,6,NA,"CLR",NA,NA,NA,NA,NA,NA,NA,"BLDU",NA,NA,NA,NA,NA,NA,NA,"KLBB 162030Z AUTO 25024KT 6SM BLDU CLR A2962 RMK MADISHF"
"213270","LBB","2016-12-16 20:35:00",-101.8228,33.6636,NA,NA,NA,250,26,NA,29.63,NA,7,NA,"CLR",NA,NA,NA,NA,NA,NA,NA,"BLDU",NA,NA,NA,NA,NA,NA,NA,"KLBB 162035Z AUTO 25026KT 7SM BLDU CLR A2963 RMK MADISHF"
"213271","LBB","2016-12-16 20:40:00",-101.8228,33.6636,NA,NA,NA,250,27,NA,29.63,NA,8,NA,"CLR",NA,NA,NA,NA,NA,NA,NA,"BLDU",NA,NA,NA,NA,NA,NA,NA,"KLBB 162040Z AUTO 25027KT 8SM BLDU CLR A2963 RMK MADISHF"
"213272","LBB","2016-12-16 20:45:00",-101.8228,33.6636,NA,NA,NA,240,25,NA,29.64,NA,8,NA,"BKN",NA,NA,NA,3800,NA,NA,NA,"BLDU",NA,NA,NA,NA,NA,NA,NA,"KLBB 162045Z AUTO 24025KT 8SM BLDU BKN038 A2964 RMK MADISHF"
"213573","LBB","2016-12-17 19:45:00",-101.8228,33.6636,NA,NA,NA,360,22,NA,29.87,NA,6,NA,"OVC",NA,NA,NA,2200,NA,NA,NA,"BLDU",NA,NA,NA,NA,NA,NA,NA,"KLBB 171945Z AUTO 36022KT 6SM BLDU OVC022 A2987 RMK MADISHF"
"213574","LBB","2016-12-17 19:50:00",-101.8228,33.6636,21.2,10.4,62.53,10,27,1e-04,29.86,NA,6,34,"OVC",NA,NA,NA,2200,NA,NA,NA,"PL BLDU",NA,NA,NA,NA,NA,NA,2.62,"KLBB 171950Z 01027G34KT 6SM PL BLDU OVC022 M06/M12 A2986 RMK AO2 PK WND 35038/1923 PLB49 P0000"
"213575","LBB","2016-12-17 19:53:00",-101.8228,33.6636,19.9,9,62.07,360,25,1e-04,29.86,1011,6,33,"OVC",NA,NA,NA,2200,NA,NA,NA,"PL BLDU",NA,NA,NA,NA,NA,NA,1.43,"KLBB 171953Z 36025G33KT 6SM PL BLDU OVC022 M07/M13 A2986 RMK AO2 PK WND 35038/1923 PLB49 SLP110 PCPN VERY LGT P0000 T10671128"
"213576","LBB","2016-12-17 19:55:00",-101.8228,33.6636,NA,NA,NA,360,25,NA,29.86,NA,6,NA,"OVC",NA,NA,NA,2200,NA,NA,NA,"PL BLDU",NA,NA,NA,NA,NA,NA,NA,"KLBB 171955Z AUTO 36025KT 6SM PL BLDU OVC022 A2986 RMK MADISHF"
"213577","LBB","2016-12-17 20:00:00",-101.8228,33.6636,NA,NA,NA,10,25,NA,29.87,NA,6,NA,"OVC",NA,NA,NA,2200,NA,NA,NA,"PL SN BLDU",NA,NA,NA,NA,NA,NA,NA,"KLBB 172000Z AUTO 01025KT 6SM PL SN BLDU OVC022 A2987 RMK MADISHF"
"215992","LBB","2016-12-25 13:30:00",-101.8228,33.6636,NA,NA,NA,220,26,NA,29.73,NA,4,NA,"BKN","BKN","BKN",NA,1999,3000,3999,NA,"-RA BLDU",NA,NA,NA,NA,NA,NA,NA,"KLBB 251330Z AUTO 22026KT 4SM -RA BLDU BKN019 BKN030 BKN039 A2973 RMK MADISHF"
