"","station","valid","lon","lat","tmpf","dwpf","relh","drct","sknt","p01i","alti","mslp","vsby","gust","skyc1","skyc2","skyc3","skyc4","skyl1","skyl2","skyl3","skyl4","wxcodes","ice_accretion_1hr","ice_accretion_3hr","ice_accretion_6hr","peak_wind_gust","peak_wind_drct","peak_wind_time","feel","metar"
"1193","LTS","2001-03-15 15:07:00",-99.2667,34.6671,51.8,28.4,40.25,310,31,NA,29.7,NA,7,40,"FEW","FEW","   ","   ",0,10000,NA,NA,"BLDU",NA,NA,NA,NA,NA,NA,51.8,"KLTS 151507Z 31031G40KT 7SM BLDU FEW000 FEW100 11/M02 A2970 RMK VIS N 3 DU FEW000"
"1194","LTS","2001-03-15 15:59:00",-99.2667,34.6671,53.6,28.4,37.67,310,26,NA,29.71,1006,7,42,"FEW","SCT","   ","   ",0,10000,NA,NA,"BLDU",NA,NA,NA,45,290,"2001-03-15 15:23",53.6,"KLTS 151559Z COR 31026G42KT 7SM BLDU FEW000 SCT100 12/M02 A2971 RMK VIS N 3 PK WND 29045/23 BLDU FEW000 SLP060 8/070 9/030 COR 1626"
"1195","LTS","2001-03-15 16:59:00",-99.2667,34.6671,51.8,32,46.59,310,31,NA,29.72,1006.4,7,47,"FEW","BKN","   ","   ",0,4000,NA,NA,"BLDU",NA,NA,NA,NA,NA,NA,51.8,"KLTS 151659Z 31031G47KT 7SM BLDU FEW000 BKN040 11/00 A2972 RMK VIS N 3 BLDU FEW000 SLP064 8/500 9/600 WND RWY 35R 290/28G37KT"
"1196","LTS","2001-03-15 17:55:00",-99.2667,34.6671,51.8,32,46.59,310,33,NA,29.75,1006.4,7,43,"FEW","BKN","   ","   ",0,4000,NA,NA,"BLDU",NA,NA,NA,48,300,"2001-03-15 17:33",51.8,"KLTS 151755Z 31033G43KT 7SM BLDU FEW000 BKN040 11/00 A2975 RMK VIS N 3 PK WND 30048/33 BLDU FEW000 SLP064 8/500 9/700 53014"
"1197","LTS","2001-03-15 18:21:00",-99.2667,34.6671,51.8,32,46.59,320,36,NA,29.77,NA,7,47,"FEW","BKN","   ","   ",0,4000,NA,NA,"-RA BLDU",NA,NA,NA,NA,NA,NA,51.8,"KLTS 151821Z COR 32036G47KT 7SM -RA BLDU FEW000 BKN040 11/00 A2977 RMK VIS N 3 TWR VIS 1 BLDU FEW000 COR 1825"
"1198","LTS","2001-03-15 18:49:00",-99.2667,34.6671,46.4,32,57,310,34,NA,29.79,NA,7,49,"FEW","BKN","   ","   ",0,4000,NA,NA,"BLDU",NA,NA,NA,NA,NA,NA,35.93,"KLTS 151849Z 31034G49KT 7SM BLDU FEW000 BKN040 08/00 A2979 RMK VIS N 3 TWR VIS 1 BLDU FEW000"
"1199","LTS","2001-03-15 18:58:00",-99.2667,34.6671,46.4,32,57,330,38,NA,29.8,1009.3,7,51,"FEW","SCT","BKN","   ",0,3000,4000,NA,"BLDU",NA,NA,NA,NA,NA,NA,35.42,"KLTS 151858Z 33038G51KT 7SM BLDU FEW000 SCT030 BKN040 08/00 A2980 RMK VIS N 3 TWR VIS 1 BLDU FEW000 SLP093 8/500 9/700"
"1200","LTS","2001-03-15 19:11:00",-99.2667,34.6671,46.4,32,57,330,38,NA,29.81,NA,7,51,"FEW","SCT","BKN","   ",0,3000,4000,NA,"-RA BLDU",NA,NA,NA,NA,NA,NA,35.42,"KLTS 151911Z 33038G51KT 7SM -RA BLDU FEW000 SCT030 BKN040 08/00 A2981 RMK VIS N 3 TWR VIS 1 BLDU FEW000"
"1201","LTS","2001-03-15 19:57:00",-99.2667,34.6671,42.8,32,65.38,320,36,NA,29.83,1010.6,7,49,"FEW","FEW","OVC","   ",0,2800,3000,NA,"-RA BLDU",NA,NA,NA,54,320,"2001-03-15 19:41",30.64,"KLTS 151957Z 32036G49KT 7SM -RA BLDU FEW000 FEW028 OVC030 06/00 A2983 RMK VIS N 3 TWR VIS 1 PK WND 32054/41 BLDU FEW000 SLP106 8/5// 9/8// WND RWY 35R 310/28G41KT"
"1202","LTS","2001-03-15 20:26:00",-99.2667,34.6671,41,32,70.08,340,41,NA,29.83,NA,7,51,"FEW","BKN","OVC","   ",0,2500,3000,NA,"-RA BLDU",NA,NA,NA,NA,NA,NA,27.43,"KLTS 152026Z 34041G51KT 7SM -RA BLDU FEW000 BKN025 OVC030 05/00 A2983 RMK VIS N 3 TWR VIS 1 BLDU FEW000"
"1203","LTS","2001-03-15 20:56:00",-99.2667,34.6671,44.6,30.2,56.74,330,34,NA,29.82,1010.9,7,47,"FEW","BKN","BKN","   ",0,2500,10000,NA,"-RA BLDU",NA,NA,NA,51,330,"2001-03-15 20:24",33.43,"KLTS 152056Z 33034G47KT 7SM -RA BLDU FEW000 BKN025 BKN100 07/M01 A2982 RMK VIS N 3 PK WND 33051/24 BLDU FEW000 SLP109 60000 8/570 9/510 50024 WND RWY 35R 330/29G40KT"
"1204","LTS","2001-03-15 21:05:00",-99.2667,34.6671,44.6,30.2,56.74,340,37,NA,29.83,NA,7,52,"FEW","BKN","BKN","   ",0,2500,10000,NA,"BLDU",NA,NA,NA,NA,NA,NA,33.02,"KLTS 152105Z 34037G52KT 7SM BLDU FEW000 BKN025 BKN100 07/M01 A2983 RMK VIS N 3 BLDU FEW000 WND RWY 35R 330/31G40KT"
"1205","LTS","2001-03-15 21:47:00",-99.2667,34.6671,46.4,30.2,53,330,36,NA,29.86,NA,7,47,"FEW","BKN","BKN","   ",0,3000,12000,NA,"BLDU",NA,NA,NA,NA,NA,NA,35.67,"KLTS 152147Z 33036G47KT 7SM BLDU FEW000 BKN030 BKN120 08/M01 A2986 RMK VIS N 3 BLDU FEW000"
"1655","LTS","2001-04-11 17:55:00",-99.2667,34.6671,71.6,26.6,18.55,240,31,NA,29.57,999.6,4,38,"CLR","   ","   ","   ",NA,NA,NA,NA,"BLDU",NA,NA,NA,NA,NA,NA,69.33,"KLTS 111755Z 24031G38KT 4SM BLDU SKC 22/M03 A2957 RMK SLP996 56002"
"1656","LTS","2001-04-11 18:55:00",-99.2667,34.6671,73.4,26.6,17.46,250,24,NA,29.59,999.9,3,36,"CLR","   ","   ","   ",NA,NA,NA,NA,"BLDU",NA,NA,NA,41,230,"2001-04-11 17:59",71.26,"KLTS 111855Z 25024G36KT 3SM BLDU SKC 23/M03 A2959 RMK PK WND 23041/59 SLP999"
"1657","LTS","2001-04-11 19:55:00",-99.2667,34.6671,77,28.4,16.67,260,25,NA,29.59,1000.2,3,32,"CLR","   ","   ","   ",NA,NA,NA,NA,"BLDU",NA,NA,NA,36,240,"2001-04-11 18:57",75.18,"KLTS 111955Z 26025G32KT 3SM BLDU SKC 25/M02 A2959 RMK PK WND 24036/57 SLP002"
"1663","LTS","2001-04-12 01:44:00",-99.2667,34.6671,62.6,32,31.56,360,21,NA,29.78,NA,2,27,"SCT","   ","   ","   ",0,NA,NA,NA,"BLDU",NA,NA,NA,NA,NA,NA,62.6,"KLTS 120144Z COR 36021G27KT 2SM BLDU SCT000 17/00 A2978 RMK VIS W 3 BLDU SCT000 COR 0146"
"1664","LTS","2001-04-12 01:59:00",-99.2667,34.6671,60.8,30.2,31.28,350,22,NA,29.8,1008.5,2,26,"SCT","   ","   ","   ",0,NA,NA,NA,"BLDU",NA,NA,NA,27,360,"2001-04-12 01:35",60.8,"KLTS 120159Z 35022G26KT 2SM BLDU SCT000 16/M01 A2980 RMK VIS W 3 TWR VIS 1 BLDU SCT000 PK WND 36027/35 SLP085"
"1665","LTS","2001-04-12 02:59:00",-99.2667,34.6671,57.2,30.2,35.57,10,14,NA,29.85,1010.1,3,28,"FEW","   ","   ","   ",0,NA,NA,NA,"BLDU",NA,NA,NA,30,350,"2001-04-12 02:20",57.2,"KLTS 120259Z COR 01014G28KT 3SM BLDU FEW000 14/M01 A2985 RMK BLDU FEW000 PK WND 35030/20 PRESRR SLP101 53042 WND RWY 35R 010/09KT COR 0342"
"2308","LTS","2001-05-24 03:57:00",-99.2667,34.6671,84.2,41,21.76,330,14,NA,29.81,NA,6,21,"SCT","BKN","   ","   ",8500,10000,NA,NA,"-SHRA DU",NA,NA,NA,27,320,"2001-05-24 03:45",81.52,"KLTS 240357Z COR 33014G21KT 6SM -SHRA DU SCT085 BKN100 29/05 A2981 RMK PK WND 32027/45 8/070 9/060 COR 0359"
"3358","LTS","2001-08-09 23:18:00",-99.2667,34.6671,84.2,64.4,51.47,290,23,NA,29.94,NA,3,28,"SCT","SCT","BKN","   ",6000,12000,25000,NA,"TS BLDU",NA,NA,NA,NA,NA,NA,85.71,"KLTS 092318Z 29023G28KT 3SM TS BLDU SCT060CB SCT120 BKN250 29/18 A2994 RMK TS OHD MOV NE"
"3359","LTS","2001-08-09 23:41:00",-99.2667,34.6671,84.2,64.4,51.47,300,22,NA,29.94,NA,4,29,"SCT","SCT","BKN","   ",6000,12000,25000,NA,"TS BLDU",NA,NA,NA,NA,NA,NA,85.71,"KLTS 092341Z 30022G29KT 4SM TS BLDU SCT060CB SCT120 BKN250 29/18 A2994 RMK TS OHD MOV NE VIS W-NW 3"
"3803","LTS","2001-09-07 22:59:00",-99.2667,34.6671,84.2,55.4,37.35,330,21,NA,29.56,998.6,6,29,"FEW","FEW","   ","   ",0,5000,NA,NA,"BLDU",NA,NA,NA,33,340,"2001-09-07 22:30",83.09,"KLTS 072259Z COR 33021G29KT 6SM BLDU FEW000 FEW050CB 29/13 A2956 RMK PK WND 34033/2230 CB 20E MOV E DU FEW000 PRESRR SLP986 8/300 9/200 COR 2319"
"3921","LTS","2001-09-15 23:18:00",-99.2667,34.6671,71.6,64.4,78.04,50,34,NA,29.91,NA,6,52,"FEW","SCT","OVC","   ",500,1000,5000,NA,"-TSRA BLDU",NA,NA,NA,NA,NA,NA,71.6,"KLTS 152318Z COR 05034G52KT 6SM -TSRA BLDU FEW005 SCT010CB OVC050 22/18 A2991 RMK TS OHD MOV S OCNL LTGICCCCG FIRST COR 2348"
"4301","LTS","2001-10-12 23:59:00",-99.2667,34.6671,66.2,42.8,42.57,350,17,NA,29.74,1006.4,7,23,"FEW","SCT","BKN","BKN",10000,15000,20000,28000,"BLDU HZ",NA,NA,NA,26,340,"2001-10-12 23:48",66.2,"KLTS 122359Z 35017G23KT 7SM BLDU HZ FEW100 SCT150 BKN200 BKN280 19/06 A2974 RMK VIS NW-NE 4 PK WND 34026/48 SLP064 8/056 9/034 53015"
"4312","LTS","2001-10-15 16:58:00",-99.2667,34.6671,64.4,42.8,45.32,350,25,NA,30.2,1021.5,5,35,"FEW","   ","   ","   ",3000,NA,NA,NA,"BLDU",NA,NA,NA,38,350,"2001-10-15 16:35",64.4,"KLTS 151658Z COR 35025G35KT 5SM BLDU FEW030 18/06 A3020 RMK PK WND 35038/35 SLP215 PRESRR 8/500 9/200 COR 1738"
"4313","LTS","2001-10-15 17:57:00",-99.2667,34.6671,60.8,42.8,51.45,10,30,NA,30.26,1024.1,6,37,"SCT","   ","   ","   ",3000,NA,NA,NA,"BLDU",NA,NA,NA,41,20,"2001-10-15 17:12",60.8,"KLTS 151757Z COR 01030G37KT 6SM BLDU SCT030 16/06 A3026 RMK PK WND 02041/12 PRESRR SLP241 8/500 9/400 51065 COR 1800"
"6424","LTS","2002-03-09 04:22:00",-99.2667,34.6671,55.4,33.8,43.9,330,36,NA,29.8,NA,0.06,53,"CLR","   ","   ","   ",NA,NA,NA,NA,"BLDU",NA,NA,NA,NA,NA,NA,55.4,"KLTS 090422Z 33036G53KT 1/16SM BLDU SKC 13/01 A2980"
"6425","LTS","2002-03-09 04:30:00",-99.2667,34.6671,55.4,33.8,43.9,330,36,NA,29.8,NA,0.75,51,"CLR","   ","   ","   ",NA,NA,NA,NA,"BLDU",NA,NA,NA,NA,NA,NA,55.4,"KLTS 090430Z 33036G51KT 3/4SM BLDU SKC 13/01 A2980"
"6426","LTS","2002-03-09 04:37:00",-99.2667,34.6671,55.4,33.8,43.9,330,36,NA,29.8,NA,0.75,50,"CLR","   ","   ","   ",NA,NA,NA,NA,"BLDU",NA,NA,NA,NA,NA,NA,55.4,"KLTS 090437Z 33036G50KT 3/4SM BLDU SKC 13/01 A2980 RMK TWR VIS 2"
"6427","LTS","2002-03-09 04:45:00",-99.2667,34.6671,44.6,28.4,52.72,330,30,NA,29.87,NA,1,45,"CLR","   ","   ","   ",NA,NA,NA,NA,"BLDU",NA,NA,NA,NA,NA,NA,34.03,"KLTS 090445Z 33030G45KT 1SM BLDU SKC 07/M02 A2987 RMK TWR VIS 2"
"6428","LTS","2002-03-09 04:55:00",-99.2667,34.6671,42.8,28.4,56.48,330,36,NA,29.89,1011.9,2,43,"CLR","   ","   ","   ",NA,NA,NA,NA,"BLDU",NA,NA,NA,NA,NA,NA,30.64,"KLTS 090455Z 33036G43KT 2SM BLDU SKC 06/M02 A2989 RMK WSHIFT 0420 FROPA SLP119 WND DATA ESTMD TWR VIS 2"
"6429","LTS","2002-03-09 05:30:00",-99.2667,34.6671,39.2,24.8,55.95,330,34,NA,29.96,NA,3,45,"CLR","   ","   ","   ",NA,NA,NA,NA,"BLDU",NA,NA,NA,NA,NA,NA,25.92,"KLTS 090530Z 33034G45KT 3SM BLDU SKC 04/M04 A2996"
"6430","LTS","2002-03-09 05:55:00",-99.2667,34.6671,39.2,24.8,55.95,340,29,NA,30.01,1016,4,37,"CLR","   ","   ","   ",NA,NA,NA,NA,"BLDU",NA,NA,NA,NA,NA,NA,26.78,"KLTS 090555Z 34029G37KT 4SM BLDU SKC 04/M04 A3001 RMK PRESRR WND DATA ESTMD SLP160 53125 LAST"
"6836","LTS","2002-04-02 13:55:00",-99.2667,34.6671,55.4,39.2,54.34,360,28,NA,29.81,1008.7,6,36,"SCT","   ","   ","   ",20000,NA,NA,NA,"BLDU",NA,NA,NA,NA,NA,NA,55.4,"KLTS 021355Z 36028G36KT 6SM BLDU SCT200 13/04 A2981 RMK WND DATA ESTMD PRESRR SLP087 8/001 9/004"
"6837","LTS","2002-04-02 14:55:00",-99.2667,34.6671,53.6,37.4,54.07,350,28,NA,29.89,1011.7,6,38,"SCT","   ","   ","   ",20000,NA,NA,NA,"BLDU",NA,NA,NA,39,360,"2002-04-02 14:18",53.6,"KLTS 021455Z 35028G38KT 6SM BLDU SCT200 12/03 A2989 RMK PK WND 36039/18 WND DATA ESTMD PRESRR SLP117 8/001 9/003 53074"
"6838","LTS","2002-04-02 15:55:00",-99.2667,34.6671,55.4,35.6,47.16,360,30,NA,29.94,1013.1,6,39,"SCT","   ","   ","   ",20000,NA,NA,NA,"BLDU",NA,NA,NA,NA,NA,NA,55.4,"KLTS 021555Z 36030G39KT 6SM BLDU SCT200 13/02 A2994 RMK WND DATA ESTMD SLP131 8/001 9/004"
"6839","LTS","2002-04-02 16:55:00",-99.2667,34.6671,55.4,33.8,43.9,360,28,NA,29.98,1014.7,6,38,"BKN","   ","   ","   ",20000,NA,NA,NA,"BLDU",NA,NA,NA,NA,NA,NA,55.4,"KLTS 021655Z 36028G38KT 6SM BLDU BKN200 13/01 A2998 RMK WND DATA ESTMD SLP147 8/001 9/0064"
"7251","LTS","2002-04-24 16:55:00",-99.2667,34.6671,75.2,53.6,46.98,330,21,NA,29.99,1013.7,6,27,"FEW","   ","   ","   ",25000,NA,NA,NA,"BLDU",NA,NA,NA,NA,NA,NA,75.2,"KLTS 241655Z 33021G27KT 6SM BLDU FEW250 24/12 A2999 RMK WND DATA ESTMD SLP137 VIS N2 8/001 9/002"
"7252","LTS","2002-04-24 17:56:00",-99.2667,34.6671,75.2,51.8,43.97,360,27,NA,30.03,1015.1,6,31,"SCT","   ","   ","   ",25000,NA,NA,NA,"BLDU",NA,NA,NA,NA,NA,NA,75.2,"KLTS 241756Z 36027G31KT 6SM BLDU SCT250 24/11 A3003 RMK WND DATA ESTMD SLP151 8/001 9/004 52044"
"7253","LTS","2002-04-24 18:56:00",-99.2667,34.6671,75.2,48.2,38.46,350,22,NA,30.06,1015.9,6,30,"BKN","   ","   ","   ",25000,NA,NA,NA,"BLDU",NA,NA,NA,33,340,"2002-04-24 18:40",75.2,"KLTS 241856Z 35022G30KT 6SM BLDU BKN250 24/09 A3006 RMK PK WND 34033/40 WND DATA ESTMD SLP159 8/006 9/006"
"7538","LTS","2002-05-09 05:55:00",-99.2667,34.6671,69.8,51.8,52.77,340,31,NA,29.85,1008.3,5,37,"CLR","   ","   ","   ",NA,NA,NA,NA,"BLDU",NA,NA,NA,NA,NA,NA,69.8,"KLTS 090555Z 34031G37KT 5SM BLDU SKC 21/11 A2985 RMK WND DATA ESTMD PRESRR SLP083 53068"
"7539","LTS","2002-05-09 06:55:00",-99.2667,34.6671,64.4,46.4,51.98,20,26,NA,29.88,1009.4,5,35,"CLR","   ","   ","   ",NA,NA,NA,NA,"BLDU",NA,NA,NA,NA,NA,NA,64.4,"KLTS 090655Z 02026G35KT 5SM BLDU SKC 18/08 A2988 RMK WND DATA ESTMD PRESRR SLP094"
"9378","LTS","2002-08-27 08:08:00",-99.2667,34.6671,82.4,68,61.81,350,26,NA,29.96,NA,2.5,34,"FEW","BKN","OVC","   ",1000,4000,10000,NA,"BLDU",NA,NA,NA,NA,NA,NA,85.38,"KLTS 270808Z 35026G34KT 2 1/2SM BLDU FEW010 BKN040 OVC100 28/20 A2996 RMK LTGICCG NW-NE CB 15N-NE MOV SE WND DATA ESTMD"
"9379","LTS","2002-08-27 08:35:00",-99.2667,34.6671,69.8,66.2,88.34,30,27,NA,30.06,NA,2.5,34,"SCT","BKN","OVC","   ",1500,4000,10000,NA,"-SHRA BLDU",NA,NA,NA,NA,NA,NA,69.8,"KLTS 270835Z 03027G34KT 2 1/2SM -SHRA BLDU SCT015 BKN040 OVC100 21/19 A3006 RMK LTGICCG NW-NE-E CB 7N-NE MOV SE PRESRR WND DATA ESTMD"
"9380","LTS","2002-08-27 08:42:00",-99.2667,34.6671,68,66.2,93.97,50,19,NA,30.04,NA,2.5,34,"SCT","BKN","OVC","   ",1500,4000,10000,NA,"-TSRA BLDU",NA,NA,NA,NA,NA,NA,68,"KLTS 270842Z 05019G34KT 2 1/2SM -TSRA BLDU SCT015 BKN040 OVC100 20/19 A3004 RMK TS OHD MOV SE LTGICCG ALQDS WND DATA ESTMD"
"13261","LTS","2003-04-15 22:32:00",-99.2667,34.6671,73.4,64.4,73.44,150,33,NA,29.56,NA,6,42,"BKN","BKN","   ","   ",2000,4000,NA,NA,"BLDU",NA,NA,NA,NA,NA,NA,73.4,"KLTS 152232Z 15033G42KT 6SM BLDU BKN020 BKN040 23/18 A2956 RMK WND DATA ESTMD PRESFR"
"13262","LTS","2003-04-15 22:55:00",-99.2667,34.6671,73.4,64.4,73.44,150,30,NA,29.54,998.7,6,40,"BKN","BKN","   ","   ",2500,20000,NA,NA,"BLDU",NA,NA,NA,42,150,"2003-04-15 22:27",73.4,"KLTS 152255Z 15030G40KT 6SM BLDU BKN025 BKN200 23/18 A2954 RMK PK WND 15042/27 WND DATA ESTMD SLP987 8/101 9/501"
"13263","LTS","2003-04-15 23:58:00",-99.2667,34.6671,73.4,64.4,73.44,160,30,NA,29.48,996.7,6,38,"BKN","BKN","   ","   ",2500,20000,NA,NA,"BLDU",NA,NA,NA,NA,NA,NA,73.4,"KLTS 152358Z 16030G38KT 6SM BLDU BKN025CB BKN200 23/18 A2948 RMK WND DATA ESTMD CB 40W-NW MOV NE PRESFR SLP967 60000 8/303 9/501 58049"
"13264","LTS","2003-04-16 00:29:00",-99.2667,34.6671,71.6,64.4,78.04,150,31,NA,29.41,NA,5,40,"BKN","OVC","   ","   ",2000,4000,NA,NA,"TS BLDU",NA,NA,NA,NA,NA,NA,71.6,"KLTS 160029Z 15031G40KT 5SM TS BLDU BKN020CB OVC040 22/18 A2941 RMK FRQ LTGICCCCG WND DATA ESTMD TS 15W MOV NE PRESFR"
"13265","LTS","2003-04-16 00:46:00",-99.2667,34.6671,71.6,64.4,78.04,150,26,NA,29.43,NA,5,37,"SCT","BKN","OVC","   ",500,2000,4000,NA,"-TSRA BLDU",NA,NA,NA,NA,NA,NA,71.6,"KLTS 160046Z 15026G37KT 5SM -TSRA BLDU SCT005 BKN020CB OVC040 22/18 A2943 RMK FRQ LTGICCCCG WND DATA ESTMD TS 15W MOV NE"
"13266","LTS","2003-04-16 00:55:00",-99.2667,34.6671,69.8,66.2,88.34,150,23,NA,29.48,996.9,5,36,"SCT","BKN","OVC","   ",200,2500,4000,NA,"-TSRA BLDU",NA,NA,NA,40,150,"2003-04-16 00:25",69.8,"KLTS 160055Z COR 15023G36KT 5SM -TSRA BLDU SCT002 BKN025CB OVC040 21/19 A2948 RMK TS 10W MOV ENE FRQ LTGICCCCG PK WND 15040/25 WND DATA ESTMD PRESRR SLP969 8/3// 9/8// COR 0100"
"13450","LTS","2003-04-24 20:55:00",-99.2667,34.6671,78.8,39.2,24.19,290,19,NA,29.59,1000.5,7,25,"FEW","   ","   ","   ",10000,NA,NA,NA,"BLDU",NA,NA,NA,NA,NA,NA,77.52,"KLTS 242055Z 29019G25KT 7SM BLDU FEW100 26/04 A2959 RMK WND DATA ESTMD SLP005 8/030 9/010 53002"
"13451","LTS","2003-04-24 21:55:00",-99.2667,34.6671,78.8,41,25.95,330,19,NA,29.61,1001.2,7,26,"FEW","   ","   ","   ",10000,NA,NA,NA,"BLDU",NA,NA,NA,NA,NA,NA,77.6,"KLTS 242155Z 33019G26KT 7SM BLDU FEW100 26/05 A2961 RMK WND DATA ESTMD SLP012 8/030 9/010"
"17531","LTS","2003-12-15 18:59:00",-99.2667,34.6671,62.6,15.8,16.02,270,23,NA,29.58,1002.3,4,32,"BKN","BKN","   ","   ",10000,25000,NA,NA,"BLDU",NA,NA,NA,NA,NA,NA,62.6,"KLTS 151859Z 27023G32KT 4SM BLDU BKN100 BKN250 17/M09 A2958 RMK PK WND 25037/26 WND DATA ESTMD SLP023 8/078 9/056"
"17532","LTS","2003-12-15 19:36:00",-99.2667,34.6671,62.6,10.4,12.63,260,18,NA,29.57,NA,3,29,"SCT","BKN","BKN","   ",0,10000,25000,NA,"BLDU",NA,NA,NA,NA,NA,NA,62.6,"KLTS 151936Z 26018G29KT 3SM BLDU SCT000 BKN100 BKN250 17/M12 A2957 RMK WND DATA ESTMD DU SCT000"
"17533","LTS","2003-12-15 19:55:00",-99.2667,34.6671,62.6,10.4,12.63,250,21,NA,29.56,1001.2,3,34,"SCT","BKN","BKN","   ",0,10000,25000,NA,"BLDU",NA,NA,NA,NA,NA,NA,62.6,"KLTS 151955Z 25021G34KT 3SM BLDU SCT000 BKN100 BKN250 17/M12 A2956 RMK PK WND 26036/07 WND DATA ESTMD DU SCT000 SLP012 8/078 9/056"
"17534","LTS","2003-12-15 20:59:00",-99.2667,34.6671,64.4,6.8,10.08,260,21,NA,29.57,1001.6,3,33,"SCT","BKN","BKN","   ",0,10000,25000,NA,"BLDU",NA,NA,NA,NA,NA,NA,64.4,"KLTS 152059Z 26021G33KT 3SM BLDU SCT000 BKN100 BKN250 18/M14 A2957 RMK PK WND 24035/15 WND DATA ESTMD DU SCT000 SLP016 8/078 9/056"
"17535","LTS","2003-12-15 21:38:00",-99.2667,34.6671,62.6,10.4,12.63,260,23,NA,29.58,NA,2.5,31,"SCT","   ","   ","   ",0,NA,NA,NA,"BLDU",NA,NA,NA,NA,NA,NA,62.6,"KLTS 152138Z 26023G31KT 2 1/2SM BLDU SCT000 17/M12 A2958 RMK WND DATA ESTMD DU SCT000"
"17536","LTS","2003-12-15 21:55:00",-99.2667,34.6671,62.6,12.2,13.68,270,21,NA,29.6,1002.6,2.5,28,"SCT","   ","   ","   ",0,NA,NA,NA,"BLDU",NA,NA,NA,NA,NA,NA,62.6,"KLTS 152155Z 27021G28KT 2 1/2SM BLDU SCT000 17/M11 A2960 RMK PK WND 25033/05 WND DATA ESTMD DU SCT000 SLP026"
"17537","LTS","2003-12-15 22:59:00",-99.2667,34.6671,59,17.6,19.68,240,14,NA,29.63,1003.7,2.5,NA,"SCT","   ","   ","   ",0,NA,NA,NA,"BLDU",NA,NA,NA,NA,NA,NA,59,"KLTS 152259Z 24014KT 2 1/2SM BLDU SCT000 15/M08 A2963 RMK PK WND 26026/07 WND DATA ESTMD DU SCT000 SLP037"
"17538","LTS","2003-12-15 23:55:00",-99.2667,34.6671,48.2,32,53.27,330,18,NA,29.74,1008.1,6,26,"SCT","   ","   ","   ",3000,NA,NA,NA,"DU",NA,NA,NA,NA,NA,NA,41.07,"KLTS 152355Z 33018G26KT 6SM DU SCT030 09/00 A2974 RMK PK WND 28038/09 WND DATA ESTMD SLP081 8/100 9/400 53052"
"17539","LTS","2003-12-16 00:57:00",-99.2667,34.6671,46.4,33.8,61.28,310,18,NA,29.83,1011.6,6,22,"SCT","   ","   ","   ",3000,NA,NA,NA,"DU",NA,NA,NA,NA,NA,NA,38.7,"KLTS 160057Z 31018G22KT 6SM DU SCT030 08/01 A2983 RMK PK WND 35029/24 WND DATA ESTMD SLP116 8/100 9/400"
"17540","LTS","2003-12-16 01:18:00",-99.2667,34.6671,46.4,33.8,61.28,310,18,NA,29.85,NA,6,22,"SCT","   ","   ","   ",3000,NA,NA,NA,"-RA DU",NA,NA,NA,NA,NA,NA,38.7,"KLTS 160118Z 31018G22KT 6SM -RA DU SCT030 08/01 A2985 RMK WND DATA ESTMD"
"17541","LTS","2003-12-16 01:33:00",-99.2667,34.6671,44.6,33.8,65.61,330,22,NA,29.87,NA,6,31,"SCT","   ","   ","   ",3000,NA,NA,NA,"DU",NA,NA,NA,NA,NA,NA,35.45,"KLTS 160133Z 33022G31KT 6SM DU SCT030 07/01 A2987 RMK WND DATA ESTMD"
"18471","LTS","2004-02-19 21:55:00",-99.2667,34.6671,80.6,21.2,10.97,240,29,NA,29.42,995.2,2.25,39,"SCT","   ","   ","   ",0,NA,NA,NA,"BLDU",NA,NA,NA,NA,NA,NA,78.68,"KLTS 192155Z 24029G39KT 2 1/4SM BLDU SCT000 27/M06 A2942 RMK TWR VIS 4 DU SCT000 SLP952 WND DATA ESTMD"
"18472","LTS","2004-02-19 22:01:00",-99.2667,34.6671,80.6,21.2,10.97,230,28,NA,29.42,NA,1.5,41,"SCT","   ","   ","   ",0,NA,NA,NA,"BLDU",NA,NA,NA,NA,NA,NA,78.68,"KLTS 192201Z 23028G41KT 1 1/2SM BLDU SCT000 27/M06 A2942 RMK TWR VIS 2 DU SCT000 WND DATA ESTMD"
"18473","LTS","2004-02-19 22:10:00",-99.2667,34.6671,80.6,15.8,8.7,230,28,NA,29.43,NA,1.5,41,"BKN","   ","   ","   ",0,NA,NA,NA,"BLDU",NA,NA,NA,NA,NA,NA,78.35,"KLTS 192210Z 23028G41KT 1 1/2SM BLDU BKN000 27/M09 A2943 RMK TWR VIS 2 DU BKN000 WND DATA ESTMD"
"18474","LTS","2004-02-19 22:55:00",-99.2667,34.6671,75.2,19.4,12.14,260,21,NA,29.45,996.8,1,32,"BKN","   ","   ","   ",0,NA,NA,NA,"BLDU",NA,NA,NA,NA,NA,NA,72.99,"KLTS 192255Z 26021G32KT 1SM RVRNO BLDU BKN000 24/M07 A2945 RMK DU BKN000 SLP968 WND DATA ESTMD"
"18475","LTS","2004-02-19 23:19:00",-99.2667,34.6671,75.2,14,9.61,260,29,NA,29.48,996.8,2,38,"SCT","   ","   ","   ",0,NA,NA,NA,"BLDU",NA,NA,NA,NA,NA,NA,72.87,"KLTS 192319Z 26029G38KT 2SM BLDU SCT000 24/M10 A2948 RMK DU SCT000 SLP968 WND DATA ESTMD"
"18476","LTS","2004-02-19 23:59:00",-99.2667,34.6671,64.4,17.6,16.26,240,21,NA,29.51,998.9,2,33,"SCT","   ","   ","   ",0,NA,NA,NA,"BLDU",NA,NA,NA,38,250,"2004-02-19 23:17",64.4,"KLTS 192359Z COR 24021G33KT 2SM BLDU SCT000 18/M08 A2951 RMK PK WND 25038/17 DU SCT000 SLP989 WND DATA ESTMD 53015 COR 0002"
"18477","LTS","2004-02-20 00:35:00",-99.2667,34.6671,71.6,19.4,13.71,240,17,NA,29.51,NA,2.5,25,"SCT","SCT","   ","   ",0,25000,NA,NA,"BLDU",NA,NA,NA,NA,NA,NA,69.1,"KLTS 200035Z 24017G25KT 2 1/2SM BLDU SCT000 SCT250 22/M07 A2951 RMK DU SCT000 WND DATA ESTMD"
"18478","LTS","2004-02-20 00:55:00",-99.2667,34.6671,71.6,21.2,14.8,230,19,NA,29.52,999.1,2.5,25,"SCT","SCT","   ","   ",0,25000,NA,NA,"BLDU",NA,NA,NA,26,230,"2004-02-20 00:25",69.16,"KLTS 200055Z 23019G25KT 2 1/2SM BLDU SCT000 SCT250 22/M06 A2952 RMK PK WND 23026/25 DU SCT000 SLP991 WND DATA ESTMD"
"18479","LTS","2004-02-20 01:59:00",-99.2667,34.6671,66.2,30.2,25.88,250,15,NA,29.55,1000.3,5,NA,"FEW","   ","   ","   ",25000,NA,NA,NA,"BLDU",NA,NA,NA,NA,NA,NA,66.2,"KLTS 200159Z 25015KT 5SM BLDU FEW250 19/M01 A2955 RMK SLP003 WND DATA ESTMD"
"18480","LTS","2004-02-20 02:58:00",-99.2667,34.6671,64.4,35.6,34.22,270,15,NA,29.59,1001.4,5,24,"FEW","   ","   ","   ",25000,NA,NA,NA,"BLDU",NA,NA,NA,27,270,"2004-02-20 02:47",64.4,"KLTS 200258Z 27015G24KT 5SM BLDU FEW250 18/02 A2959 RMK PK WND 27027/47 SLP014 WND DATA ESTMD 53027"
"20204","LTS","2004-06-02 23:26:00",-99.2667,34.6671,77,55.4,47.25,50,22,NA,29.81,NA,5,37,"BKN","BKN","   ","   ",3000,25000,NA,NA,"DU",NA,NA,NA,NA,NA,NA,77,"KLTS 022326Z COR 05022G37KT 5SM DU BKN030 BKN250 25/13 A2981 RMK LTG DSNT SE TS DSNT SE CB ALQDS WND DATA ESTMD COR 2328"
"20205","LTS","2004-06-02 23:38:00",-99.2667,34.6671,75.2,55.4,50.17,70,20,NA,29.83,NA,5,30,"BKN","BKN","   ","   ",3000,25000,NA,NA,"-RA BLDU",NA,NA,NA,NA,NA,NA,75.2,"KLTS 022338Z 07020G30KT 5SM -RA BLDU BKN030CB BKN250 24/13 A2983 RMK LTG DSNT W AND E TS DSNT W AND E CB ALQDS WND DATA ESTMD"
"20206","LTS","2004-06-02 23:47:00",-99.2667,34.6671,75.2,53.6,46.98,70,20,NA,29.83,NA,5,30,"BKN","BKN","   ","   ",3000,25000,NA,NA,"BLDU",NA,NA,NA,NA,NA,NA,75.2,"KLTS 022347Z 07020G30KT 5SM BLDU BKN030CB BKN250 24/12 A2983 RMK LTG DSNT W AND E TS DSNT W AND E CB ALQDS WND DATA ESTMD"
"20207","LTS","2004-06-02 23:49:00",-99.2667,34.6671,75.2,53.6,46.98,70,28,NA,29.83,NA,5,33,"BKN","BKN","   ","   ",3000,25000,NA,NA,"TS BLDU",NA,NA,NA,NA,NA,NA,75.2,"KLTS 022349Z 07028G33KT 5SM TS BLDU BKN030CB BKN250 24/12 A2983 RMK LTG DSNT W AND E-S TS DSNT W AND E-S CB ALQDS WND DATA ESTMD"
"20208","LTS","2004-06-02 23:56:00",-99.2667,34.6671,75.2,53.6,46.98,60,25,NA,29.83,1008.3,5,33,"BKN","BKN","   ","   ",3000,25000,NA,NA,"TS BLDU",NA,NA,NA,37,60,"2004-06-02 23:19",75.2,"KLTS 022356Z COR 06025G33KT 5SM TS BLDU BKN030CB BKN250 24/12 A2983 RMK PK WND 06037/19 LGT DSNT W AND E-S TS DSNT W AND E-SE CB ALQDS SLP083 WND DATA ESTMD 60000 56005 COR 2357"
"27461","LTS","2005-10-05 20:33:00",-99.2667,34.6671,80.6,62.6,54.3,90,3,NA,29.97,NA,6,NA,"BKN","BKN","   ","   ",5000,25000,NA,NA,"BLDU",NA,NA,NA,NA,NA,NA,81.84,"KLTS 052033Z 09003KT 6SM BLDU BKN050 BKN250 27/17 A2997 RMK VIS N 1"
"27462","LTS","2005-10-05 20:55:00",-99.2667,34.6671,66.2,59,77.6,360,22,NA,30.02,1015.2,3,31,"FEW","BKN","BKN","OVC",1700,4000,12000,25000,"BLDU",NA,NA,NA,NA,NA,NA,66.2,"KLTS 052055Z 36022G31KT 3SM BLDU FEW017 BKN040 BKN120 OVC250 19/15 A3002 RMK WSHFT 38 FROPA SLP152 53012"
"28125","LTS","2005-11-27 19:38:00",-99.2667,34.6671,62.6,14,14.81,240,29,NA,29.27,NA,2,39,"FEW","   ","   ","   ",25000,NA,NA,NA,"BLDU",NA,NA,NA,NA,NA,NA,62.6,"KLTS 271938Z 24029G39KT 2SM BLDU FEW250 17/M10 A2927 RMK FIRST"
"28126","LTS","2005-11-27 19:55:00",-99.2667,34.6671,60.8,28.4,29.06,240,27,NA,29.28,NA,2.5,37,"FEW","FEW","   ","   ",4000,25000,NA,NA,"BLDU",NA,NA,NA,NA,NA,NA,60.8,"KLTS 271955Z 24027G37KT 2 1/2SM BLDU FEW040 FEW250 16/M02 A2928 RMK SLPNO"
"28127","LTS","2005-11-27 20:27:00",-99.2667,34.6671,57.2,33.8,41.13,250,24,NA,29.31,NA,6,38,"FEW","SCT","   ","   ",4000,25000,NA,NA,"BLDU",NA,NA,NA,NA,NA,NA,57.2,"KLTS 272027Z 25024G38KT 6SM BLDU FEW040 SCT250 14/01 A2931"
"29382","LTS","2006-03-01 18:55:00",-99.2667,34.6671,87.8,30.2,12.64,270,19,NA,29.78,1006.4,7,25,"SCT","BKN","   ","   ",15000,25000,NA,NA,"BLDU",NA,NA,NA,NA,NA,NA,84.01,"KLTS 011855Z 27019G25KT 7SM BLDU SCT150 BKN250 31/M01 A2978 RMK SLP064 BLDU E-S"
"29952","LTS","2006-04-06 17:55:00",-99.2667,34.6671,80.6,26.6,13.75,240,23,NA,29.52,997.5,7,33,"CLR","   ","   ","   ",NA,NA,NA,NA,"BLDU",NA,NA,NA,NA,NA,NA,78.68,"KLTS 061755Z 24023G33KT 7SM BLDU SKC 27/M03 A2952 RMK PK WND 23038/38 SLP975 56007"
"29953","LTS","2006-04-06 18:32:00",-99.2667,34.6671,80.6,26.6,13.75,250,27,NA,29.52,NA,4,40,"FEW","   ","   ","   ",0,NA,NA,NA,"BLDU",NA,NA,NA,NA,NA,NA,78.68,"KLTS 061832Z 25027G40KT 4SM BLDU FEW000 27/M03 A2952 RMK BLDU FEW000"
"29954","LTS","2006-04-06 18:55:00",-99.2667,34.6671,78.8,28.4,15.71,260,29,NA,29.53,998,4,39,"FEW","   ","   ","   ",0,NA,NA,NA,"BLDU",NA,NA,NA,NA,NA,NA,77.12,"KLTS 061855Z 26029G39KT 4SM BLDU FEW000 26/M02 A2953 RMK PK WND 23040/33 BLDU FEW000 SLP980"
"29955","LTS","2006-04-06 19:55:00",-99.2667,34.6671,78.8,17.6,9.98,240,28,NA,29.52,NA,4,38,"SCT","   ","   ","   ",0,NA,NA,NA,"BLDU",NA,NA,NA,NA,NA,NA,76.85,"KLTS 061955Z 24028G38KT 4SM BLDU SCT000 26/M08 A2952 RMK BLDU SCT000 SLPNO"
"29956","LTS","2006-04-06 20:45:00",-99.2667,34.6671,77,15.8,9.79,260,30,NA,29.52,NA,2,41,"VV ","   ","   ","   ",500,NA,NA,NA,"BLDU",NA,NA,NA,NA,NA,NA,74.86,"KLTS 062045Z 26030G41KT 2SM BLDU VV005 25/M09 A2952"
"29957","LTS","2006-04-06 20:55:00",-99.2667,34.6671,77,17.6,10.59,250,30,NA,29.51,NA,2,39,"VV ","   ","   ","   ",500,NA,NA,NA,"BLDU",NA,NA,NA,NA,NA,NA,74.9,"KLTS 062055Z 25030G39KT 2SM BLDU VV005 25/M08 A2951 RMK PK WND 24041/41 SLPNO 58003"
"29958","LTS","2006-04-06 21:20:00",-99.2667,34.6671,77,15.8,9.79,250,25,NA,29.52,NA,2,35,"FEW","   ","   ","   ",0,NA,NA,NA,"BLDU",NA,NA,NA,NA,NA,NA,74.86,"KLTS 062120Z COR 25025G35KT 2SM BLDU FEW000 25/M09 A2952 RMK DU FEW000 COR 2127"
"29959","LTS","2006-04-06 21:59:00",-99.2667,34.6671,75.2,12.2,8.88,260,33,NA,29.51,NA,2,44,"FEW","   ","   ","   ",0,NA,NA,NA,"BLDU",NA,NA,NA,NA,NA,NA,72.84,"KLTS 062159Z 26033G44KT 2SM BLDU FEW000 24/M11 A2951 RMK DU FEW000 SLPNO"
"29960","LTS","2006-04-06 22:59:00",-99.2667,34.6671,75.2,12.2,8.88,260,25,NA,29.51,NA,2,36,"FEW","   ","   ","   ",0,NA,NA,NA,"BLDU",NA,NA,NA,NA,NA,NA,72.84,"KLTS 062259Z 26025G36KT 2SM BLDU FEW000 24/M11 A2951 RMK PK WND 26044/00 DU FEW000 SLPNO"
"29961","LTS","2006-04-06 23:55:00",-99.2667,34.6671,75.2,12.2,8.88,260,19,NA,29.51,997.5,5,30,"CLR","   ","   ","   ",NA,NA,NA,NA,"BLDU",NA,NA,NA,NA,NA,NA,72.84,"KLTS 062355Z 26019G30KT 5SM BLDU SKC 24/M11 A2951 RMK PK WND 24035/23 SLP975 56002"
"29975","LTS","2006-04-07 17:55:00",-99.2667,34.6671,75.2,33.8,22.02,320,23,NA,29.65,1002.8,7,27,"FEW","   ","   ","   ",4000,NA,NA,NA,"BLDU",NA,NA,NA,NA,NA,NA,73.46,"KLTS 071755Z 32023G27KT 7SM BLDU FEW040 24/01 A2965 RMK SLP028 52017"
"29976","LTS","2006-04-07 18:15:00",-99.2667,34.6671,75.2,37.4,25.4,320,24,NA,29.66,NA,3,31,"SCT","SCT","   ","   ",0,4000,NA,NA,"BLDU",NA,NA,NA,NA,NA,NA,73.61,"KLTS 071815Z 32024G31KT 3SM BLDU SCT000 SCT040 24/03 A2966 RMK BLDU SCT000"
"29977","LTS","2006-04-07 18:55:00",-99.2667,34.6671,69.8,37.4,30.49,330,27,NA,29.7,1004.9,6,38,"FEW","SCT","   ","   ",0,10000,NA,NA,"BLDU",NA,NA,NA,39,310,"2006-04-07 18:43",69.8,"KLTS 071855Z 33027G38KT 6SM BLDU FEW000 SCT100 21/03 A2970 RMK PK WND 31039/43 VIS SE-SW 2 BLDU FEW000 SLP049"
"31646","LTS","2006-08-03 23:28:00",-99.2667,34.6671,95,66.2,39,280,8,NA,29.92,NA,6,21,"FEW","SCT","   ","   ",6000,9000,NA,NA,"BLDU VCTS",NA,NA,NA,NA,NA,NA,98.46,"KLTS 032328Z 28008G21KT 6SM BLDU VCTS FEW060 SCT090CB 35/19 A2992 RMK OCNL LTGICCG NW-N TS 8NW / 10N MOV N"
"31647","LTS","2006-08-03 23:36:00",-99.2667,34.6671,89.6,66.2,46.14,350,23,NA,29.92,NA,6,32,"FEW","BKN","   ","   ",6000,9000,NA,NA,"BLDU VCTS",NA,NA,NA,NA,NA,NA,92.27,"KLTS 032336Z 35023G32KT 6SM BLDU VCTS FEW060 BKN090CB 32/19 A2992 RMK OCNL LTGICCG NW-N TS 7NW / 9N MOV N"
"32337","LTS","2006-09-20 20:40:00",-99.2667,34.6671,87.8,53.6,31.17,190,17,NA,29.82,NA,7,23,"SCT","SCT","   ","   ",12000,25000,NA,NA,"BLDU",NA,NA,NA,NA,NA,NA,85.72,"KLTS 202040Z 19017G23KT 7SM BLDU SCT120 SCT250 31/12 A2982"
"32338","LTS","2006-09-20 20:55:00",-99.2667,34.6671,84.2,51.8,32.73,180,17,NA,29.82,NA,7,23,"FEW","SCT","   ","   ",10000,25000,NA,NA,"BLDU",NA,NA,NA,NA,NA,NA,82.48,"KLTS 202055Z 18017G23KT 7SM BLDU FEW100 SCT250 29/11 A2982 RMK SLPNO 56039"
"32353","LTS","2006-09-21 17:55:00",-99.2667,34.6671,82.4,42.8,24.72,230,24,NA,29.5,NA,7,33,"FEW","FEW","   ","   ",6000,15000,NA,NA,"BLDU",NA,NA,NA,NA,NA,NA,80.39,"KLTS 211755Z 23024G33KT 7SM BLDU FEW060 FEW150 28/06 A2950 RMK SLPNO 58027"
"32354","LTS","2006-09-21 18:26:00",-99.2667,34.6671,84.2,35.6,17.61,230,22,NA,29.49,NA,6,33,"FEW","FEW","FEW","   ",0,6000,15000,NA,"BLDU",NA,NA,NA,NA,NA,NA,81.34,"KLTS 211826Z 23022G33KT 6SM BLDU FEW000 FEW060 FEW150 29/02 A2949 RMK VIS N 2 BLDU FEW000"
"32355","LTS","2006-09-21 18:55:00",-99.2667,34.6671,84.2,33.8,16.39,240,23,NA,29.48,NA,5,33,"SCT","   ","   ","   ",0,NA,NA,NA,"BLDU",NA,NA,NA,NA,NA,NA,81.3,"KLTS 211855Z 24023G33KT 200V250 5SM BLDU SCT000 29/01 A2948 RMK VIS NW-NE 3 BLDU SCT000 SLPNO"
"32356","LTS","2006-09-21 19:12:00",-99.2667,34.6671,84.2,33.8,16.39,250,21,NA,29.47,NA,3,29,"SCT","   ","   ","   ",0,NA,NA,NA,"BLDU",NA,NA,NA,NA,NA,NA,81.3,"KLTS 211912Z 25021G29KT 3SM BLDU SCT000 29/01 A2947 RMK BLDU SCT000"
"32357","LTS","2006-09-21 19:45:00",-99.2667,34.6671,84.2,37.4,18.91,260,22,NA,29.48,NA,3,30,"SCT","   ","   ","   ",0,NA,NA,NA,"BLDU",NA,NA,NA,NA,NA,NA,81.38,"KLTS 211945Z 26022G30KT 3SM BLDU SCT000 29/03 A2948 RMK BLDU SCT000 TWR VIS 4"
"32358","LTS","2006-09-21 19:55:00",-99.2667,34.6671,84.2,39.2,20.29,260,21,NA,29.48,NA,4,31,"SCT","   ","   ","   ",0,NA,NA,NA,"BLDU",NA,NA,NA,NA,NA,NA,81.44,"KLTS 211955Z 26021G31KT 4SM BLDU SCT000 29/04 A2948 RMK BLDU SCT000 SLPNO"
"32359","LTS","2006-09-21 20:55:00",-99.2667,34.6671,84.2,42.8,23.33,250,18,NA,29.47,NA,6,28,"FEW","   ","   ","   ",0,NA,NA,NA,"BLDU",NA,NA,NA,NA,NA,NA,81.61,"KLTS 212055Z 25018G28KT 6SM BLDU FEW000 29/06 A2947 RMK BLDU FEW000 SLPNO 56010"
"32360","LTS","2006-09-21 21:58:00",-99.2667,34.6671,84.2,41,21.76,250,15,NA,29.47,NA,6,21,"FEW","FEW","   ","   ",0,20000,NA,NA,"BLDU",NA,NA,NA,30,260,"2006-09-21 21:38",81.52,"KLTS 212158Z 25015G21KT 6SM BLDU FEW000 FEW200 29/05 A2947 RMK PK WND 26030/38 BLDU FEW000 SLPNO"
"33112","LTS","2006-11-15 12:59:00",-99.2667,34.6671,46.4,30.2,53,330,29,NA,29.86,1010.8,5,36,"BKN","   ","   ","   ",4000,NA,NA,NA,"BLDU",NA,NA,NA,NA,NA,NA,36.65,"KLTS 151259Z 33029G36KT 5SM BLDU BKN040 08/M01 A2986 RMK PK WND 33043/54 SLP108"
"33113","LTS","2006-11-15 13:56:00",-99.2667,34.6671,46.4,30.2,53,340,28,NA,29.91,1012.8,5,45,"BKN","   ","   ","   ",7000,NA,NA,NA,"BLDU",NA,NA,NA,NA,NA,NA,36.81,"KLTS 151356Z 34028G45KT 5SM BLDU BKN070 08/M01 A2991 RMK PK WND 35054/32 SLP128"
"33114","LTS","2006-11-15 14:55:00",-99.2667,34.6671,46.4,26.6,45.73,340,33,NA,29.92,NA,4,43,"FEW","SCT","   ","   ",4000,7000,NA,NA,"BLDU",NA,NA,NA,NA,NA,NA,36.07,"KLTS 151455Z COR 34033G43KT 4SM BLDU FEW040 SCT070 08/M03 A2992 RMK PK WND 34044/49 SLPNO WND DATA ESTMD COR 1509"
"33115","LTS","2006-11-15 14:59:00",-99.2667,34.6671,46.4,26.6,45.73,340,33,NA,29.97,NA,4,43,"FEW","SCT","   ","   ",4000,7000,NA,NA,"BLDU",NA,NA,NA,44,340,"2006-11-15 14:49",36.07,"KLTS 151459Z 34033G43KT 4SM BLDU FEW040 SCT070 08/M03 A2997 RMK PK WND 34044/49 PRESRR SLPNO WND DATA ESTMD ALSTG ESTMD"
"33118","LTS","2006-11-15 17:35:00",-99.2667,34.6671,51.8,26.6,37.38,340,29,NA,30,NA,5,36,"FEW","   ","   ","   ",7000,NA,NA,NA,"BLDU",NA,NA,NA,NA,NA,NA,51.8,"KLTS 151735Z 34029G36KT 5SM BLDU FEW070 11/M03 A3000"
"33119","LTS","2006-11-15 17:55:00",-99.2667,34.6671,51.8,26.6,37.38,350,26,NA,30,1015.8,6,37,"FEW","   ","   ","   ",7000,NA,NA,NA,"BLDU",NA,NA,NA,NA,NA,NA,51.8,"KLTS 151755Z 35026G37KT 6SM BLDU FEW070 11/M03 A3000 RMK SLP158"
"33120","LTS","2006-11-15 18:55:00",-99.2667,34.6671,55.4,24.8,30.4,340,23,NA,30,1015.8,6,37,"FEW","   ","   ","   ",7000,NA,NA,NA,"BLDU",NA,NA,NA,40,340,"2006-11-15 18:50",55.4,"KLTS 151855Z COR 34023G37KT 6SM BLDU FEW070 13/M04 A3000 RMK PK WND 34040/50 SLP158 COR 1900"
"34701","LTS","2007-02-28 21:53:00",-99.2667,34.6671,82.4,12.2,7.01,250,18,NA,29.36,NA,2,26,"SCT","   ","   ","   ",27000,NA,NA,NA,"BLDU",NA,NA,NA,NA,NA,NA,79.13,"KLTS 282153Z 25018G26KT 2SM BLDU SCT270 28/M11 A2936 RMK AO2A SFC VIS 3"
"34702","LTS","2007-02-28 21:55:00",-99.2667,34.6671,82.4,12.92,7.23,250,18,NA,29.36,992.9,2,26,"SCT","   ","   ","   ",27000,NA,NA,NA,"BLDU",NA,NA,NA,NA,NA,NA,79.16,"KLTS 282155Z 25018G26KT 2SM BLDU SCT270 28/M11 A2936 RMK AO2A PK WND 22030/2157 SFC VIS 3 SLP929 T02801106 $"
"34703","LTS","2007-02-28 22:55:00",-99.2667,34.6671,80.42,14.9,8.41,220,24,NA,29.34,992.2,2,30,"CLR","   ","   ","   ",NA,NA,NA,NA,"BLDU",NA,NA,NA,NA,NA,NA,78.12,"KLTS 282255Z 22024G30KT 2SM BLDU CLR 27/M09 A2934 RMK AO2A PK WND 23030/2226 SLP922 T02691095 $"
"34704","LTS","2007-02-28 23:55:00",-99.2667,34.6671,77.36,14.72,9.23,240,19,NA,29.33,991.9,3,28,"CLR","   ","   ","   ",NA,NA,NA,NA,"BLDU",NA,NA,NA,NA,NA,NA,75.23,"KLTS 282355Z 24019G28KT 3SM BLDU CLR 25/M10 A2933 RMK AO2A PK WND 23034/2304 SLP919 T02521096 10289 20193 56021 $"
"34705","LTS","2007-03-01 00:55:00",-99.2667,34.6671,73.22,14.36,10.44,220,15,NA,29.33,992.3,6,NA,"CLR","   ","   ","   ",NA,NA,NA,NA,"BLDU",NA,NA,NA,NA,NA,NA,70.73,"KLTS 010055Z 22015KT 6SM BLDU CLR 23/M10 A2933 RMK AO2A SLP923 T02291098 $"
"38150","LTS","2007-06-08 06:36:00",-99.2667,34.6671,73.4,51.8,46.71,20,20,NA,29.85,NA,4,34,"SCT","   ","   ","   ",3000,NA,NA,NA,"BLDU",NA,NA,NA,NA,NA,NA,73.4,"KLTS 080636Z 02020G34KT 4SM BLDU SCT030 23/11 A2985 RMK AO2A"
"38151","LTS","2007-06-08 06:55:00",-99.2667,34.6671,70.52,48.74,45.96,10,24,NA,29.86,1009.1,5,35,"FEW","BKN","   ","   ",2700,4800,NA,NA,"BLDU",NA,NA,NA,NA,NA,NA,69.43,"KLTS 080655Z COR 01024G35KT 5SM BLDU FEW027 BKN048 21/09 A2986 RMK AO2A PK WND RWY 35R 01036/0644 PRESRR SLP091 T02140093 $ COR 0657"
"47679","LTS","2008-04-10 19:55:00",-99.2667,34.6671,72.32,27.32,18.65,260,27,NA,29.44,995.8,6,43,"FEW","   ","   ","   ",18000,NA,NA,NA,"BLDU",NA,NA,NA,NA,NA,NA,70.13,"KLTS 101955Z 26027G43KT 6SM BLDU FEW180 22/M03 A2944 RMK AO2A PK WND 23044/1934 SLP958 T02241026 $ COR 1957"
"47680","LTS","2008-04-10 20:55:00",-99.2667,34.6671,73.04,26.6,17.67,270,31,NA,29.45,996.2,4,40,"FEW","   ","   ","   ",19000,NA,NA,NA,"BLDU",NA,NA,NA,NA,NA,NA,70.87,"KLTS 102055Z 27031G40KT 4SM BLDU FEW190 23/M03 A2945 RMK AO2A PK WND 24049/2024 CLDS LWR RWY17R SLP962 T02281030 53004 $"
"47681","LTS","2008-04-10 21:55:00",-99.2667,34.6671,72.68,23.54,15.75,260,30,NA,29.46,996.6,4,43,"CLR","   ","   ","   ",NA,NA,NA,NA,"BLDU",NA,NA,NA,NA,NA,NA,70.39,"KLTS 102155Z 26030G43KT 4SM BLDU CLR 23/M05 A2946 RMK AO2A PK WND 26043/2145 SLP966 T02261047 $"
"47682","LTS","2008-04-10 22:55:00",-99.2667,34.6671,71.6,23,15.97,270,31,NA,29.49,997.8,4,36,"CLR","   ","   ","   ",NA,NA,NA,NA,"BLDU",NA,NA,NA,NA,NA,NA,69.21,"KLTS 102255Z 27031G36KT 4SM BLDU CLR 22/M05 A2949 RMK AO2A PK WND 24044/2206 PRESRR SLP978 T02201050 $"
"57004","LTS","2009-02-21 07:42:00",-99.2667,34.6671,48.2,23,36.78,20,31,NA,29.9,NA,4,38,"CLR","   ","   ","   ",NA,NA,NA,NA,"BLDU",NA,NA,NA,NA,NA,NA,38.84,"KLTS 210742Z 02031G38KT 4SM BLDU CLR 09/M05 A2990 RMK AO2A"
"57005","LTS","2009-02-21 07:55:00",-99.2667,34.6671,49.1,23.18,35.83,10,39,0.08,29.9,1011.9,4,45,"CLR","   ","   ","   ",NA,NA,NA,NA,"BLDU",NA,NA,NA,45,10,"2009-02-21 07:49",39.1,"KLTS 210755Z COR 01039G45KT 4SM BLDU CLR 09/M05 A2990 RMK AO2 PK WND 01045/0749 WSHFT 0708 PRESRR SLP119 P0008 T00951049 CHINO RWY35L $ COR 0806"
"96362","LTS","2012-03-08 15:03:00",-99.2667,34.6671,35.6,33.8,93.08,20,31,0,30.21,1022.6,10,46,"SCT","BKN","OVC",NA,1400,2700,4200,NA,"-TSSN",NA,NA,NA,46,20,"2012-03-08 14:54",21.46,"KLTS 081503Z AUTO 02031G46KT 10SM -TSSN SCT014 BKN027 OVC042 02/01 A3021 RMK AO2 PK WND 02046/1454 TSB1503 BKN V SCT SLP226 $"
"96363","LTS","2012-03-08 15:04:00",-99.2667,34.6671,35.6,33.8,93.08,20,31,0,30.21,1022.7,9,46,"SCT","SCT","BKN","OVC",1400,2500,3200,4200,"-TSSN",NA,NA,NA,46,20,"2012-03-08 14:54",21.46,"KLTS 081504Z AUTO 02031G46KT 9SM -TSSN SCT014 SCT025 BKN032 OVC042 02/01 A3021 RMK AO2 PK WND 02046/1454 TSB1503 SLP227 $"
"102840","LTS","2012-09-07 23:24:00",-99.2667,34.6671,86,53.6,33.01,20,30,0,29.88,1010.2,5,38,"FEW",NA,NA,NA,300,NA,NA,NA,"BLDU",NA,NA,NA,41,10,"2012-09-07 23:11",84.18,"KLTS 072324Z 02030G38KT 5SM BLDU FEW003 30/12 A2988 RMK AO2A DU FEW003 PK WND 01041/2311 SLP102 $"
"102841","LTS","2012-09-07 23:26:00",-99.2667,34.6671,86,53.6,33.01,20,28,0,29.88,NA,5,38,"FEW",NA,NA,NA,300,NA,NA,NA,"DU",NA,NA,NA,NA,NA,NA,84.18,"KLTS 072326Z 02028G38KT 5SM DU FEW003 30/12 A2988 RMK AO2A DU FEW003"
"121672","LTS","2014-03-02 16:02:00",-99.2667,34.6671,14,6.8,72.53,350,17,0,30.33,NA,9,22,"BKN","BKN",NA,NA,1000,2200,NA,NA,"-TSSN",NA,NA,NA,NA,NA,NA,-3.51,"KLTS 021602Z AUTO 35017G22KT 9SM -TSSN BKN010 BKN022 M10/M14 A3033 RMK AO2 TSB1556 CIG 008V010 BKN010 V OVC CIG 006 RWY17R $"
"121673","LTS","2014-03-02 16:17:00",-99.2667,34.6671,14,6.8,72.53,350,16,0,30.33,NA,5,24,"SCT","OVC",NA,NA,1000,1600,NA,NA,"-TSSN",NA,NA,NA,NA,NA,NA,-3.04,"KLTS 021617Z AUTO 35016G24KT 340V140 5SM -TSSN SCT010 OVC016 M10/M14 A3033 RMK AO2 RAE1558SNB1602 TSB1556 CIG 010V016 CIG 006 RWY17R $"
"121688","LTS","2014-03-02 17:41:00",-99.2667,34.6671,14,6.8,72.53,350,20,0,30.31,NA,8,NA,"BKN","BKN","OVC",NA,800,1500,2100,NA,"-TSSN",NA,NA,NA,NA,NA,NA,-4.77,"KLTS 021741Z 35020KT 8SM -TSSN BKN008 BKN015 OVC021 M10/M14 A3031 RMK AO2A LTG DSNT N AND W TSB1734 CIG 008V010 $"
"121689","LTS","2014-03-02 17:46:00",-99.2667,34.6671,14,6.8,72.53,360,16,0,30.33,NA,6,NA,"SCT","BKN","OVC",NA,900,1400,1800,NA,"-TSSN",NA,NA,NA,NA,NA,NA,-3.04,"KLTS 021746Z AUTO 36016KT 6SM -TSSN SCT009 BKN014 OVC018 M10/M14 A3033 RMK AO2 LTG DSNT N AND SW-W CIG 008V014 BKN V OVC PRESRR"
"121690","LTS","2014-03-02 17:51:00",-99.2667,34.6671,14,6.8,72.53,350,18,0,30.32,NA,5,NA,"BKN","OVC",NA,NA,900,1700,NA,NA,"-TSSN",NA,NA,NA,NA,NA,NA,-3.95,"KLTS 021751Z AUTO 35018KT 5SM -TSSN BKN009 OVC017 M10/M14 A3032 RMK AO2 LTG DSNT SW CIG 008V014 BKN V SCT"
"121691","LTS","2014-03-02 17:58:00",-99.2667,34.6671,13.28,7.52,77.34,360,16,1e-04,30.3,1028,2.5,NA,"FEW","OVC",NA,NA,700,1400,NA,NA,"-TSSN",NA,NA,NA,29,360,"2014-03-02 17:03",-3.98,"KLTS 021758Z AUTO 36016KT 2 1/2SM -TSSN FEW007 OVC014 M10/M14 A3030 RMK AO2 PK WND 36029/03 VIS 2 1/2V5 LTG DSNT N-NE RAB1713E1740FZDZB1718E1720SNE1713B1740 TSB1734 CIG 009V014 SLP280 P0000 60000 T11041136 11097 21107 50003 $"
"122336","LTS","2014-03-18 23:38:00",-99.2667,34.6671,68,24.8,19.47,340,26,0,29.69,NA,2,36,"SCT",NA,NA,NA,900,NA,NA,NA,"BLDU",NA,NA,NA,NA,NA,NA,68,"KLTS 182338Z 34026G36KT 2SM BLDU SCT009 20/M04 A2969 RMK AO2A VIS 2V10"
"122337","LTS","2014-03-18 23:43:00",-99.2667,34.6671,66.2,24.8,20.72,330,29,0,29.7,NA,1.75,35,"BKN",NA,NA,NA,900,NA,NA,NA,"BLDU",NA,NA,NA,NA,NA,NA,66.2,"KLTS 182343Z 33029G35KT 1 3/4SM BLDU BKN009 19/M04 A2970 RMK AO2A VIS 1 3/4V5 BKN V FEW $"
"122338","LTS","2014-03-18 23:58:00",-99.2667,34.6671,65.84,24.08,20.36,320,23,0,29.72,1006,1.5,35,"OVC",NA,NA,NA,900,NA,NA,NA,"BLDU",NA,NA,NA,39,320,"2014-03-18 23:43",65.84,"KLTS 182358Z 32023G35KT 1 1/2SM BLDU OVC009 19/M04 A2972 RMK AO2A PK WND 32039/43 OVC V BKN PRESRR SLP060 T01881044 10237 20188 52047 $"
"122340","LTS","2014-03-19 00:23:00",-99.2667,34.6671,64.4,24.8,22.06,330,24,0,29.75,NA,4,31,"BKN",NA,NA,NA,900,NA,NA,NA,"BLDU",NA,NA,NA,NA,NA,NA,64.4,"KLTS 190023Z 33024G31KT 4SM BLDU BKN009 18/M04 A2975 RMK AO2A BKN V OVC $"
"122341","LTS","2014-03-19 00:33:00",-99.2667,34.6671,62.6,24.8,23.5,330,24,0,29.75,NA,6,32,"OVC",NA,NA,NA,900,NA,NA,NA,"BLDU",NA,NA,NA,NA,NA,NA,62.6,"KLTS 190033Z 33024G32KT 6SM BLDU OVC009 17/M04 A2975 RMK AO2A"
"122342","LTS","2014-03-19 00:58:00",-99.2667,34.6671,61.88,23.72,23.04,330,25,0,29.78,1008.3,NA,35,"OVC",NA,NA,NA,900,NA,NA,NA,"BLDU",NA,NA,NA,NA,NA,NA,61.88,"KLTS 190058Z 33025G35KT BLDU 6SM OVC009 17/M05 A2978 RMK AO2A PK WND 32036/12 PRESRR SLP083 T01661046 $"
"122343","LTS","2014-03-19 01:39:00",-99.2667,34.6671,59,24.8,26.7,330,33,0,29.82,NA,NA,40,"OVC",NA,NA,NA,900,NA,NA,NA,"BLDU",NA,NA,NA,NA,NA,NA,59,"KLTS 190139Z 33033G40KT BLDU 6SM R35L/5500FT OVC009 15/M04 A2982 RMK AO2A"
"122344","LTS","2014-03-19 01:49:00",-99.2667,34.6671,57.2,24.8,28.48,330,30,0,29.84,NA,NA,40,"OVC",NA,NA,NA,900,NA,NA,NA,"BLDU",NA,NA,NA,NA,NA,NA,57.2,"KLTS 190149Z 33030G40KT BLDU 6SM R35L/5500FT OVC009 14/M04 A2984 RMK AO2A PRESRR"
"122345","LTS","2014-03-19 01:58:00",-99.2667,34.6671,57.38,25.16,28.73,330,30,0.2,29.85,1010.4,NA,38,"OVC",NA,NA,NA,900,NA,NA,NA,"BLDU",NA,NA,NA,NA,NA,NA,57.38,"KLTS 190158Z 33030G38KT BLDU 6SM OVC009 14/M04 A2985 RMK AO2A PK WND 34044/38 CIG 007 RWY17R SLP104 P0020 T01411038 $"
"122347","LTS","2014-03-19 02:58:00",-99.2667,34.6671,51.44,26.6,37.88,330,25,0,29.94,1013.5,NA,37,"BKN",NA,NA,NA,900,NA,NA,NA,"BLDU",NA,NA,NA,NA,NA,NA,51.44,"KLTS 190258Z 33025G37KT BLDU 6SM BKN009 11/M03 A2994 RMK AO2A PK WND 34042/47 PRESRR SLP135 T01081030 52069 $"
"122349","LTS","2014-03-19 04:58:00",-99.2667,34.6671,45.32,27.32,49.07,360,23,0,29.99,1015.2,6,33,"CLR",NA,NA,NA,NA,NA,NA,NA,"BLDU",NA,NA,NA,40,340,"2014-03-19 04:15",36.22,"KLTS 190458Z 36023G33KT 6SM BLDU CLR 07/M03 A2999 RMK AO2A PK WND 34040/15 SLP152 T00741026 $"
"122619","LTS","2014-03-27 19:58:00",-99.2667,34.6671,80.6,24.8,12.76,250,19,0,29.62,1001.8,5,28,"FEW",NA,NA,NA,600,NA,NA,NA,"BLDU",NA,NA,NA,33,280,"2014-03-27 19:40",78.94,"KLTS 271958Z 25019G28KT 5SM BLDU FEW006 27/M04 A2962 RMK AO2A PK WND 28033/40 SLP018 $"
"122620","LTS","2014-03-27 20:48:00",-99.2667,34.6671,80.6,24.8,12.76,260,19,0,29.62,NA,5,27,"SCT",NA,NA,NA,600,NA,NA,NA,"BLDU",NA,NA,NA,NA,NA,NA,78.94,"KLTS 272048Z 26019G27KT 5SM BLDU SCT006 27/M04 A2962 RMK AO2A BKN V SCT $"
"122621","LTS","2014-03-27 20:58:00",-99.2667,34.6671,79.7,24.44,12.95,250,14,0,29.61,1001.5,5,27,"BKN",NA,NA,NA,600,NA,NA,NA,"BLDU",NA,NA,NA,32,280,"2014-03-27 20:06",77.98,"KLTS 272058Z 25014G27KT 5SM BLDU BKN006 27/M04 A2961 RMK AO2A PK WND 28032/06 SLP015 T02651042 58007 $"
"122622","LTS","2014-03-27 21:03:00",-99.2667,34.6671,80.6,24.8,12.76,240,15,0,29.62,NA,5,27,"OVC",NA,NA,NA,700,NA,NA,NA,"BLDU",NA,NA,NA,NA,NA,NA,78.94,"KLTS 272103Z 24015G27KT 5SM BLDU OVC007 27/M04 A2962 RMK AO2A"
"122623","LTS","2014-03-27 21:58:00",-99.2667,34.6671,80.24,24.44,12.72,270,16,0,29.62,1001.9,4,26,"FEW",NA,NA,NA,700,NA,NA,NA,"BLDU",NA,NA,NA,29,240,"2014-03-27 21:35",78.54,"KLTS 272158Z 27016G26KT 4SM BLDU FEW007 27/M04 A2962 RMK AO2A PK WND 24029/35 SLP019 T02681042 $"
"122624","LTS","2014-03-27 22:58:00",-99.2667,34.6671,79.88,23.72,12.49,250,17,0,29.62,1001.9,6,NA,"CLR",NA,NA,NA,NA,NA,NA,NA,"BLDU",NA,NA,NA,27,250,"2014-03-27 22:41",78.15,"KLTS 272258Z 25017KT 6SM BLDU CLR 27/M05 A2962 RMK AO2A PK WND 25027/41 SLP019 T02661046 $"
"122835","LTS","2014-04-04 00:53:00",-99.2667,34.6671,64.4,35.6,34.22,350,30,0,29.81,NA,6,42,"CLR",NA,NA,NA,NA,NA,NA,NA,"BLDU",NA,NA,NA,NA,NA,NA,64.4,"KLTS 040053Z 35030G42KT 6SM BLDU CLR 18/02 A2981 RMK AO2A PRESRR $"
"122836","LTS","2014-04-04 00:58:00",-99.2667,34.6671,63.68,36.32,36.11,350,32,0,29.82,1009.1,6,43,"CLR",NA,NA,NA,NA,NA,NA,NA,"BLDU",NA,NA,NA,44,350,"2014-04-04 00:42",63.68,"KLTS 040058Z 35032G43KT 6SM BLDU CLR 18/02 A2982 RMK AO2A PK WND 35044/42 SLP091 T01760024 $"
"136939","LTS","2015-04-03 09:58:00",-99.2667,34.6671,60.98,39.2,44.47,360,21,0,29.82,1008.5,6,27,"CLR",NA,NA,NA,NA,NA,NA,NA,"DU",NA,NA,NA,34,360,"2015-04-03 09:56",60.98,"KLTS 030958Z 36021G27KT 6SM R17R/5000FT DU CLR 16/04 A2982 RMK AO2A PK WND 36034/56 SLP085 T01610040 $"
"151381","LTS","2016-03-23 20:19:00",-99.2667,34.6671,75.2,19.4,12.14,220,18,0,29.6,NA,7,27,"FEW","SCT",NA,NA,13000,21000,NA,NA,"BLDU",NA,NA,NA,NA,NA,NA,72.99,"KLTS 232019Z 22018G27KT 7SM BLDU FEW130 SCT210 24/M07 A2960"
"151382","LTS","2016-03-23 20:58:00",-99.2667,34.6671,77,18.68,11.09,220,22,0,29.59,1000.8,6,NA,"FEW","SCT",NA,NA,13000,21000,NA,NA,"BLDU",NA,NA,NA,36,210,"2016-03-23 20:52",74.92,"KLTS 232058Z 22022KT 6SM BLDU FEW130 SCT210 25/M07 A2959 RMK AO2A PK WND 21036/52 SLP008 T02501074 56015"
"151383","LTS","2016-03-23 21:58:00",-99.2667,34.6671,76.64,13.1,8.81,250,29,0,29.59,1000.8,6,36,"CLR",NA,NA,NA,NA,NA,NA,NA,"BLDU",NA,NA,NA,40,250,"2016-03-23 21:30",74.42,"KLTS 232158Z 25029G36KT 6SM BLDU CLR 25/M10 A2959 RMK AO2A PK WND 25040/30 SLP008 T02481105"
"151384","LTS","2016-03-23 22:58:00",-99.2667,34.6671,75.38,6.8,6.93,250,24,0,29.62,1001.9,6,35,"CLR",NA,NA,NA,NA,NA,NA,NA,"BLDU",NA,NA,NA,41,270,"2016-03-23 22:33",72.94,"KLTS 232258Z 25024G35KT 6SM BLDU CLR 24/M14 A2962 RMK AO2A PK WND 27041/33 SLP019 T02411140"
