"","station","valid","lon","lat","tmpf","dwpf","relh","drct","sknt","p01i","alti","mslp","vsby","gust","skyc1","skyc2","skyc3","skyc4","skyl1","skyl2","skyl3","skyl4","wxcodes","ice_accretion_1hr","ice_accretion_3hr","ice_accretion_6hr","peak_wind_gust","peak_wind_drct","peak_wind_time","feel","metar"
"2294","MAF","2001-04-06 22:53:00",-102.2075,31.9466,75.02,41,29.41,280,21,NA,29.74,1002.9,1.5,31,"BKN","OVC","   ",NA,1200,4500,NA,NA,"BLDU",NA,NA,NA,35,180,"2001-04-06 22:06",73.6,"METAR KMAF 062253Z 28021G31KT 1 1/2SM BLDU BKN012 OVC045 24/05 A2974 RMK AO2 PK WND 18035/2206 WSHFT 2233 SLP029 T02390050"
"2295","MAF","2001-04-06 23:53:00",-102.2075,31.9466,69.98,35.96,28.63,280,20,NA,29.81,1005.6,1,26,"VV ","   ","   ",NA,900,NA,NA,NA,"BLDU",NA,NA,NA,34,290,"2001-04-06 23:06",69.98,"METAR KMAF 062353Z 28020G26KT 1SM BLDU VV009 21/02 A2981 RMK AO2 PK WND 29034/2306 SLP056 T02110022 10267 20206 53062"
"2296","MAF","2001-04-07 00:53:00",-102.2075,31.9466,69.08,21.92,16.63,270,16,NA,29.83,1006.4,0.75,23,"VV ","   ","   ",NA,900,NA,NA,NA,"BLDU",NA,NA,NA,NA,NA,NA,69.08,"METAR KMAF 070053Z 27016G23KT 3/4SM BLDU VV009 21/M06 A2983 RMK AO2 PK WND 28028/0018 SFC VIS 1 SLP064 T02061056"
"2297","MAF","2001-04-07 01:53:00",-102.2075,31.9466,66.02,23,19.34,290,10,NA,29.88,1008.2,4,NA,"OVC","   ","   ",NA,1900,NA,NA,NA,"BLDU",NA,NA,NA,NA,NA,NA,66.02,"METAR KMAF 070153Z 29010KT 4SM BLDU OVC019 19/M05 A2988 RMK AO2 SLP082 T01891050"
"2298","MAF","2001-04-07 02:53:00",-102.2075,31.9466,62.96,24.08,22.52,290,5,NA,29.92,1009.8,8,NA,"CLR","   ","   ",NA,NA,NA,NA,NA,"BLDU",NA,NA,NA,NA,NA,NA,62.96,"METAR KMAF 070253Z 29005KT 8SM BLDU CLR 17/M04 A2992 RMK AO2 PRESRR SLP098 T01721044 53035"
"2671","MAF","2001-04-22 15:53:00",-102.2075,31.9466,71.06,24.98,17.67,270,23,NA,29.92,1009.3,7,31,"CLR","   ","   ",NA,NA,NA,NA,NA,"BLDU",NA,NA,NA,NA,NA,NA,68.7,"METAR KMAF 221553Z 27023G31KT 7SM BLDU CLR 22/M04 A2992 RMK AO2 PK WND 26035/1523 SLP093 T02171039"
"3904","MAF","2001-06-13 02:53:00",-102.2075,31.9466,84.92,51.98,32.2,210,19,NA,29.79,1003.3,3,36,"SCT","   ","   ",NA,3400,NA,NA,NA,"BLDU",NA,NA,NA,36,220,"2001-06-13 02:45",83.05,"METAR KMAF 130253Z 21019G36KT 3SM BLDU SCT034 29/11 A2979 RMK AO2 PK WND 22036/0245 WSHFT 0155 RAB42E44 SLP033 P0000 60000 T02940111 53038"
"5893","MAF","2001-09-04 00:53:00",-102.2075,31.9466,80.06,62.06,54.23,110,27,NA,29.89,1007.8,2,31,"CLR","   ","   ",NA,NA,NA,NA,NA,"BLDU",NA,NA,NA,NA,NA,NA,81.27,"METAR KMAF 040053Z 11027G31KT 2SM BLDU CLR 27/17 A2989 RMK AO2 PK WND 10031/0052 WSHFT 0012 SLP078 T02670167"
"6653","MAF","2001-10-05 16:53:00",-102.2075,31.9466,62.06,51.08,67.24,40,26,NA,30.06,1014.8,5,33,"SCT","BKN","   ",NA,3000,3700,NA,NA,"BLDU",NA,NA,NA,34,30,"2001-10-05 16:38",62.06,"METAR KMAF 051653Z 04026G33KT 5SM BLDU SCT030 BKN037 17/11 A3006 RMK AO2 PK WND 03034/1638 SLP148 T01670106"
"6751","MAF","2001-10-09 18:53:00",-102.2075,31.9466,84.02,44.06,24.62,250,16,NA,29.95,1009.8,7,23,"CLR","   ","   ",NA,NA,NA,NA,NA,"BLDU",NA,NA,NA,NA,NA,NA,81.56,"METAR KMAF 091853Z 25016G23KT 7SM BLDU CLR 29/07 A2995 RMK AO2 SLP098 T02890067"
"6828","MAF","2001-10-12 23:53:00",-102.2075,31.9466,66.02,37.04,34.24,350,28,NA,29.76,1004.5,1.25,38,"BKN","   ","   ",NA,1400,NA,NA,NA,"BLDU",NA,NA,NA,40,350,"2001-10-12 23:42",66.02,"METAR KMAF 122353Z 35028G38KT 1 1/4SM BLDU BKN014 19/03 A2976 RMK AO2 PK WND 35040/2342 PRESRR SLP045 T01890028 10261 20189 53024"
"6829","MAF","2001-10-13 00:53:00",-102.2075,31.9466,60.08,37.94,43.71,360,20,NA,29.81,1006.6,5,30,"SCT","   ","   ",NA,1400,NA,NA,NA,"BLDU",NA,NA,NA,38,360,"2001-10-13 00:17",60.08,"METAR KMAF 130053Z 36020G30KT 5SM BLDU SCT014 16/03 A2981 RMK AO2 PK WND 36038/0017 SLP066 T01560033"
"6894","MAF","2001-10-15 17:53:00",-102.2075,31.9466,75.02,35.96,24.14,40,24,NA,30.18,1018.2,6,28,"CLR","   ","   ",NA,NA,NA,NA,NA,"BLDU",NA,NA,NA,31,40,"2001-10-15 17:34",73.36,"METAR KMAF 151753Z 04024G28KT 6SM BLDU CLR 24/02 A3018 RMK AO2 PK WND 04031/1734 SLP182 T02390022 10244 20106 51028"
"6895","MAF","2001-10-15 18:53:00",-102.2075,31.9466,77,35.96,22.6,50,25,NA,30.19,1018.5,4,31,"CLR","   ","   ",NA,NA,NA,NA,NA,"BLDU",NA,NA,NA,35,30,"2001-10-15 18:42",75.46,"METAR KMAF 151853Z 05025G31KT 4SM BLDU CLR 25/02 A3019 RMK AO2 PK WND 03035/1842 SLP185 T02500022"
"6896","MAF","2001-10-15 19:53:00",-102.2075,31.9466,75.02,35.96,24.14,40,22,NA,30.21,1019.2,6,28,"CLR","   ","   ",NA,NA,NA,NA,NA,"BLDU",NA,NA,NA,31,40,"2001-10-15 19:37",73.36,"METAR KMAF 151953Z 04022G28KT 6SM BLDU CLR 24/02 A3021 RMK AO2 PK WND 04031/1937 SLP192 T02390022"
"6897","MAF","2001-10-15 20:53:00",-102.2075,31.9466,73.04,37.04,26.93,70,23,NA,30.24,1020.6,5,31,"CLR","   ","   ",NA,NA,NA,NA,NA,"BLDU",NA,NA,NA,31,50,"2001-10-15 20:50",71.31,"METAR KMAF 152053Z 07023G31KT 5SM BLDU CLR 23/03 A3024 RMK AO2 PK WND 05031/2050 SLP206 T02280028 53018"
"6898","MAF","2001-10-15 21:53:00",-102.2075,31.9466,69.98,39.02,32.29,60,22,NA,30.28,1022,6,27,"CLR","   ","   ",NA,NA,NA,NA,NA,"BLDU",NA,NA,NA,30,60,"2001-10-15 21:13",69.98,"METAR KMAF 152153Z 06022G27KT 6SM BLDU CLR 21/04 A3028 RMK AO2 PK WND 06030/2113 SLP220 T02110039"
"7097","MAF","2001-10-24 15:53:00",-102.2075,31.9466,68,37.04,31.97,30,16,NA,29.96,1010.7,5,22,"CLR","   ","   ",NA,NA,NA,NA,NA,"BLDU",NA,NA,NA,NA,NA,NA,68,"METAR KMAF 241553Z 03016G22KT 5SM BLDU CLR 20/03 A2996 RMK AO2 WSHFT 1450 SLP107 T02000028"
"7455","MAF","2001-11-08 15:53:00",-102.2075,31.9466,55.94,37.04,48.95,30,24,NA,30.36,1025.2,2.5,30,"SCT","BKN","   ",NA,1000,1800,NA,NA,"BLDU",NA,NA,NA,30,30,"2001-11-08 15:52",55.94,"METAR KMAF 081553Z COR 03024G30KT 2 1/2SM BLDU SCT010 BKN018 13/03 A3036 RMK AO2 PK WND 03030/1552 SLP252 T01330028"
"7456","MAF","2001-11-08 16:53:00",-102.2075,31.9466,57.92,39.02,49.26,30,23,NA,30.38,1025.9,5,28,"CLR","   ","   ",NA,NA,NA,NA,NA,"BLDU",NA,NA,NA,29,30,"2001-11-08 16:27",57.92,"METAR KMAF 081653Z 03023G28KT 5SM BLDU CLR 14/04 A3038 RMK AO2 PK WND 03029/1627 SLP259 T01440039"
"7457","MAF","2001-11-08 17:53:00",-102.2075,31.9466,60.08,39.02,45.6,20,18,NA,30.38,1025.9,7,23,"CLR","   ","   ",NA,NA,NA,NA,NA,"BLDU",NA,NA,NA,27,30,"2001-11-08 17:28",60.08,"METAR KMAF 081753Z 02018G23KT 7SM BLDU CLR 16/04 A3038 RMK AO2 PK WND 03027/1728 SLP259 T01560039 10156 20117 51015"
"9207","MAF","2002-01-20 20:53:00",-102.2075,31.9466,69.08,14,11.82,270,32,NA,29.78,1005.9,3,37,"CLR","   ","   ",NA,NA,NA,NA,NA,"BLDU",NA,NA,NA,NA,NA,NA,69.08,"METAR KMAF 202053Z 27032G37KT 3SM BLDU CLR 21/M10 A2978 RMK AO2 PK WND 27037/2053 SLP059 T02061100 56025"
"9208","MAF","2002-01-20 21:53:00",-102.2075,31.9466,68,15.98,13.38,260,29,NA,29.81,1007.1,3,33,"CLR","   ","   ",NA,NA,NA,NA,NA,"BLDU",NA,NA,NA,NA,NA,NA,68,"METAR KMAF 202153Z 26029G33KT 3SM BLDU CLR 20/M09 A2981 RMK AO2 PK WND 26038/2117 SLP071 T02001089"
"9971","MAF","2002-02-21 16:53:00",-102.2075,31.9466,57.02,32,38.51,40,31,NA,30.26,1022.8,7,41,"FEW","   ","   ",NA,1200,NA,NA,NA,"BLDU",NA,NA,NA,45,30,"2002-02-21 16:22",57.02,"METAR KMAF 211653Z COR 04031G41KT 7SM BLDU FEW012 14/00 A3026 RMK AO2 PK WND 03045/1622 SLP228 T01390000 $"
"10077","MAF","2002-02-26 02:53:00",-102.2075,31.9466,37.94,17.96,44,50,20,NA,30.28,1024.9,4,38,"FEW","   ","   ",NA,1000,NA,NA,NA,"BLDU",NA,NA,NA,NA,NA,NA,27.03,"METAR KMAF 260253Z COR 05020G38KT 4SM BLDU FEW010 03/M08 A3028 RMK AO2 PK WND 04038/0246 PRESRR SLP249 T00331078 53061"
"10174","MAF","2002-03-02 03:53:00",-102.2075,31.9466,41,12.92,31.36,20,34,NA,29.71,1004.1,1.75,43,"SCT","   ","   ",NA,1500,NA,NA,NA,"BLDU SQ",NA,NA,NA,NA,NA,NA,28.42,"METAR KMAF 020353Z 02034G43KT 1 3/4SM BLDU SQ SCT015 05/M11 A2971 RMK AO2 PK WND 02043/0350 SLP041 T00501106 $"
"10175","MAF","2002-03-02 04:53:00",-102.2075,31.9466,30.02,8.96,40.65,10,26,NA,29.81,1007.9,3,31,"OVC","   ","   ",NA,1300,NA,NA,NA,"BLDU",NA,NA,NA,NA,NA,NA,14.89,"METAR KMAF 020453Z 01026G31KT 3SM BLDU OVC013 M01/M13 A2981 RMK AO2 PK WND 02044/0402 SLP079 T10111128 $"
"10176","MAF","2002-03-02 05:53:00",-102.2075,31.9466,26.96,6.98,42.14,20,27,NA,29.86,1009.6,4,37,"OVC","   ","   ",NA,1600,NA,NA,NA,"BLDU",NA,NA,NA,NA,NA,NA,10.48,"METAR KMAF 020553Z 02027G37KT 4SM BLDU OVC016 M03/M14 A2986 RMK AO2 PK WND 02037/0544 SLP096 6//// T10281139 10228 21028 402441028 51078 $"
"10177","MAF","2002-03-02 06:53:00",-102.2075,31.9466,26.96,5,38.5,20,27,NA,29.89,1010.4,5,32,"OVC","   ","   ",NA,2400,NA,NA,NA,"BLDU",NA,NA,NA,33,30,"2002-03-02 06:41",10.48,"METAR KMAF 020653Z 02027G32KT 5SM BLDU OVC024 M03/M15 A2989 RMK AO2 PK WND 03033/0641 SLP104 T10281150 $"
"10178","MAF","2002-03-02 07:53:00",-102.2075,31.9466,24.98,3.02,38.16,20,26,NA,29.97,1013,5,33,"OVC","   ","   ",NA,2400,NA,NA,NA,"BLDU",NA,NA,NA,NA,NA,NA,8.04,"METAR KMAF 020753Z 02026G33KT 5SM BLDU OVC024 M04/M16 A2997 RMK AO2 PK WND 02036/0655 PRESRR SLP130 T10391161 $"
"10179","MAF","2002-03-02 08:53:00",-102.2075,31.9466,23,6.08,47.7,10,24,NA,30.01,1014.6,5,30,"OVC","   ","   ",NA,2800,NA,NA,NA,"BLDU",NA,NA,NA,NA,NA,NA,5.92,"METAR KMAF 020853Z 01024G30KT 5SM BLDU OVC028 M05/M14 A3001 RMK AO2 PK WND 02032/0755 PRESRR SLP146 T10501144 53047 $"
"10180","MAF","2002-03-02 09:53:00",-102.2075,31.9466,21.02,5,49.37,360,19,NA,30.03,1015.2,5,24,"OVC","   ","   ",NA,3000,NA,NA,NA,"BLDU",NA,NA,NA,NA,NA,NA,4.92,"METAR KMAF 020953Z 36019G24KT 5SM BLDU OVC030 M06/M15 A3003 RMK AO2 PK WND 02030/0901 SLP152 T10611150 $"
"10181","MAF","2002-03-02 10:53:00",-102.2075,31.9466,19.94,6.08,54.3,10,17,NA,30.09,1017.3,5,24,"BKN","BKN","   ",NA,3600,6000,NA,NA,"BLDU",NA,NA,NA,NA,NA,NA,4.28,"METAR KMAF 021053Z 01017G24KT 5SM BLDU BKN036 BKN060 M07/M14 A3009 RMK AO2 PK WND 35027/1013 SLP173 T10671144 $"
"10182","MAF","2002-03-02 11:53:00",-102.2075,31.9466,19.04,10.04,67.46,360,17,NA,30.13,1018.9,7,NA,"FEW","OVC","   ",NA,1800,7000,NA,NA,"BLDU",NA,NA,NA,NA,NA,NA,3.1,"METAR KMAF 021153Z 36017KT 7SM BLDU FEW018 OVC070 M07/M12 A3013 RMK AO2 SLP189 7//// T10721122 11028 21072 53036 $"
"10343","MAF","2002-03-09 04:53:00",-102.2075,31.9466,64.94,24.08,21.01,260,15,NA,29.94,1010.4,5,NA,"CLR","   ","   ",NA,NA,NA,NA,NA,"BLDU",NA,NA,NA,NA,NA,NA,64.94,"METAR KMAF 090453Z 26015KT 5SM BLDU CLR 18/M04 A2994 RMK AO2 SLP104 T01831044"
"10344","MAF","2002-03-09 05:53:00",-102.2075,31.9466,60.08,24.08,24.93,290,6,NA,29.99,1012.3,5,NA,"CLR","   ","   ",NA,NA,NA,NA,NA,"BLDU",NA,NA,NA,NA,NA,NA,60.08,"METAR KMAF 090553Z 29006KT 5SM BLDU CLR 16/M04 A2999 RMK AO2 SLP123 T01561044 10239 20150 402560106 53038"
"10345","MAF","2002-03-09 06:53:00",-102.2075,31.9466,51.98,24.08,33.44,280,3,NA,30.05,1014.3,5,NA,"CLR","   ","   ",NA,NA,NA,NA,NA,"DU",NA,NA,NA,NA,NA,NA,51.98,"METAR KMAF 090653Z 28003KT 5SM DU CLR 11/M04 A3005 RMK AO2 SLP143 T01111044"
"10348","MAF","2002-03-09 09:53:00",-102.2075,31.9466,42.08,15.98,34.38,40,21,NA,30.22,1020.7,2.5,30,"BKN","   ","   ",NA,600,NA,NA,NA,"BLDU",NA,NA,NA,36,30,"2002-03-09 09:40",32.3,"METAR KMAF 090953Z 04021G30KT 2 1/2SM BLDU BKN006 06/M09 A3022 RMK AO2 PK WND 03036/0940 PRESRR SLP207 T00561089"
"10349","MAF","2002-03-09 10:53:00",-102.2075,31.9466,33.98,12.92,41.33,40,16,NA,30.3,1023.9,4,NA,"CLR","   ","   ",NA,NA,NA,NA,NA,"BLDU",NA,NA,NA,32,30,"2002-03-09 10:02",23,"METAR KMAF 091053Z 04016KT 4SM BLDU CLR 01/M11 A3030 RMK AO2 PK WND 03032/1002 SLP239 T00111106"
"10406","MAF","2002-03-11 19:53:00",-102.2075,31.9466,73.04,12.02,9.47,300,30,NA,29.88,1009.2,5,36,"CLR","   ","   ",NA,NA,NA,NA,NA,"BLDU",NA,NA,NA,38,300,"2002-03-11 19:19",70.49,"METAR KMAF 111953Z 30030G36KT 5SM BLDU CLR 23/M11 A2988 RMK AO2 PK WND 30038/1919 SLP092 T02281111"
"10407","MAF","2002-03-11 20:53:00",-102.2075,31.9466,73.04,14,10.34,300,25,NA,29.88,1009.1,6,36,"CLR","   ","   ",NA,NA,NA,NA,NA,"BLDU",NA,NA,NA,40,320,"2002-03-11 20:33",70.53,"METAR KMAF 112053Z 30025G36KT 6SM BLDU CLR 23/M10 A2988 RMK AO2 PK WND 32040/2033 SLP091 T02281100 56009"
"10408","MAF","2002-03-11 21:53:00",-102.2075,31.9466,73.94,19.04,12.47,330,25,NA,29.88,1009.4,6,35,"CLR","   ","   ",NA,NA,NA,NA,NA,"BLDU",NA,NA,NA,39,320,"2002-03-11 20:55",71.62,"METAR KMAF 112153Z 33025G35KT 6SM BLDU CLR 23/M07 A2988 RMK AO2 PK WND 32039/2055 SLP094 T02331072"
"10409","MAF","2002-03-11 22:53:00",-102.2075,31.9466,69.08,17.96,14.04,350,28,NA,29.93,1011.4,2.5,38,"FEW","   ","   ",NA,1200,NA,NA,NA,"BLDU",NA,NA,NA,38,340,"2002-03-11 22:45",69.08,"METAR KMAF 112253Z 35028G38KT 2 1/2SM BLDU FEW012 21/M08 A2993 RMK AO2 PK WND 34038/2245 SLP114 T02061078"
"10410","MAF","2002-03-11 23:53:00",-102.2075,31.9466,66.92,19.04,15.85,350,22,NA,29.98,1013.1,2.5,32,"FEW","   ","   ",NA,1100,NA,NA,NA,"BLDU",NA,NA,NA,35,350,"2002-03-11 23:17",66.92,"METAR KMAF 112353Z 35022G32KT 2 1/2SM BLDU FEW011 19/M07 A2998 RMK AO2 PK WND 35035/2317 SLP131 T01941072 10233 20194 53031"
"10411","MAF","2002-03-12 00:53:00",-102.2075,31.9466,62.96,17.06,16.71,360,16,NA,30.03,1014.9,4,NA,"CLR","   ","   ",NA,NA,NA,NA,NA,"BLDU",NA,NA,NA,29,350,"2002-03-12 00:13",62.96,"METAR KMAF 120053Z 36016KT 4SM BLDU CLR 17/M08 A3003 RMK AO2 PK WND 35029/0013 SLP149 T01721083"
"10412","MAF","2002-03-12 01:53:00",-102.2075,31.9466,59,17.96,19.99,10,8,NA,30.06,1016.3,6,NA,"CLR","   ","   ",NA,NA,NA,NA,NA,"BLDU",NA,NA,NA,NA,NA,NA,59,"METAR KMAF 120153Z 01008KT 6SM BLDU CLR 15/M08 A3006 RMK AO2 SLP163 T01501078"
"10413","MAF","2002-03-12 02:53:00",-102.2075,31.9466,51.98,15.98,23.68,340,4,NA,30.09,1017.1,6,NA,"CLR","   ","   ",NA,NA,NA,NA,NA,"BLDU",NA,NA,NA,NA,NA,NA,51.98,"METAR KMAF 120253Z 34004KT 6SM BLDU CLR 11/M09 A3009 RMK AO2 SLP171 T01111089 51033"
"10414","MAF","2002-03-12 03:53:00",-102.2075,31.9466,46.94,15.98,28.57,300,5,NA,30.11,1017.8,6,NA,"CLR","   ","   ",NA,NA,NA,NA,NA,"DU",NA,NA,NA,NA,NA,NA,44.14,"METAR KMAF 120353Z 30005KT 6SM DU CLR 08/M09 A3011 RMK AO2 SLP178 T00831089"
"10415","MAF","2002-03-12 04:53:00",-102.2075,31.9466,44.96,15.98,30.79,30,5,NA,30.1,1017.1,6,NA,"CLR","   ","   ",NA,NA,NA,NA,NA,"DU",NA,NA,NA,NA,NA,NA,41.79,"METAR KMAF 120453Z 03005KT 6SM DU CLR 07/M09 A3010 RMK AO2 SLP171 T00721089"
"10416","MAF","2002-03-12 05:53:00",-102.2075,31.9466,41,15.08,34.47,270,6,NA,30.11,1017.3,6,NA,"CLR","   ","   ",NA,NA,NA,NA,NA,"DU",NA,NA,NA,NA,NA,NA,36.37,"METAR KMAF 120553Z 27006KT 6SM DU CLR 05/M09 A3011 RMK AO2 SLP173 T00501094 10194 20044 402330033 51006"
"10475","MAF","2002-03-14 16:53:00",-102.2075,31.9466,75.92,21.92,13.2,260,33,NA,29.7,1001.6,7,38,"CLR","   ","   ",NA,NA,NA,NA,NA,"BLDU",NA,NA,NA,NA,NA,NA,73.83,"METAR KMAF 141653Z 26033G38KT 7SM BLDU CLR 24/M06 A2970 RMK AO2 PK WND 26041/1621 SLP016 T02441056 $"
"10729","MAF","2002-03-25 06:53:00",-102.2075,31.9466,55.94,24.08,28.93,NA,3,NA,29.78,1004.8,5,NA,"CLR","   ","   ",NA,NA,NA,NA,NA,"DU",NA,NA,NA,NA,NA,NA,55.94,"METAR KMAF 250653Z VRB03KT 5SM DU CLR 13/M04 A2978 RMK AO2 SLP048 T01331044"
"10730","MAF","2002-03-25 07:53:00",-102.2075,31.9466,51.98,24.98,34.72,40,4,NA,29.79,1005.1,6,NA,"CLR","   ","   ",NA,NA,NA,NA,NA,"DU",NA,NA,NA,NA,NA,NA,51.98,"METAR KMAF 250753Z 04004KT 6SM DU CLR 11/M04 A2979 RMK AO2 SLP051 T01111039"
"10930","MAF","2002-04-02 16:53:00",-102.2075,31.9466,62.06,39.02,42.51,20,25,NA,29.91,1009.5,2,33,"SCT","BKN","   ",NA,900,1500,NA,NA,"BLDU",NA,NA,NA,33,20,"2002-04-02 16:52",62.06,"METAR KMAF 021653Z 02025G33KT 2SM BLDU SCT009 BKN015 17/04 A2991 RMK AO2 PK WND 02033/1652 WSHFT 1558 SLP095 T01670039"
"10931","MAF","2002-04-02 17:53:00",-102.2075,31.9466,60.08,37.94,43.71,20,26,NA,29.94,1010.7,2.5,33,"BKN","BKN","   ",NA,1100,1700,NA,NA,"BLDU",NA,NA,NA,34,30,"2002-04-02 17:43",60.08,"METAR KMAF 021753Z 02026G33KT 2 1/2SM BLDU BKN011 BKN017 16/03 A2994 RMK AO2 PK WND 03034/1743 SLP107 T01560033 10233 20128 51041"
"10932","MAF","2002-04-02 18:53:00",-102.2075,31.9466,60.08,35.96,40.43,20,23,NA,29.96,1011.5,5,28,"CLR","   ","   ",NA,NA,NA,NA,NA,"BLDU",NA,NA,NA,32,30,"2002-04-02 18:12",60.08,"METAR KMAF 021853Z 02023G28KT 5SM BLDU CLR 16/02 A2996 RMK AO2 PK WND 03032/1812 SLP115 T01560022"
"10933","MAF","2002-04-02 19:53:00",-102.2075,31.9466,60.98,35.96,39.15,30,22,NA,29.98,1012.1,5,30,"CLR","   ","   ",NA,NA,NA,NA,NA,"BLDU",NA,NA,NA,30,10,"2002-04-02 19:47",60.98,"METAR KMAF 021953Z 03022G30KT 5SM BLDU CLR 16/02 A2998 RMK AO2 PK WND 01030/1947 SLP121 T01610022"
"11466","MAF","2002-04-24 23:53:00",-102.2075,31.9466,82.94,37.94,20.12,70,23,NA,29.99,1011.1,5,33,"CLR","   ","   ",NA,NA,NA,NA,NA,"BLDU",NA,NA,NA,33,70,"2002-04-24 23:49",80.52,"METAR KMAF 242353Z 07023G33KT 5SM BLDU CLR 28/03 A2999 RMK AO2 PK WND 07033/2349 WSHFT 2336 SLP111 T02830033 10339 20283 55001"
"11467","MAF","2002-04-25 00:53:00",-102.2075,31.9466,75.92,39.92,27.37,80,23,NA,30.03,1013,7,30,"CLR","   ","   ",NA,NA,NA,NA,NA,"BLDU",NA,NA,NA,34,80,"2002-04-25 00:10",74.5,"METAR KMAF 250053Z 08023G30KT 7SM BLDU CLR 24/04 A3003 RMK AO2 PK WND 08034/0010 SLP130 T02440044"
"12109","MAF","2002-05-21 18:53:00",-102.2075,31.9466,75.92,55.94,49.95,150,23,NA,30.04,1013.2,6,29,"CLR","   ","   ",NA,NA,NA,NA,NA,"BLDU",NA,NA,NA,29,160,"2002-05-21 18:46",75.92,"METAR KMAF 211853Z COR 15023G29KT 6SM BLDU CLR 24/13 A3004 RMK AO2 PK WND 16029/1846 SLP132 T02440133"
"12307","MAF","2002-05-30 00:53:00",-102.2075,31.9466,82.04,50,32.84,50,31,NA,29.91,1008.3,1.25,45,"SCT","BKN","   ",NA,3000,15000,NA,NA,"-TSRA BLDU",NA,NA,NA,45,30,"2002-05-30 00:48",80.75,"METAR KMAF 300053Z 05031G45KT 1 1/4SM -TSRA BLDU SCT030 BKN150 28/10 A2991 RMK AO2 PK WND 03045/0048 TSB24RAB44 SLP083 P0000 T02780100"
"12451","MAF","2002-06-05 00:53:00",-102.2075,31.9466,84.02,65.3,53.42,160,23,NA,29.78,1003.4,6,31,"CLR","   ","   ",NA,NA,NA,NA,NA,"BLDU",NA,NA,NA,31,170,"2002-06-05 00:49",85.91,"METAR KMAF 050053Z COR 16023G31KT 6SM BLDU CLR 29/19 A2978 RMK AO2 PK WND 17031/0049 SLP034 T02890185 $"
"14126","MAF","2002-08-14 00:53:00",-102.2075,31.9466,78.98,69.08,71.72,260,27,NA,29.88,1007,5,32,"BKN","BKN","   ",NA,10000,11000,NA,NA,"TS BLDU",NA,NA,NA,32,250,"2002-08-14 00:52",81.52,"METAR KMAF 140053Z 26027G32KT 5SM TS BLDU BKN100 BKN110 26/21 A2988 RMK AO2 PK WND 25032/0052 TSB31 SLP070 T02610206"
"14494","MAF","2002-08-29 09:53:00",-102.2075,31.9466,80.06,62.06,54.23,30,20,NA,30.13,1014.6,9,27,"CLR","   ","   ",NA,NA,NA,NA,NA,"BLDU",NA,NA,NA,30,30,"2002-08-29 09:32",81.27,"METAR KMAF 290953Z 03020G27KT 9SM BLDU CLR 27/17 A3013 RMK AO2 PK WND 03030/0932 WSHFT 0926 SLP146 T02670167"
"14495","MAF","2002-08-29 10:53:00",-102.2075,31.9466,69.98,60.98,73.11,70,23,NA,30.15,1015.7,7,29,"FEW","   ","   ",NA,700,NA,NA,NA,"BLDU",NA,NA,NA,33,60,"2002-08-29 10:23",69.98,"METAR KMAF 291053Z 07023G29KT 7SM BLDU FEW007 21/16 A3015 RMK AO2 PK WND 06033/1023 SLP157 T02110161"
"19973","MAF","2003-04-16 00:53:00",-102.2075,31.9466,78.08,24.98,13.97,290,28,NA,29.74,1002.8,0.75,40,"VV ","   ","   ",NA,600,NA,NA,NA,"DS",NA,NA,NA,42,280,"2003-04-16 00:34",76.24,"METAR KMAF 160053Z 29028G40KT 3/4SM DS VV006 26/M04 A2974 RMK AO2 PK WND 28042/0034 WSHFT 0004 SLP028 T02561039 $"
"19974","MAF","2003-04-16 01:53:00",-102.2075,31.9466,71.96,17.96,12.73,280,24,NA,29.79,1004.8,4,35,"VV ","   ","   ",NA,1900,NA,NA,NA,"DS",NA,NA,NA,42,300,"2003-04-16 01:00",69.45,"METAR KMAF 160153Z 28024G35KT 4SM DS VV019 22/M08 A2979 RMK AO2 PK WND 30042/0100 SLP048 T02221078"
"21132","MAF","2003-06-04 01:53:00",-102.2075,31.9466,73.4,62.6,68.94,50,14,NA,29.81,NA,0.25,NA,"VV ","   ","   ",NA,100,NA,NA,NA,"BLDU",NA,NA,NA,NA,NA,NA,73.4,"METAR KMAF 040153Z 05014KT 1/4SM BLDU VV001 23/17 A2981"
"21133","MAF","2003-06-04 02:53:00",-102.2075,31.9466,71.96,62.96,73.3,80,16,NA,29.8,1004.6,8,NA,"BKN","BKN","   ",NA,3100,4100,NA,NA,"BLDU",NA,NA,NA,27,60,"2003-06-04 02:34",71.96,"METAR KMAF 040253Z 08016KT 8SM BLDU BKN031 BKN041 22/17 A2980 RMK AO2 PK WND 06027/0234 PRESFR SLP046 T02220172 53022"
"21134","MAF","2003-06-04 03:53:00",-102.2075,31.9466,73.04,60.08,63.83,100,15,NA,29.83,1005.2,10,NA,"CLR","   ","   ",NA,NA,NA,NA,NA,"BLDU",NA,NA,NA,30,90,"2003-06-04 03:18",73.04,"METAR KMAF 040353Z 10015KT 10SM BLDU CLR 23/16 A2983 RMK AO2 PK WND 09030/0318 SLP052 T02280156"
"25637","MAF","2003-12-09 20:53:00",-102.2075,31.9466,50,19.94,30.21,340,18,NA,30.09,1017.1,3,29,"CLR","   ","   ",NA,NA,NA,NA,NA,"BLDU",NA,NA,NA,31,340,"2003-12-09 20:39",43.44,"METAR KMAF 092053Z 34018G29KT 3SM BLDU CLR 10/M07 A3009 RMK AO2 PK WND 34031/2039 SLP171 T01001067 53000"
"25638","MAF","2003-12-09 21:53:00",-102.2075,31.9466,48.92,19.04,30.27,350,18,NA,30.09,1017.2,3,25,"CLR","   ","   ",NA,NA,NA,NA,NA,"BLDU",NA,NA,NA,30,340,"2003-12-09 21:26",42.02,"METAR KMAF 092153Z 35018G25KT 3SM BLDU CLR 09/M07 A3009 RMK AO2 PK WND 34030/2126 SLP172 T00941072"
"25639","MAF","2003-12-09 22:53:00",-102.2075,31.9466,48.02,19.04,31.3,350,19,NA,30.12,1018.4,6,22,"CLR","   ","   ",NA,NA,NA,NA,NA,"BLDU",NA,NA,NA,29,360,"2003-12-09 21:57",40.62,"METAR KMAF 092253Z 35019G22KT 6SM BLDU CLR 09/M07 A3012 RMK AO2 PK WND 36029/2157 SLP184 T00891072"
"25640","MAF","2003-12-09 23:53:00",-102.2075,31.9466,46.04,17.96,32.2,350,9,NA,30.14,1019.2,10,NA,"CLR","   ","   ",NA,NA,NA,NA,NA,"BLDU",NA,NA,NA,NA,NA,NA,40.97,"METAR KMAF 092353Z 35009KT 10SM BLDU CLR 08/M08 A3014 RMK AO2 SLP192 T00781078 10100 20072 53014"
"25776","MAF","2003-12-15 15:53:00",-102.2075,31.9466,66.92,19.04,15.85,260,22,NA,29.79,1005.8,10,34,"CLR","   ","   ",NA,NA,NA,NA,NA,"BLDU",NA,NA,NA,NA,NA,NA,66.92,"METAR KMAF 151553Z COR 26022G34KT 10SM BLDU CLR 19/M07 A2979 RMK AO2 PK WND 26034/1549 SLP058 T01941072"
"25777","MAF","2003-12-15 16:53:00",-102.2075,31.9466,68,23,18.06,260,34,NA,29.8,1006.3,0.5,45,"CLR","   ","   ",NA,NA,NA,NA,NA,"HZ BLDU",NA,NA,NA,NA,NA,NA,68,"METAR KMAF 151653Z 26034G45KT 1/2SM HZ BLDU CLR 20/M05 A2980 RMK AO2 PK WND 27045/1651 SLP063 T02001050"
"25778","MAF","2003-12-15 17:53:00",-102.2075,31.9466,66.92,48.02,50.62,270,30,NA,29.81,1006.7,0.75,41,"VV ","   ","   ",NA,800,NA,NA,NA,"HZ BLDU",NA,NA,NA,NA,NA,NA,66.92,"METAR KMAF 151753Z 27030G41KT 3/4SM HZ BLDU VV008 19/09 A2981 RMK AO2 PK WND 27042/1713 SLP067 T01940089 10206 20083 51016"
"25779","MAF","2003-12-15 18:53:00",-102.2075,31.9466,66.02,66.02,100,260,29,NA,29.8,1006.4,1.25,35,"VV ","   ","   ",NA,800,NA,NA,NA,"BLDU",NA,NA,NA,NA,NA,NA,66.02,"METAR KMAF 151853Z 26029G35KT 1 1/4SM BLDU VV008 19/19 A2980 RMK AO2 PK WND 26040/1816 SLP064 T01890189"
"25780","MAF","2003-12-15 19:53:00",-102.2075,31.9466,66.02,66.02,100,270,35,NA,29.78,1005.6,1.25,41,"FEW","   ","   ",NA,400,NA,NA,NA,"BLDU",NA,NA,NA,NA,NA,NA,66.02,"METAR KMAF 151953Z 27035G41KT 1 1/4SM BLDU FEW004 19/19 A2978 RMK AO2 PK WND 28041/1953 VIS 1/4V5 SLP056 T01890189"
"25781","MAF","2003-12-15 20:53:00",-102.2075,31.9466,66.02,NA,NA,280,30,NA,29.79,1006,1,37,"VV ","   ","   ",NA,1000,NA,NA,NA,"BLDU",NA,NA,NA,NA,NA,NA,NA,"METAR KMAF 152053Z 28030G37KT 1SM BLDU VV010 19/ A2979 RMK AO2 PK WND 28038/2041 SLP060 T0189 55006 $"
"25782","MAF","2003-12-15 21:53:00",-102.2075,31.9466,62.96,NA,NA,290,24,NA,29.81,1007,5,32,"CLR","   ","   ",NA,NA,NA,NA,NA,"BLDU",NA,NA,NA,NA,NA,NA,NA,"METAR KMAF 152153Z 29024G32KT 5SM BLDU CLR 17/ A2981 RMK AO2 PK WND 28042/2054 SLP070 T0172 $"
"25783","MAF","2003-12-15 22:53:00",-102.2075,31.9466,NA,NA,NA,310,18,NA,29.86,NA,10,25,"CLR","   ","   ",NA,NA,NA,NA,NA,"BLDU",NA,NA,NA,NA,NA,NA,NA,"METAR KMAF 152253Z 31018G25KT 10SM BLDU CLR A2986 RMK AO2 PK WND 29033/2202 SLPNO $"
"25784","MAF","2003-12-15 23:53:00",-102.2075,31.9466,53.96,-7.06,7.64,330,21,NA,29.92,1011.3,7,29,"CLR","   ","   ",NA,NA,NA,NA,NA,"BLDU",NA,NA,NA,NA,NA,NA,53.96,"METAR KMAF 152353Z 33021G29KT 7SM BLDU CLR 12/M22 A2992 RMK AO2 PK WND 32031/2304 SLP113 T01221217 53041"
"25949","MAF","2003-12-22 20:53:00",-102.2075,31.9466,59,42.98,55.24,330,19,NA,30.02,1014.2,6,26,"CLR","   ","   ",NA,NA,NA,NA,NA,"BLDU",NA,NA,NA,30,340,"2003-12-22 20:16",59,"METAR KMAF 222053Z 33019G26KT 6SM BLDU CLR 15/06 A3002 RMK AO2 PK WND 34030/2016 SLP142 T01500061 53002"
"25950","MAF","2003-12-22 21:53:00",-102.2075,31.9466,57.02,48.02,71.81,360,18,NA,30.04,1015,4,NA,"CLR","   ","   ",NA,NA,NA,NA,NA,"BLDU",NA,NA,NA,26,340,"2003-12-22 21:05",57.02,"METAR KMAF 222153Z 36018KT 4SM BLDU CLR 14/09 A3004 RMK AO2 PK WND 34026/2105 SLP150 T01390089"
"25951","MAF","2003-12-22 22:53:00",-102.2075,31.9466,53.96,50,86.41,360,16,NA,30.08,1016.7,5,NA,"CLR","   ","   ",NA,NA,NA,NA,NA,"BLDU",NA,NA,NA,NA,NA,NA,53.96,"METAR KMAF 222253Z 36016KT 5SM BLDU CLR 12/10 A3008 RMK AO2 SLP167 T01220100"
"25952","MAF","2003-12-22 23:53:00",-102.2075,31.9466,50,48.92,96.05,360,17,NA,30.1,1017.6,6,23,"CLR","   ","   ",NA,NA,NA,NA,NA,"BLDU",NA,NA,NA,NA,NA,NA,43.66,"METAR KMAF 222353Z 36017G23KT 6SM BLDU CLR 10/09 A3010 RMK AO2 SLP176 T01000094 10183 20100 51026"
"26969","MAF","2004-02-03 20:53:00",-102.2075,31.9466,51.98,24.08,33.44,150,27,NA,29.91,1011.6,4,36,"CLR","   ","   ",NA,NA,NA,NA,NA,"BLDU",NA,NA,NA,36,150,"2004-02-03 20:49",51.98,"METAR KMAF 032053Z 15027G36KT 4SM BLDU CLR 11/M04 A2991 RMK AO2 PK WND 15036/2049 SLP116 6//// T01111044 56048"
"26970","MAF","2004-02-03 21:53:00",-102.2075,31.9466,51.08,24.08,34.57,160,27,NA,29.92,1012.1,4,33,"CLR","   ","   ",NA,NA,NA,NA,NA,"BLDU",NA,NA,NA,36,160,"2004-02-03 20:57",51.08,"METAR KMAF 032153Z 16027G33KT 4SM BLDU CLR 11/M04 A2992 RMK AO2 PK WND 16036/2057 SLP121 T01061044"
"26971","MAF","2004-02-03 22:53:00",-102.2075,31.9466,48.92,21.92,34.21,150,25,NA,29.88,1010.9,4,39,"CLR","   ","   ",NA,NA,NA,NA,NA,"BLDU",NA,NA,NA,39,140,"2004-02-03 22:49",40.72,"METAR KMAF 032253Z 15025G39KT 4SM BLDU CLR 09/M06 A2988 RMK AO2 PK WND 14039/2249 SLP109 T00941056"
"27353","MAF","2004-02-19 20:53:00",-102.2075,31.9466,75.92,15.08,9.84,270,29,NA,29.7,1002.1,1.5,36,"FEW","   ","   ",NA,1500,NA,NA,NA,"BLDU",NA,NA,NA,36,280,"2004-02-19 20:52",73.67,"METAR KMAF 192053Z COR 27029G36KT 11/2SM BLDU FEW015 24/M09 A2970 RMK AO2 PK WND 28036/2052 SLP021 T02441094 56019"
"27354","MAF","2004-02-19 21:53:00",-102.2075,31.9466,75.02,5,6.46,270,31,NA,29.71,1002.5,1.5,39,"OVC","   ","   ",NA,900,NA,NA,NA,"BLDU",NA,NA,NA,40,270,"2004-02-19 21:10",72.53,"METAR KMAF 192153Z 27031G39KT 1 1/2SM BLDU OVC009 24/M15 A2971 RMK AO2 PK WND 27040/2110 SLP025 T02391150"
"27355","MAF","2004-02-19 22:53:00",-102.2075,31.9466,73.04,8.06,7.94,280,24,NA,29.71,1002.7,5,34,"CLR","   ","   ",NA,NA,NA,NA,NA,"BLDU",NA,NA,NA,40,270,"2004-02-19 22:43",70.42,"METAR KMAF 192253Z 28024G34KT 5SM BLDU CLR 23/M13 A2971 RMK AO2 PK WND 27040/2243 SLP027 T02281133"
"27356","MAF","2004-02-19 23:53:00",-102.2075,31.9466,71.06,10.94,9.65,270,21,NA,29.72,1003.4,6,29,"CLR","   ","   ",NA,NA,NA,NA,NA,"BLDU",NA,NA,NA,35,270,"2004-02-19 23:07",68.32,"METAR KMAF 192353Z 27021G29KT 6SM BLDU CLR 22/M12 A2972 RMK AO2 PK WND 27035/2307 SLP034 T02171117 10261 20217 53008"
"27357","MAF","2004-02-20 00:53:00",-102.2075,31.9466,64.94,14,13.64,270,10,NA,29.74,1004.3,7,NA,"CLR","   ","   ",NA,NA,NA,NA,NA,"BLDU",NA,NA,NA,28,260,"2004-02-19 23:55",64.94,"METAR KMAF 200053Z 27010KT 7SM BLDU CLR 18/M10 A2974 RMK AO2 PK WND 26028/2355 SLP043 T01831100"
"27358","MAF","2004-02-20 01:53:00",-102.2075,31.9466,60.98,15.08,16.44,270,10,NA,29.75,1004.9,7,NA,"CLR","   ","   ",NA,NA,NA,NA,NA,"BLDU",NA,NA,NA,NA,NA,NA,60.98,"METAR KMAF 200153Z 27010KT 7SM BLDU CLR 16/M09 A2975 RMK AO2 SLP049 T01611094"
"27359","MAF","2004-02-20 02:53:00",-102.2075,31.9466,57.02,15.98,19.7,300,8,NA,29.77,1005.8,7,NA,"CLR","   ","   ",NA,NA,NA,NA,NA,"BLDU",NA,NA,NA,NA,NA,NA,57.02,"METAR KMAF 200253Z 30008KT 7SM BLDU CLR 14/M09 A2977 RMK AO2 SLP058 T01391089 53016"
"27360","MAF","2004-02-20 03:53:00",-102.2075,31.9466,55.94,17.06,21.47,300,8,NA,29.8,1006.2,7,NA,"CLR","   ","   ",NA,NA,NA,NA,NA,"BLDU",NA,NA,NA,NA,NA,NA,55.94,"METAR KMAF 200353Z 30008KT 7SM BLDU CLR 13/M08 A2980 RMK AO2 SLP062 T01331083"
"27361","MAF","2004-02-20 04:53:00",-102.2075,31.9466,57.92,15.98,19.07,300,11,NA,29.82,1006.5,6,NA,"CLR","   ","   ",NA,NA,NA,NA,NA,"BLDU",NA,NA,NA,NA,NA,NA,57.92,"METAR KMAF 200453Z 30011KT 6SM BLDU CLR 14/M09 A2982 RMK AO2 SLP065 T01441089"
"27362","MAF","2004-02-20 05:53:00",-102.2075,31.9466,53.06,17.96,24.79,300,8,NA,29.84,1007.2,7,NA,"CLR","   ","   ",NA,NA,NA,NA,NA,"BLDU",NA,NA,NA,NA,NA,NA,53.06,"METAR KMAF 200553Z 30008KT 7SM BLDU CLR 12/M08 A2984 RMK AO2 SLP072 T01171078 10217 20111 402610094 51021"
"27363","MAF","2004-02-20 06:53:00",-102.2075,31.9466,46.94,19.04,32.6,280,6,NA,29.86,1007.9,7,NA,"CLR","   ","   ",NA,NA,NA,NA,NA,"BLDU",NA,NA,NA,NA,NA,NA,43.52,"METAR KMAF 200653Z AUTO 28006KT 7SM BLDU CLR 08/M07 A2986 RMK AO2 SLP079 T00831072"
"27364","MAF","2004-02-20 07:53:00",-102.2075,31.9466,46.04,19.94,35.05,320,7,NA,29.89,1009.1,9,NA,"CLR","   ","   ",NA,NA,NA,NA,NA,"BLDU",NA,NA,NA,NA,NA,NA,41.89,"METAR KMAF 200753Z AUTO 32007KT 9SM BLDU CLR 08/M07 A2989 RMK AO2 SLP091 T00781067"
"27365","MAF","2004-02-20 08:53:00",-102.2075,31.9466,44.96,24.08,43.49,10,3,NA,29.91,1009.8,10,NA,"CLR","   ","   ",NA,NA,NA,NA,NA,"BLDU",NA,NA,NA,NA,NA,NA,43.5,"METAR KMAF 200853Z AUTO 01003KT 10SM BLDU CLR 07/M04 A2991 RMK AO2 SLP098 T00721044 53022"
"27366","MAF","2004-02-20 09:53:00",-102.2075,31.9466,42.08,26.06,52.73,310,3,NA,29.91,1010.2,10,NA,"CLR","   ","   ",NA,NA,NA,NA,NA,"BLDU",NA,NA,NA,NA,NA,NA,40.21,"METAR KMAF 200953Z AUTO 31003KT 10SM BLDU CLR 06/M03 A2991 RMK AO2 SLP102 T00561033"
"27367","MAF","2004-02-20 10:53:00",-102.2075,31.9466,37.94,24.98,59.22,340,5,NA,29.91,1010.5,10,NA,"CLR","   ","   ",NA,NA,NA,NA,NA,"BLDU",NA,NA,NA,NA,NA,NA,33.45,"METAR KMAF 201053Z AUTO 34005KT 10SM BLDU CLR 03/M04 A2991 RMK AO2 SLP105 T00331039"
"29372","MAF","2004-05-14 01:53:00",-102.2075,31.9466,69.08,48.02,46.99,60,18,NA,29.89,1008.2,10,27,"CLR","   ","   ",NA,NA,NA,NA,NA,"BLDU",NA,NA,NA,32,70,"2004-05-14 01:19",69.08,"METAR KMAF 140153Z 06018G27KT 10SM BLDU CLR 21/09 A2989 RMK AO2 PK WND 07032/0119 WSHFT 0055 SLP082 T02060089"
"29373","MAF","2004-05-14 02:53:00",-102.2075,31.9466,66.02,46.94,50.14,70,15,NA,29.94,1009.6,10,NA,"CLR","   ","   ",NA,NA,NA,NA,NA,"BLDU",NA,NA,NA,NA,NA,NA,66.02,"METAR KMAF 140253Z 07015KT 10SM BLDU CLR 19/08 A2994 RMK AO2 SLP096 T01890083 53033"
"43889","MAF","2006-01-16 23:53:00",-102.2075,31.9466,51.98,21.92,30.53,350,22,NA,29.83,1008,3,28,"   ","   ","   ",NA,NA,NA,NA,NA,"BLDU",NA,NA,NA,NA,NA,NA,51.98,"METAR KMAF 162353Z COR 35022G28KT 3SM BLDU 11/M06 A2983 RMK AO2 PK WND 34029/2320 PRESRR SLP080 T01111056 10161 20111 53033"
"43890","MAF","2006-01-17 00:53:00",-102.2075,31.9466,46.94,26.06,43.81,360,20,NA,29.89,1010.5,10,25,"CLR","   ","   ",NA,NA,NA,NA,NA,"BLDU",NA,NA,NA,30,20,"2006-01-17 00:04",38.98,"METAR KMAF 170053Z 36020G25KT 10SM BLDU CLR 08/M03 A2989 RMK AO2 PK WND 02030/0004 SLP105 T00831033"
"45818","MAF","2006-04-08 01:53:00",-102.2075,31.9466,66.92,30.92,25.99,30,14,NA,29.98,1012.2,8,NA,"CLR","   ","   ",NA,NA,NA,NA,NA,"BLDU",NA,NA,NA,26,40,"2006-04-08 00:59",66.92,"METAR KMAF 080153Z 03014KT 8SM BLDU CLR 19/M01 A2998 RMK AO2 PK WND 04026/0059 SLP122 T01941006"
"45819","MAF","2006-04-08 02:53:00",-102.2075,31.9466,62.06,33.08,33.6,20,20,NA,30.05,1014.5,8,26,"CLR","   ","   ",NA,NA,NA,NA,NA,"BLDU",NA,NA,NA,33,20,"2006-04-08 02:02",62.06,"METAR KMAF 080253Z 02020G26KT 8SM BLDU CLR 17/01 A3005 RMK AO2 PK WND 02033/0202 SLP145 T01670006 53045"
"45820","MAF","2006-04-08 03:53:00",-102.2075,31.9466,55.94,33.08,41.82,10,22,NA,30.1,1016.4,10,32,"CLR","   ","   ",NA,NA,NA,NA,NA,"BLDU",NA,NA,NA,33,20,"2006-04-08 03:16",55.94,"METAR KMAF 080353Z 01022G32KT 10SM BLDU CLR 13/01 A3010 RMK AO2 PK WND 02033/0316 SLP164 T01330006"
"45821","MAF","2006-04-08 04:53:00",-102.2075,31.9466,53.06,33.08,46.46,20,17,NA,30.13,1017.3,10,22,"CLR","   ","   ",NA,NA,NA,NA,NA,"BLDU",NA,NA,NA,32,20,"2006-04-08 04:14",53.06,"METAR KMAF 080453Z 02017G22KT 10SM BLDU CLR 12/01 A3013 RMK AO2 PK WND 02032/0414 SLP173 T01170006"
"45822","MAF","2006-04-08 05:53:00",-102.2075,31.9466,51.08,33.08,49.97,20,15,NA,30.14,1017.7,10,NA,"CLR","   ","   ",NA,NA,NA,NA,NA,"BLDU",NA,NA,NA,NA,NA,NA,51.08,"METAR KMAF 080553Z 02015KT 10SM BLDU CLR 11/01 A3014 RMK AO2 SLP177 T01060006 10250 20106 402610083 51029"
"45823","MAF","2006-04-08 06:53:00",-102.2075,31.9466,48.92,33.08,54.15,10,9,NA,30.15,1018.1,10,NA,"CLR","   ","   ",NA,NA,NA,NA,NA,"BLDU",NA,NA,NA,NA,NA,NA,44.55,"METAR KMAF 080653Z 01009KT 10SM BLDU CLR 09/01 A3015 RMK AO2 SLP181 T00940006"
"45824","MAF","2006-04-08 07:53:00",-102.2075,31.9466,46.94,33.98,60.47,10,10,NA,30.15,1018.2,10,NA,"CLR","   ","   ",NA,NA,NA,NA,NA,"BLDU",NA,NA,NA,NA,NA,NA,41.7,"METAR KMAF 080753Z 01010KT 10SM BLDU CLR 08/01 A3015 RMK AO2 SLP182 T00830011"
"45825","MAF","2006-04-08 08:53:00",-102.2075,31.9466,44.96,33.08,62.87,360,6,NA,30.17,1018.7,10,NA,"CLR","   ","   ",NA,NA,NA,NA,NA,"BLDU",NA,NA,NA,NA,NA,NA,41.14,"METAR KMAF 080853Z 36006KT 10SM BLDU CLR 07/01 A3017 RMK AO2 SLP187 T00720006 53007"
"45826","MAF","2006-04-08 09:53:00",-102.2075,31.9466,42.98,33.08,67.81,280,7,NA,30.2,1019.7,10,NA,"CLR","   ","   ",NA,NA,NA,NA,NA,"BLDU",NA,NA,NA,NA,NA,NA,38.16,"METAR KMAF 080953Z 28007KT 10SM BLDU CLR 06/01 A3020 RMK AO2 SLP197 T00610006"
"45827","MAF","2006-04-08 10:53:00",-102.2075,31.9466,42.08,33.08,70.2,300,7,NA,30.21,1020.3,10,NA,"CLR","   ","   ",NA,NA,NA,NA,NA,"BLDU",NA,NA,NA,NA,NA,NA,37.07,"METAR KMAF 081053Z 30007KT 10SM BLDU CLR 06/01 A3021 RMK AO2 SLP203 T00560006"
"45828","MAF","2006-04-08 11:53:00",-102.2075,31.9466,41,33.08,73.19,300,6,NA,30.23,1021.2,10,NA,"CLR","   ","   ",NA,NA,NA,NA,NA,"BLDU",NA,NA,NA,NA,NA,NA,36.37,"METAR KMAF 081153Z 30006KT 10SM BLDU CLR 05/01 A3023 RMK AO2 SLP212 T00500006 10106 20050 51019"
"45829","MAF","2006-04-08 12:53:00",-102.2075,31.9466,42.08,33.08,70.2,320,8,NA,30.26,1022.5,10,NA,"CLR","   ","   ",NA,NA,NA,NA,NA,"BLDU",NA,NA,NA,NA,NA,NA,36.53,"METAR KMAF 081253Z 32008KT 10SM BLDU CLR 06/01 A3026 RMK AO2 SLP225 T00560006"
"47600","MAF","2006-06-23 00:53:00",-102.2075,31.9466,77,62.96,61.91,60,22,NA,30.07,1014,5,31,"FEW","SCT","   ",NA,2100,9000,NA,NA,"BLDU",NA,NA,NA,37,50,"2006-06-23 00:34",77,"METAR KMAF 230053Z 06022G31KT 5SM BLDU FEW021 SCT090 25/17 A3007 RMK AO2 PK WND 05037/0034 WSHFT 0029 LTG DSNT NE SLP140 T02500172"
"47601","MAF","2006-06-23 01:53:00",-102.2075,31.9466,75.92,64.04,66.65,70,21,NA,30.1,1014.7,10,25,"CLR","   ","   ",NA,NA,NA,NA,NA,"BLDU",NA,NA,NA,29,60,"2006-06-23 01:32",75.92,"METAR KMAF 230153Z 07021G25KT 10SM BLDU CLR 24/18 A3010 RMK AO2 PK WND 06029/0132 LTG DSNT E SLP147 T02440178"
"47602","MAF","2006-06-23 02:53:00",-102.2075,31.9466,75.02,62.06,64.07,70,17,NA,30.12,1015.6,10,NA,"FEW","   ","   ",NA,11000,NA,NA,NA,"BLDU",NA,NA,NA,29,70,"2006-06-23 02:25",75.02,"METAR KMAF 230253Z 07017KT 10SM BLDU FEW110 24/17 A3012 RMK AO2 PK WND 07029/0225 LTG DSNT E SLP156 T02390167 51033"
"70365","MAF","2009-02-10 22:53:00",-102.2075,31.9466,51.98,19.94,28.07,280,34,NA,29.72,1004.5,4,45,"CLR","   ","   ",NA,NA,NA,NA,NA,"BLDU",NA,NA,NA,NA,NA,NA,51.98,"METAR KMAF 102253Z 28034G45KT 4SM BLDU CLR 11/M07 A2972 RMK AO2 PK WND 29049/2201 SLP045 T01111067"
"77482","MAF","2009-12-08 21:53:00",-102.2075,31.9466,66.92,28.94,23.98,260,37,NA,29.6,1000.4,4,51,"CLR","   ","   ",NA,NA,NA,NA,NA,"BLDU",NA,NA,NA,55,260,"2009-12-08 21:38",66.92,"METAR KMAF 082153Z 26037G51KT 4SM BLDU CLR 19/M02 A2960 RMK AO2 PK WND 26055/2138 SLP004 T01941017"
"77483","MAF","2009-12-08 22:53:00",-102.2075,31.9466,62.96,33.98,33.75,270,29,NA,29.65,1002.3,8,39,"CLR","   ","   ",NA,NA,NA,NA,NA,"BLDU",NA,NA,NA,52,270,"2009-12-08 22:09",62.96,"METAR KMAF 082253Z 27029G39KT 8SM BLDU CLR 17/01 A2965 RMK AO2 PK WND 27052/2209 SLP023 T01720011"
"77484","MAF","2009-12-08 23:53:00",-102.2075,31.9466,60.08,30.92,33.04,280,26,NA,29.68,1003.5,10,37,"CLR","   ","   ",NA,NA,NA,NA,NA,"BLDU",NA,NA,NA,43,260,"2009-12-08 23:16",60.08,"METAR KMAF 082353Z 28026G37KT 10SM BLDU CLR 16/M01 A2968 RMK AO2 PK WND 26043/2316 SLP035 T01561006 10206 20072 51037"
"77485","MAF","2009-12-09 00:53:00",-102.2075,31.9466,55.94,32,40.05,260,17,NA,29.71,1004.8,10,23,"CLR","   ","   ",NA,NA,NA,NA,NA,"BLDU",NA,NA,NA,NA,NA,NA,55.94,"METAR KMAF 090053Z 26017G23KT 10SM BLDU CLR 13/00 A2971 RMK AO2 PK WND 27039/0005 SLP048 T01330000"
"86073","MAF","2010-10-25 16:53:00",-102.2075,31.9466,80.06,35.06,19.72,250,25,NA,29.62,998.7,7,33,"CLR","   ","   ",NA,NA,NA,NA,NA,"BLDU",NA,NA,NA,36,250,"2010-10-25 16:22",78.69,"KMAF 251653Z 25025G33KT 7SM BLDU CLR 27/02 A2962 RMK AO2 PK WND 25036/1622 SLP987 T02670017"
"86074","MAF","2010-10-25 17:53:00",-102.2075,31.9466,82.04,35.96,19.16,250,32,NA,29.61,998.1,7,37,"CLR","   ","   ",NA,NA,NA,NA,NA,"BLDU",NA,NA,NA,38,260,"2010-10-25 17:43",79.86,"KMAF 251753Z 25032G37KT 7SM BLDU CLR 28/02 A2961 RMK AO2 PK WND 26038/1743 SLP981 T02780022 10283 20167 56018"
"86075","MAF","2010-10-25 18:53:00",-102.2075,31.9466,82.94,35.96,18.61,240,29,NA,29.56,996.7,7,37,"CLR","   ","   ",NA,NA,NA,NA,NA,"BLDU",NA,NA,NA,43,240,"2010-10-25 18:29",80.46,"KMAF 251853Z 24029G37KT 7SM BLDU CLR 28/02 A2956 RMK AO2 PK WND 24043/1829 SLP967 T02830022"
"86076","MAF","2010-10-25 19:53:00",-102.2075,31.9466,84.02,35.06,17.34,240,30,NA,29.52,995.4,10,37,"CLR","   ","   ",NA,NA,NA,NA,NA,"BLDU",NA,NA,NA,43,230,"2010-10-25 19:34",81.19,"KMAF 251953Z 24030G37KT 10SM BLDU CLR 29/02 A2952 RMK AO2 PK WND 23043/1934 SLP954 T02890017"
"86077","MAF","2010-10-25 20:53:00",-102.2075,31.9466,84.92,35.06,16.85,240,27,NA,29.5,994.7,10,33,"CLR","   ","   ",NA,NA,NA,NA,NA,"BLDU",NA,NA,NA,45,260,"2010-10-25 20:14",81.86,"KMAF 252053Z 24027G33KT 10SM BLDU CLR 29/02 A2950 RMK AO2 PK WND 26045/2014 SLP947 T02940017 56032"
"86078","MAF","2010-10-25 21:53:00",-102.2075,31.9466,84.02,32,15.34,250,29,NA,29.5,994.6,10,36,"CLR","   ","   ",NA,NA,NA,NA,NA,"BLDU",NA,NA,NA,36,260,"2010-10-25 21:52",81.14,"KMAF 252153Z 25029G36KT 10SM BLDU CLR 29/00 A2950 RMK AO2 PK WND 26036/2152 SLP946 T02890000"
"86079","MAF","2010-10-25 22:53:00",-102.2075,31.9466,82.94,33.08,16.59,250,21,NA,29.5,994.6,10,28,"CLR","   ","   ",NA,NA,NA,NA,NA,"BLDU",NA,NA,NA,36,250,"2010-10-25 22:21",80.39,"KMAF 252253Z 25021G28KT 10SM BLDU CLR 28/01 A2950 RMK AO2 PK WND 25036/2221 SLP946 T02830006"
"86080","MAF","2010-10-25 23:53:00",-102.2075,31.9466,80.06,33.98,18.89,240,14,NA,29.5,994.5,10,17,"CLR","   ","   ",NA,NA,NA,NA,NA,"BLDU",NA,NA,NA,NA,NA,NA,78.65,"KMAF 252353Z 24014G17KT 10SM BLDU CLR 27/01 A2950 RMK AO2 SLP945 T02670011 10300 20267 56002"
"86475","MAF","2010-11-11 14:18:00",-102.2075,31.9466,55.4,50,81.99,170,10,NA,30.05,NA,5,-99,"OVC","   ","   ",NA,1400,NA,NA,NA,"HZ BLDU",NA,NA,NA,NA,NA,NA,55.4,"KMAF 111418Z 17010KT 5SM HZ BLDU OVC014 13/10 A3005 RMK AO2 $"
"86476","MAF","2010-11-11 15:00:00",-102.2075,31.9466,57.2,51.8,82.12,160,10,NA,30.05,NA,10,-99,"OVC","   ","   ",NA,1700,NA,NA,NA,"BLDU",NA,NA,NA,NA,NA,NA,57.2,"KMAF 111500Z 16010KT 10SM BLDU OVC017 14/11 A3005 RMK AO2 $"
"86504","MAF","2010-11-12 14:48:00",-102.2075,31.9466,48.2,37.4,66.05,340,21,NA,30.21,NA,10,29,"BKN","   ","   ",NA,3000,NA,NA,NA,"BLDU",NA,NA,NA,32,340,"2010-11-12 14:34",40.46,"KMAF 121448Z 34021G29KT 10SM BLDU BKN030 09/03 A3021 RMK AO2 PK WND 34032/1434"
"86505","MAF","2010-11-12 14:53:00",-102.2075,31.9466,48.02,37.04,65.56,340,21,NA,30.21,1021.1,10,28,"BKN","   ","   ",NA,3000,NA,NA,NA,"BLDU",NA,NA,NA,32,340,"2010-11-12 14:34",40.22,"KMAF 121453Z 34021G28KT 10SM BLDU BKN030 09/03 A3021 RMK AO2 PK WND 34032/1434 SLP211 T00890028 51046"
"86583","MAF","2010-11-15 19:53:00",-102.2075,31.9466,66.92,21.02,17.24,280,24,NA,29.65,1001.3,10,33,"CLR","   ","   ",NA,NA,NA,NA,NA,"BLDU",NA,NA,NA,33,280,"2010-11-15 19:51",66.92,"KMAF 151953Z 28024G33KT 10SM BLDU CLR 19/M06 A2965 RMK AO2 PK WND 28033/1951 SLP013 T01941061"
"86584","MAF","2010-11-15 20:53:00",-102.2075,31.9466,66.92,19.94,16.47,300,18,NA,29.66,1001.6,10,34,"CLR","   ","   ",NA,NA,NA,NA,NA,"BLDU",NA,NA,NA,34,280,"2010-11-15 20:45",66.92,"KMAF 152053Z 30018G34KT 10SM BLDU CLR 19/M07 A2966 RMK AO2 PK WND 28034/2045 SLP016 T01941067 55016"
"86585","MAF","2010-11-15 21:53:00",-102.2075,31.9466,64.04,19.94,18.2,300,17,NA,29.68,1002.3,10,23,"FEW","   ","   ",NA,10000,NA,NA,NA,"BLDU",NA,NA,NA,32,310,"2010-11-15 20:59",64.04,"KMAF 152153Z 30017G23KT 10SM BLDU FEW100 18/M07 A2968 RMK AO2 PK WND 31032/2059 SLP023 T01781067"
"86629","MAF","2010-11-17 17:53:00",-102.2075,31.9466,62.06,21.92,21.22,350,22,NA,30.16,1018.8,6,34,"CLR","   ","   ",NA,NA,NA,NA,NA,"BLDU",NA,NA,NA,34,340,"2010-11-17 17:45",62.06,"KMAF 171753Z 35022G34KT 6SM BLDU CLR 17/M06 A3016 RMK AO2 PK WND 34034/1745 SLP188 T01671056 10172 20061 51036 $"
"86630","MAF","2010-11-17 18:53:00",-102.2075,31.9466,64.94,23,20.08,350,16,NA,30.16,1019.1,10,28,"CLR","   ","   ",NA,NA,NA,NA,NA,"BLDU",NA,NA,NA,32,360,"2010-11-17 17:59",64.94,"KMAF 171853Z 35016G28KT 10SM BLDU CLR 18/M05 A3016 RMK AO2 PK WND 36032/1759 SLP191 T01831050"
"86631","MAF","2010-11-17 19:53:00",-102.2075,31.9466,64.04,24.98,22.51,360,21,NA,30.16,1019.1,10,27,"CLR","   ","   ",NA,NA,NA,NA,NA,"BLDU",NA,NA,NA,29,350,"2010-11-17 19:33",64.04,"KMAF 171953Z 36021G27KT 10SM BLDU CLR 18/M04 A3016 RMK AO2 PK WND 35029/1933 SLP191 T01781039"
"86933","MAF","2010-11-29 20:19:00",-102.2075,31.9466,57.2,17.6,20.99,270,23,NA,29.8,NA,6,34,"FEW","   ","   ",NA,9000,NA,NA,NA,"HZ BLDU",NA,NA,NA,NA,NA,NA,57.2,"KMAF 292019Z 27023G34KT 6SM HZ BLDU FEW090 14/M08 A2980 RMK AO2 PK WND 28034/2016"
"86934","MAF","2010-11-29 20:53:00",-102.2075,31.9466,59,15.98,18.35,270,30,NA,29.81,1007.3,7,38,"CLR","   ","   ",NA,NA,NA,NA,NA,"BLDU",NA,NA,NA,NA,NA,NA,59,"KMAF 292053Z 27030G38KT 7SM BLDU CLR 15/M09 A2981 RMK AO2 PK WND 26038/2049 SLP073 T01501089 55018"
"86935","MAF","2010-11-29 21:53:00",-102.2075,31.9466,57.92,12.92,16.68,260,23,NA,29.83,1008.2,9,31,"CLR","   ","   ",NA,NA,NA,NA,NA,"BLDU",NA,NA,NA,NA,NA,NA,57.92,"KMAF 292153Z 26023G31KT 9SM BLDU CLR 14/M11 A2983 RMK AO2 PK WND 26040/2057 SLP082 T01441106"
"86936","MAF","2010-11-29 22:53:00",-102.2075,31.9466,55.04,-0.04,10.27,280,17,NA,29.86,1009.6,10,24,"CLR","   ","   ",NA,NA,NA,NA,NA,"BLDU",NA,NA,NA,NA,NA,NA,55.04,"KMAF 292253Z 28017G24KT 10SM BLDU CLR 13/M18 A2986 RMK AO2 PK WND 26034/2155 SLP096 T01281178"
"86937","MAF","2010-11-29 23:53:00",-102.2075,31.9466,51.08,-2.02,10.82,290,13,NA,29.89,1011.1,10,-99,"FEW","   ","   ",NA,11000,NA,NA,NA,"BLDU",NA,NA,NA,NA,NA,NA,51.08,"KMAF 292353Z 29013KT 10SM BLDU FEW110 11/M19 A2989 RMK AO2 SLP111 T01061189 10150 20106 53027"
"86938","MAF","2010-11-30 00:53:00",-102.2075,31.9466,48.02,-2.92,11.62,280,12,NA,29.94,1012.7,10,-99,"FEW","   ","   ",NA,12000,NA,NA,NA,"BLDU",NA,NA,NA,NA,NA,NA,42.39,"KMAF 300053Z 28012KT 10SM BLDU FEW120 09/M19 A2994 RMK AO2 SLP127 T00891194"
"87737","MAF","2010-12-31 02:03:00",-102.2075,31.9466,64.4,30.2,27.55,200,30,NA,29.41,NA,5,40,"FEW","   ","   ",NA,12000,NA,NA,NA,"-RA BLDU SQ",NA,NA,NA,40,190,"2010-12-31 01:55",64.4,"KMAF 310203Z 20030G40KT 5SM -RA BLDU SQ FEW120 18/M01 A2941 RMK AO2 PK WND 19040/0155 RAB0157 P0000"
"87738","MAF","2010-12-31 02:53:00",-102.2075,31.9466,64.94,21.92,19.18,220,16,NA,29.44,994.3,5,-99,"FEW","   ","   ",NA,12000,NA,NA,NA,"-RA BLDU",NA,NA,NA,40,190,"2010-12-31 01:55",64.94,"KMAF 310253Z 22016KT 5SM -RA BLDU FEW120 18/M06 A2944 RMK AO2 PK WND 19040/0155 RAB0157 PRESRR SLP943 P0000 60000 T01831056 53013"
"87739","MAF","2010-12-31 03:53:00",-102.2075,31.9466,55.94,33.08,41.82,310,25,NA,29.51,996.6,8,33,"SCT","SCT","BKN",NA,6500,10000,11000,NA,"-RA BLDU",NA,NA,NA,36,300,"2010-12-31 03:39",55.94,"KMAF 310353Z 31025G33KT 8SM -RA BLDU SCT065 SCT100 BKN110 13/01 A2951 RMK AO2 PK WND 30036/0339 SLP966 P0000 T01330006"
"87740","MAF","2010-12-31 04:53:00",-102.2075,31.9466,51.98,33.98,50.11,300,15,NA,29.56,998.2,10,21,"BKN","   ","   ",NA,11000,NA,NA,NA,"-RA BLDU",NA,NA,NA,29,300,"2010-12-31 04:09",51.98,"KMAF 310453Z 30015G21KT 10SM -RA BLDU BKN110 11/01 A2956 RMK AO2 PK WND 30029/0409 SLP982 P0000 T01110011"
"88541","MAF","2011-02-01 00:48:00",-102.2075,31.9466,53.6,30.2,40.54,50,25,NA,29.71,NA,1.5,32,"FEW","   ","   ",NA,600,NA,NA,NA,"DS",NA,NA,NA,32,50,"2011-02-01 00:48",53.6,"KMAF 010048Z 05025G32KT 1 1/2SM DS FEW006 12/M01 A2971 RMK AO2 PK WND 05032/0048 PRESRR"
"88542","MAF","2011-02-01 00:53:00",-102.2075,31.9466,53.06,30.92,42.58,60,26,NA,29.71,1005,2,33,"SCT","SCT","BKN",NA,1000,1700,2900,NA,"DS",NA,NA,NA,33,60,"2011-02-01 00:53",53.06,"KMAF 010053Z 06026G33KT 2SM DS SCT010 SCT017 BKN029 12/M01 A2971 RMK AO2 PK WND 06033/0053 SLP050 T01171006"
"88543","MAF","2011-02-01 01:06:00",-102.2075,31.9466,51.8,30.2,43.32,50,26,NA,29.72,NA,3,35,"BKN","BKN","BKN",NA,1700,2500,3200,NA,"DS",NA,NA,NA,35,50,"2011-02-01 01:02",51.8,"KMAF 010106Z 05026G35KT 3SM DS BKN017 BKN025 BKN032 11/M01 A2972 RMK AO2 PK WND 05035/0102"
"88544","MAF","2011-02-01 01:28:00",-102.2075,31.9466,48.2,30.2,49.53,40,26,NA,29.75,NA,5,31,"BKN","OVC","   ",NA,4100,12000,NA,NA,"DS",NA,NA,NA,36,60,"2011-02-01 01:09",39.58,"KMAF 010128Z 04026G31KT 5SM DS BKN041 OVC120 09/M01 A2975 RMK AO2 PK WND 06036/0109"
"88545","MAF","2011-02-01 01:53:00",-102.2075,31.9466,42.98,28.94,57.35,40,26,NA,29.77,1007.7,5,32,"SCT","BKN","   ",NA,8000,11000,NA,NA,"DS",NA,NA,NA,36,40,"2011-02-01 01:35",32.49,"KMAF 010153Z 04026G32KT 5SM DS SCT080 BKN110 06/M02 A2977 RMK AO2 PK WND 04036/0135 SLP077 T00611017"
"89193","MAF","2011-02-24 15:53:00",-102.2075,31.9466,62.96,15.98,15.94,260,31,NA,29.9,1009.7,5,42,"FEW","   ","   ",NA,1200,NA,NA,NA,"BLDU",NA,NA,NA,42,260,"2011-02-24 15:53",62.96,"KMAF 241553Z 26031G42KT 5SM BLDU FEW012 17/M09 A2990 RMK AO2 PK WND 26042/1553 SLP097 T01721089"
"89194","MAF","2011-02-24 16:53:00",-102.2075,31.9466,64.04,17.06,16.09,260,25,NA,29.9,1009.6,10,34,"CLR","   ","   ",NA,NA,NA,NA,NA,"BLDU",NA,NA,NA,40,260,"2011-02-24 15:54",64.04,"KMAF 241653Z 26025G34KT 10SM BLDU CLR 18/M08 A2990 RMK AO2 PK WND 26040/1554 SLP096 T01781083"
"89195","MAF","2011-02-24 17:53:00",-102.2075,31.9466,66.02,15.98,14.33,260,23,NA,29.91,1009.9,10,29,"CLR","   ","   ",NA,NA,NA,NA,NA,"BLDU",NA,NA,NA,36,250,"2011-02-24 16:55",66.02,"KMAF 241753Z 26023G29KT 10SM BLDU CLR 19/M09 A2991 RMK AO2 PK WND 25036/1655 SLP099 T01891089 10189 20094 51014"
"89196","MAF","2011-02-24 18:53:00",-102.2075,31.9466,66.92,15.98,13.89,270,24,NA,29.9,1009.1,10,30,"CLR","   ","   ",NA,NA,NA,NA,NA,"BLDU",NA,NA,NA,34,270,"2011-02-24 18:08",66.92,"KMAF 241853Z 27024G30KT 10SM BLDU CLR 19/M09 A2990 RMK AO2 PK WND 27034/1808 SLP091 T01941089"
"89197","MAF","2011-02-24 19:53:00",-102.2075,31.9466,69.08,12.92,11.28,290,18,NA,29.88,1008.5,10,27,"CLR","   ","   ",NA,NA,NA,NA,NA,"BLDU",NA,NA,NA,33,290,"2011-02-24 19:21",69.08,"KMAF 241953Z 29018G27KT 10SM BLDU CLR 21/M11 A2988 RMK AO2 PK WND 29033/1921 SLP085 T02061106"
"89198","MAF","2011-02-24 20:53:00",-102.2075,31.9466,69.08,10.04,9.92,270,17,NA,29.87,1008.6,10,29,"CLR","   ","   ",NA,NA,NA,NA,NA,"BLDU",NA,NA,NA,31,290,"2011-02-24 20:13",69.08,"KMAF 242053Z 27017G29KT 10SM BLDU CLR 21/M12 A2987 RMK AO2 PK WND 29031/2013 SLP086 T02061122 56012"
"89199","MAF","2011-02-24 21:53:00",-102.2075,31.9466,69.98,6.08,8.05,290,17,NA,29.87,1008.4,10,25,"CLR","   ","   ",NA,NA,NA,NA,NA,"BLDU",NA,NA,NA,28,280,"2011-02-24 21:28",69.98,"KMAF 242153Z 29017G25KT 10SM BLDU CLR 21/M14 A2987 RMK AO2 PK WND 28028/2128 SLP084 T02111144"
"89269","MAF","2011-02-27 18:53:00",-102.2075,31.9466,82.94,-2.92,3.44,230,27,NA,29.58,997.8,4,44,"FEW","   ","   ",NA,800,NA,NA,NA,"BLDU",NA,NA,NA,46,240,"2011-02-27 18:42",79.11,"KMAF 271853Z 23027G44KT 4SM BLDU FEW008 28/M19 A2958 RMK AO2 PK WND 24046/1842 SLP978 T02831194"
"89270","MAF","2011-02-27 19:53:00",-102.2075,31.9466,84.02,-7.06,2.72,230,27,NA,29.56,996.9,9,36,"CLR","   ","   ",NA,NA,NA,NA,NA,"BLDU",NA,NA,NA,43,220,"2011-02-27 19:08",79.82,"KMAF 271953Z 23027G36KT 9SM BLDU CLR 29/M22 A2956 RMK AO2 PK WND 22043/1908 SLP969 T02891217"
"89271","MAF","2011-02-27 20:53:00",-102.2075,31.9466,82.94,-11.02,2.32,240,27,NA,29.54,996.2,6,37,"CLR","   ","   ",NA,NA,NA,NA,NA,"BLDU",NA,NA,NA,46,240,"2011-02-27 20:26",79,"KMAF 272053Z 24027G37KT 6SM BLDU CLR 28/M24 A2954 RMK AO2 PK WND 24046/2026 SLP962 T02831239 56024"
"89272","MAF","2011-02-27 21:53:00",-102.2075,31.9466,82.04,-14.98,1.96,250,28,NA,29.53,995.6,6,39,"FEW","   ","   ",NA,2100,NA,NA,NA,"BLDU",NA,NA,NA,42,240,"2011-02-27 21:38",78.31,"KMAF 272153Z 25028G39KT 6SM BLDU FEW021 28/M26 A2953 RMK AO2 PK WND 24042/2138 SLP956 T02781261"
"89273","MAF","2011-02-27 22:53:00",-102.2075,31.9466,75.92,-4,4.11,280,22,NA,29.57,997.4,8,33,"CLR","   ","   ",NA,NA,NA,NA,NA,"BLDU",NA,NA,NA,34,270,"2011-02-27 21:55",73.41,"KMAF 272253Z 28022G33KT 8SM BLDU CLR 24/M20 A2957 RMK AO2 PK WND 27034/2155 SLP974 T02441200"
"89274","MAF","2011-02-27 23:10:00",-102.2075,31.9466,73.4,15.8,11.05,300,28,NA,29.59,NA,2.5,37,"BKN","   ","   ",NA,1300,NA,NA,NA,"BLDU",NA,NA,NA,37,300,"2011-02-27 23:03",70.96,"KMAF 272310Z 30028G37KT 2 1/2SM BLDU BKN013 23/M09 A2959 RMK AO2 PK WND 30037/2303"
"89275","MAF","2011-02-27 23:19:00",-102.2075,31.9466,71.6,17.6,12.69,290,24,NA,29.6,NA,3,34,"BKN","   ","   ",NA,1300,NA,NA,NA,"BLDU",NA,NA,NA,37,300,"2011-02-27 23:03",69.06,"KMAF 272319Z 29024G34KT 3SM BLDU BKN013 22/M08 A2960 RMK AO2 PK WND 30037/2303"
"89276","MAF","2011-02-27 23:32:00",-102.2075,31.9466,69.8,19.4,14.57,300,24,NA,29.62,NA,4,33,"OVC","   ","   ",NA,1500,NA,NA,NA,"BLDU",NA,NA,NA,37,300,"2011-02-27 23:03",69.8,"KMAF 272332Z 30024G33KT 4SM BLDU OVC015 21/M07 A2962 RMK AO2 PK WND 30037/2303 PRESRR"
"89277","MAF","2011-02-27 23:53:00",-102.2075,31.9466,66.92,23,18.74,300,22,NA,29.64,1000.4,5,32,"BKN","BKN","   ",NA,1700,3300,NA,NA,"BLDU",NA,NA,NA,37,300,"2011-02-27 23:03",66.92,"KMAF 272353Z 30022G32KT 5SM BLDU BKN017 BKN033 19/M05 A2964 RMK AO2 PK WND 30037/2303 PRESRR SLP004 T01941050 10289 20194 53032"
"89278","MAF","2011-02-28 00:16:00",-102.2075,31.9466,64.4,21.2,18.96,300,23,NA,29.66,NA,6,32,"SCT","   ","   ",NA,2300,NA,NA,NA,"BLDU",NA,NA,NA,36,290,"2011-02-28 00:05",64.4,"KMAF 280016Z 30023G32KT 6SM BLDU SCT023 18/M06 A2966 RMK AO2 PK WND 29036/0005"
"89279","MAF","2011-02-28 00:53:00",-102.2075,31.9466,60.98,21.92,22.05,300,25,NA,29.71,1003.4,8,35,"BKN","   ","   ",NA,4100,NA,NA,NA,"BLDU",NA,NA,NA,36,290,"2011-02-28 00:26",60.98,"KMAF 280053Z 30025G35KT 8SM BLDU BKN041 16/M06 A2971 RMK AO2 PK WND 29036/0026 PRESRR SLP034 T01611056"
"89280","MAF","2011-02-28 01:53:00",-102.2075,31.9466,55.94,21.02,25.43,290,24,NA,29.79,1006.3,10,31,"CLR","   ","   ",NA,NA,NA,NA,NA,"BLDU",NA,NA,NA,35,300,"2011-02-28 00:57",55.94,"KMAF 280153Z 29024G31KT 10SM BLDU CLR 13/M06 A2979 RMK AO2 PK WND 30035/0057 SLP063 T01331061"
"89824","MAF","2011-03-22 19:53:00",-102.2075,31.9466,84.02,12.02,6.6,270,27,NA,29.82,1005.1,9,36,"CLR","   ","   ",NA,NA,NA,NA,NA,"BLDU",NA,NA,NA,38,260,"2011-03-22 19:17",80.24,"KMAF 221953Z 27027G36KT 9SM BLDU CLR 29/M11 A2982 RMK AO2 PK WND 26038/1917 SLP051 T02891111"
"89825","MAF","2011-03-22 20:53:00",-102.2075,31.9466,84.02,10.04,6.04,260,23,NA,29.8,1004.6,10,34,"CLR","   ","   ",NA,NA,NA,NA,NA,"BLDU",NA,NA,NA,39,280,"2011-03-22 20:33",80.17,"KMAF 222053Z 26023G34KT 10SM BLDU CLR 29/M12 A2980 RMK AO2 PK WND 28039/2033 SLP046 T02891122 58010"
"89826","MAF","2011-03-22 21:53:00",-102.2075,31.9466,84.02,10.94,6.29,260,24,NA,29.79,1004.2,10,32,"CLR","   ","   ",NA,NA,NA,NA,NA,"BLDU",NA,NA,NA,33,270,"2011-03-22 21:33",80.2,"KMAF 222153Z 26024G32KT 10SM BLDU CLR 29/M12 A2979 RMK AO2 PK WND 27033/2133 SLP042 T02891117"
"89827","MAF","2011-03-22 22:53:00",-102.2075,31.9466,84.02,6.98,5.26,260,25,NA,29.78,1004.1,10,30,"CLR","   ","   ",NA,NA,NA,NA,NA,"BLDU",NA,NA,NA,32,260,"2011-03-22 22:39",80.08,"KMAF 222253Z 26025G30KT 10SM BLDU CLR 29/M14 A2978 RMK AO2 PK WND 26032/2239 SLP041 T02891139"
"89828","MAF","2011-03-22 23:53:00",-102.2075,31.9466,80.96,8.96,6.36,280,18,NA,29.79,1004.6,10,25,"CLR","   ","   ",NA,NA,NA,NA,NA,"BLDU",NA,NA,NA,34,260,"2011-03-22 23:03",78.05,"KMAF 222353Z 28018G25KT 10SM BLDU CLR 27/M13 A2979 RMK AO2 PK WND 26034/2303 SLP046 T02721128 10294 20272 55004"
"89829","MAF","2011-03-23 00:53:00",-102.2075,31.9466,75.02,15.08,10.14,270,15,NA,29.81,1005.6,10,-99,"CLR","   ","   ",NA,NA,NA,NA,NA,"BLDU",NA,NA,NA,29,270,"2011-03-23 00:01",72.7,"KMAF 230053Z 27015KT 10SM BLDU CLR 24/M09 A2981 RMK AO2 PK WND 27029/0001 SLP056 T02391094"
"89830","MAF","2011-03-23 01:53:00",-102.2075,31.9466,66.02,15.98,14.33,270,9,NA,29.82,1006.3,10,-99,"CLR","   ","   ",NA,NA,NA,NA,NA,"BLDU",NA,NA,NA,NA,NA,NA,66.02,"KMAF 230153Z 27009KT 10SM BLDU CLR 19/M09 A2982 RMK AO2 SLP063 T01891089"
"90130","MAF","2011-04-03 20:53:00",-102.2075,31.9466,96.08,10.94,4.3,250,22,NA,29.68,999.5,10,37,"CLR","   ","   ",NA,NA,NA,NA,NA,"BLDU",NA,NA,NA,NA,NA,NA,88.96,"KMAF 032053Z 25022G37KT 10SM BLDU CLR 36/M12 A2968 RMK AO2 PK WND 24037/2047 SLP995 T03561117 56031"
"90131","MAF","2011-04-03 21:53:00",-102.2075,31.9466,96.08,8.06,3.78,250,23,NA,29.65,998.6,10,37,"CLR","   ","   ",NA,NA,NA,NA,NA,"BLDU",NA,NA,NA,NA,NA,NA,88.85,"KMAF 032153Z 25023G37KT 10SM BLDU CLR 36/M13 A2965 RMK AO2 PK WND 24037/2150 SLP986 T03561133"
"90132","MAF","2011-04-03 22:53:00",-102.2075,31.9466,93.92,10.04,4.42,250,21,NA,29.63,998.2,10,27,"CLR","   ","   ",NA,NA,NA,NA,NA,"BLDU",NA,NA,NA,NA,NA,NA,87.26,"KMAF 032253Z 25021G27KT 10SM BLDU CLR 34/M12 A2963 RMK AO2 PK WND 24035/2200 SLP982 T03441122"
"90154","MAF","2011-04-04 13:22:00",-102.2075,31.9466,44.6,24.8,45.44,360,18,NA,30.11,NA,7,24,"CLR","   ","   ",NA,NA,NA,NA,NA,"BLDU",NA,NA,NA,32,360,"2011-04-04 13:06",36.34,"KMAF 041322Z 36018G24KT 7SM BLDU CLR 07/M04 A3011 RMK AO2 PK WND 36032/1306"
"90155","MAF","2011-04-04 13:53:00",-102.2075,31.9466,46.04,24.98,43.34,10,28,NA,30.12,1016.8,7,34,"CLR","   ","   ",NA,NA,NA,NA,NA,"BLDU",NA,NA,NA,34,10,"2011-04-04 13:51",36.32,"KMAF 041353Z 01028G34KT 7SM BLDU CLR 08/M04 A3012 RMK AO2 PK WND 01034/1351 SLP168 T00781039"
"90156","MAF","2011-04-04 14:53:00",-102.2075,31.9466,48.92,24.98,38.89,10,23,NA,30.18,1018.6,10,34,"CLR","   ","   ",NA,NA,NA,NA,NA,"BLDU",NA,NA,NA,35,360,"2011-04-04 14:43",41.06,"KMAF 041453Z 01023G34KT 10SM BLDU CLR 09/M04 A3018 RMK AO2 PK WND 36035/1443 SLP186 T00941039 51050"
"90157","MAF","2011-04-04 15:53:00",-102.2075,31.9466,51.08,26.06,37.54,360,21,NA,30.21,1019.6,7,30,"CLR","   ","   ",NA,NA,NA,NA,NA,"BLDU",NA,NA,NA,34,10,"2011-04-04 15:24",51.08,"KMAF 041553Z 36021G30KT 7SM BLDU CLR 11/M03 A3021 RMK AO2 PK WND 01034/1524 SLP196 T01061033"
"90158","MAF","2011-04-04 16:53:00",-102.2075,31.9466,55.04,26.06,32.46,10,21,NA,30.24,1020.6,8,29,"CLR","   ","   ",NA,NA,NA,NA,NA,"BLDU",NA,NA,NA,30,360,"2011-04-04 16:22",55.04,"KMAF 041653Z 01021G29KT 8SM BLDU CLR 13/M03 A3024 RMK AO2 PK WND 36030/1622 SLP206 T01281033"
"90159","MAF","2011-04-04 17:53:00",-102.2075,31.9466,57.92,23,25.74,340,19,NA,30.25,1020.8,8,33,"CLR","   ","   ",NA,NA,NA,NA,NA,"BLDU",NA,NA,NA,33,350,"2011-04-04 17:46",57.92,"KMAF 041753Z 34019G33KT 8SM BLDU CLR 14/M05 A3025 RMK AO2 PK WND 35033/1746 SLP208 T01441050 10144 20067 51021"
"90160","MAF","2011-04-04 18:53:00",-102.2075,31.9466,60.08,15.98,17.65,10,18,NA,30.23,1020.3,10,27,"CLR","   ","   ",NA,NA,NA,NA,NA,"BLDU",NA,NA,NA,30,360,"2011-04-04 18:31",60.08,"KMAF 041853Z 01018G27KT 10SM BLDU CLR 16/M09 A3023 RMK AO2 PK WND 36030/1831 SLP203 T01561089"
"90161","MAF","2011-04-04 19:53:00",-102.2075,31.9466,62.96,10.94,12.77,360,20,NA,30.2,1018.8,6,28,"CLR","   ","   ",NA,NA,NA,NA,NA,"BLDU",NA,NA,NA,30,30,"2011-04-04 19:43",62.96,"KMAF 041953Z 36020G28KT 6SM BLDU CLR 17/M12 A3020 RMK AO2 PK WND 03030/1943 SLP188 T01721117"
"90162","MAF","2011-04-04 20:53:00",-102.2075,31.9466,64.04,8.96,11.26,350,19,NA,30.17,1017.7,7,24,"CLR","   ","   ",NA,NA,NA,NA,NA,"BLDU",NA,NA,NA,NA,NA,NA,64.04,"KMAF 042053Z 35019G24KT 7SM BLDU CLR 18/M13 A3017 RMK AO2 SLP177 T01781128 58024"
"90282","MAF","2011-04-09 20:53:00",-102.2075,31.9466,93.92,17.96,6.25,210,27,NA,29.7,1000.2,9,41,"CLR","   ","   ",NA,NA,NA,NA,NA,"BLDU",NA,NA,NA,42,220,"2011-04-09 20:34",87.62,"KMAF 092053Z 21027G41KT 9SM BLDU CLR 34/M08 A2970 RMK AO2 PK WND 22042/2034 SLP002 T03441078 58033"
"90283","MAF","2011-04-09 21:53:00",-102.2075,31.9466,95,17.96,6.05,220,21,NA,29.69,999.7,10,30,"CLR","   ","   ",NA,NA,NA,NA,NA,"BLDU",NA,NA,NA,39,210,"2011-04-09 21:10",88.41,"KMAF 092153Z 22021G30KT 10SM BLDU CLR 35/M08 A2969 RMK AO2 PK WND 21039/2110 SLP997 T03501078"
"90284","MAF","2011-04-09 22:53:00",-102.2075,31.9466,95,17.96,6.05,200,18,NA,29.66,999,10,30,"CLR","   ","   ",NA,NA,NA,NA,NA,"FU BLDU",NA,NA,NA,34,210,"2011-04-09 22:27",88.41,"KMAF 092253Z 20018G30KT 10SM FU BLDU CLR 35/M08 A2966 RMK AO2 PK WND 21034/2227 SLP990 T03501078"
"90285","MAF","2011-04-09 23:53:00",-102.2075,31.9466,93.92,17.06,6.02,200,21,NA,29.65,998.7,10,30,"CLR","   ","   ",NA,NA,NA,NA,NA,"FU BLDU",NA,NA,NA,32,200,"2011-04-09 23:21",87.57,"KMAF 092353Z 20021G30KT 10SM FU BLDU CLR 34/M08 A2965 RMK AO2 PK WND 20032/2321 SLP987 T03441083 10350 20300 56016"
"90286","MAF","2011-04-10 00:53:00",-102.2075,31.9466,91.94,15.98,6.1,220,18,NA,29.66,999.1,7,25,"CLR","   ","   ",NA,NA,NA,NA,NA,"FU BLDU",NA,NA,NA,31,200,"2011-04-10 00:04",86.08,"KMAF 100053Z 22018G25KT 7SM FU BLDU CLR 33/M09 A2966 RMK AO2 PK WND 20031/0004 SLP991 T03331089"
"90287","MAF","2011-04-10 01:53:00",-102.2075,31.9466,87.08,44.06,22.32,170,19,NA,29.67,999.7,8,29,"FEW","SCT","   ",NA,3400,4400,NA,NA,"FU BLDU",NA,NA,NA,29,160,"2011-04-10 01:47",83.89,"KMAF 100153Z 17019G29KT 8SM FU BLDU FEW034 SCT044 31/07 A2967 RMK AO2 PK WND 16029/0147 SLP997 T03060067"
"90288","MAF","2011-04-10 02:53:00",-102.2075,31.9466,84.02,48.92,29.58,160,25,NA,29.68,1000,8,32,"CLR","   ","   ",NA,NA,NA,NA,NA,"FU BLDU",NA,NA,NA,32,170,"2011-04-10 02:52",81.98,"KMAF 100253Z 16025G32KT 8SM FU BLDU CLR 29/09 A2968 RMK AO2 PK WND 17032/0252 SLP000 T02890094 53010"
"90289","MAF","2011-04-10 03:53:00",-102.2075,31.9466,82.04,51.08,34.18,160,29,NA,29.69,1000.3,6,35,"CLR","   ","   ",NA,NA,NA,NA,NA,"HZ FU BLDU",NA,NA,NA,39,150,"2011-04-10 03:36",80.88,"KMAF 100353Z 16029G35KT 6SM HZ FU BLDU CLR 28/11 A2969 RMK AO2 PK WND 15039/0336 SLP003 T02780106"
"90290","MAF","2011-04-10 04:53:00",-102.2075,31.9466,82.04,51.98,35.34,170,31,NA,29.7,1000.3,4,37,"CLR","   ","   ",NA,NA,NA,NA,NA,"HZ FU BLDU",NA,NA,NA,37,170,"2011-04-10 04:49",80.99,"KMAF 100453Z 17031G37KT 4SM HZ FU BLDU CLR 28/11 A2970 RMK AO2 PK WND 17037/0449 SLP003 T02780111"
"90291","MAF","2011-04-10 05:53:00",-102.2075,31.9466,80.96,51.98,36.6,180,22,NA,29.71,1000.6,8,34,"CLR","   ","   ",NA,NA,NA,NA,NA,"FU BLDU",NA,NA,NA,39,170,"2011-04-10 05:43",80.96,"KMAF 100553Z 18022G34KT 8SM FU BLDU CLR 27/11 A2971 RMK AO2 PK WND 17039/0543 SLP006 T02720111 10344 20272 403500211 51008"
"90292","MAF","2011-04-10 06:53:00",-102.2075,31.9466,80.06,53.06,39.22,180,21,NA,29.71,1000.8,9,34,"CLR","   ","   ",NA,NA,NA,NA,NA,"FU BLDU",NA,NA,NA,34,170,"2011-04-10 06:48",80.06,"KMAF 100653Z 18021G34KT 9SM FU BLDU CLR 27/12 A2971 RMK AO2 PK WND 17034/0648 SLP008 T02670117"
"90293","MAF","2011-04-10 07:53:00",-102.2075,31.9466,78.98,55.94,45.14,180,21,NA,29.72,1001.1,10,28,"CLR","   ","   ",NA,NA,NA,NA,NA,"FU BLDU",NA,NA,NA,30,180,"2011-04-10 07:32",78.98,"KMAF 100753Z AUTO 18021G28KT 10SM FU BLDU CLR 26/13 A2972 RMK AO2 PK WND 18030/0732 SLP011 T02610133 TSNO"
"90294","MAF","2011-04-10 08:18:00",-102.2075,31.9466,78.8,55.4,44.52,230,11,NA,29.75,NA,10,-99,"CLR","   ","   ",NA,NA,NA,NA,NA,"FU BLDU",NA,NA,NA,26,190,"2011-04-10 08:03",78.8,"KMAF 100818Z AUTO 23011KT 10SM FU BLDU CLR 26/13 A2975 RMK AO2 PK WND 19026/0803 WSHFT 0758 TSNO"
"90295","MAF","2011-04-10 08:53:00",-102.2075,31.9466,77,53.96,44.84,230,11,NA,29.75,1002.1,10,19,"CLR","   ","   ",NA,NA,NA,NA,NA,"FU BLDU",NA,NA,NA,26,190,"2011-04-10 08:03",77,"KMAF 100853Z AUTO 23011G19KT 10SM FU BLDU CLR 25/12 A2975 RMK AO2 PK WND 19026/0803 WSHFT 0758 SLP021 T02500122 53015 TSNO $"
"90296","MAF","2011-04-10 09:53:00",-102.2075,31.9466,71.06,42.98,36.28,310,8,NA,29.77,1002.7,8,-99,"CLR","   ","   ",NA,NA,NA,NA,NA,"FU BLDU",NA,NA,NA,NA,NA,NA,69.57,"KMAF 100953Z AUTO 31008KT 8SM FU BLDU CLR 22/06 A2977 RMK AO2 SLP027 T02170061 TSNO $"
"90297","MAF","2011-04-10 10:22:00",-102.2075,31.9466,66.2,35.6,32.14,300,7,NA,29.78,NA,6,-99,"BKN","   ","   ",NA,2100,NA,NA,NA,"HZ FU BLDU",NA,NA,NA,NA,NA,NA,66.2,"KMAF 101022Z AUTO 30007KT 6SM HZ FU BLDU BKN021 19/02 A2978 RMK AO2 TSNO $"
"90298","MAF","2011-04-10 11:00:00",-102.2075,31.9466,64.4,32,29.63,310,7,NA,29.79,NA,7,-99,"SCT","   ","   ",NA,2900,NA,NA,NA,"FU BLDU",NA,NA,NA,NA,NA,NA,64.4,"KMAF 101100Z AUTO 31007KT 7SM FU BLDU SCT029 18/00 A2979 RMK AO2 TSNO $"
"90299","MAF","2011-04-10 11:53:00",-102.2075,31.9466,62.96,30.02,28.77,310,7,NA,29.82,1004.9,10,-99,"CLR","   ","   ",NA,NA,NA,NA,NA,"FU BLDU",NA,NA,NA,NA,NA,NA,62.96,"KMAF 101153Z AUTO 31007KT 10SM FU BLDU CLR 17/M01 A2982 RMK AO2 SLP049 70002 T01721011 10272 20172 53021 TSNO $"
"90405","MAF","2011-04-14 21:21:00",-102.2075,31.9466,86,-7.6,2.49,270,25,NA,29.7,NA,8,38,"CLR","   ","   ",NA,NA,NA,NA,NA,"BLDU",NA,NA,NA,38,260,"2011-04-14 21:17",81.24,"KMAF 142121Z 27025G38KT 8SM BLDU CLR 30/M22 A2970 RMK AO2 PK WND 26038/2117 $"
"90406","MAF","2011-04-14 21:53:00",-102.2075,31.9466,84.92,-5.08,2.91,260,22,NA,29.7,1001.2,7,31,"CLR","   ","   ",NA,NA,NA,NA,NA,"BLDU",NA,NA,NA,38,260,"2011-04-14 21:17",80.49,"KMAF 142153Z 26022G31KT 7SM BLDU CLR 29/M21 A2970 RMK AO2 PK WND 26038/2117 SLP012 T02941206 $"
"90407","MAF","2011-04-14 22:53:00",-102.2075,31.9466,86,-5.98,2.69,280,23,NA,29.69,1001.1,10,31,"CLR","   ","   ",NA,NA,NA,NA,NA,"BLDU",NA,NA,NA,38,270,"2011-04-14 22:08",81.26,"KMAF 142253Z 28023G31KT 10SM BLDU CLR 30/M21 A2969 RMK AO2 PK WND 27038/2208 SLP011 T03001211 $"
"90408","MAF","2011-04-14 23:53:00",-102.2075,31.9466,84.02,-5.98,2.87,270,25,NA,29.7,1001.7,10,31,"CLR","   ","   ",NA,NA,NA,NA,NA,"BLDU",NA,NA,NA,33,270,"2011-04-14 22:57",79.83,"KMAF 142353Z 27025G31KT 10SM BLDU CLR 29/M21 A2970 RMK AO2 PK WND 27033/2257 SLP017 T02891211 10306 20283 55005 $"
"90409","MAF","2011-04-15 00:53:00",-102.2075,31.9466,80.06,-9.94,2.69,310,14,NA,29.71,1002.4,9,20,"CLR","   ","   ",NA,NA,NA,NA,NA,"BLDU",NA,NA,NA,29,290,"2011-04-15 00:03",77,"KMAF 150053Z 31014G20KT 9SM BLDU CLR 27/M23 A2971 RMK AO2 PK WND 29029/0003 SLP024 T02671233 $"
"90410","MAF","2011-04-15 01:53:00",-102.2075,31.9466,71.96,-4,4.7,330,11,NA,29.75,1003.6,10,-99,"CLR","   ","   ",NA,NA,NA,NA,NA,"BLDU",NA,NA,NA,NA,NA,NA,69.08,"KMAF 150153Z 33011KT 10SM BLDU CLR 22/M20 A2975 RMK AO2 SLP036 T02221200 $"
"90411","MAF","2011-04-15 02:53:00",-102.2075,31.9466,66.02,-2.02,6.33,330,9,NA,29.79,1004.8,10,-99,"FEW","   ","   ",NA,4000,NA,NA,NA,"BLDU",NA,NA,NA,NA,NA,NA,66.02,"KMAF 150253Z 33009KT 10SM BLDU FEW040 19/M19 A2979 RMK AO2 SLP048 T01891189 53030 $"
"90412","MAF","2011-04-15 03:53:00",-102.2075,31.9466,62.06,-0.04,7.98,320,9,NA,29.82,1005.9,10,-99,"CLR","   ","   ",NA,NA,NA,NA,NA,"BLDU",NA,NA,NA,NA,NA,NA,62.06,"KMAF 150353Z 32009KT 10SM BLDU CLR 17/M18 A2982 RMK AO2 SLP059 T01671178 $"
"90413","MAF","2011-04-15 04:53:00",-102.2075,31.9466,64.04,1.94,8.17,330,8,NA,29.84,1006.2,10,-99,"CLR","   ","   ",NA,NA,NA,NA,NA,"BLDU",NA,NA,NA,NA,NA,NA,64.04,"KMAF 150453Z AUTO 33008KT 10SM BLDU CLR 18/M17 A2984 RMK AO2 SLP062 T01781167 $"
"90414","MAF","2011-04-15 05:53:00",-102.2075,31.9466,57.02,3.92,11.49,300,9,NA,29.86,1007,10,-99,"CLR","   ","   ",NA,NA,NA,NA,NA,"BLDU",NA,NA,NA,NA,NA,NA,57.02,"KMAF 150553Z AUTO 30009KT 10SM BLDU CLR 14/M16 A2986 RMK AO2 SLP070 T01391156 10289 20133 403060122 51020 $"
"90415","MAF","2011-04-15 06:53:00",-102.2075,31.9466,64.04,-5.08,5.86,320,18,NA,29.87,1007.2,10,25,"CLR","   ","   ",NA,NA,NA,NA,NA,"BLDU",NA,NA,NA,NA,NA,NA,64.04,"KMAF 150653Z AUTO 32018G25KT 10SM BLDU CLR 18/M21 A2987 RMK AO2 SLP072 T01781206 $"
"90416","MAF","2011-04-15 07:53:00",-102.2075,31.9466,62.06,-4,6.62,330,20,NA,29.88,1007.5,10,31,"CLR","   ","   ",NA,NA,NA,NA,NA,"BLDU",NA,NA,NA,34,320,"2011-04-15 07:30",62.06,"KMAF 150753Z AUTO 33020G31KT 10SM BLDU CLR 17/M20 A2988 RMK AO2 PK WND 32034/0730 SLP075 T01671200 $"
"90417","MAF","2011-04-15 08:53:00",-102.2075,31.9466,59,-2.02,8.11,330,18,NA,29.9,1008.5,10,26,"CLR","   ","   ",NA,NA,NA,NA,NA,"BLDU",NA,NA,NA,28,330,"2011-04-15 07:58",59,"KMAF 150853Z AUTO 33018G26KT 10SM BLDU CLR 15/M19 A2990 RMK AO2 PK WND 33028/0758 SLP085 T01501189 53014 $"
"90418","MAF","2011-04-15 09:53:00",-102.2075,31.9466,53.06,-0.94,10.58,350,14,NA,29.93,1010,10,-99,"CLR","   ","   ",NA,NA,NA,NA,NA,"BLDU",NA,NA,NA,NA,NA,NA,53.06,"KMAF 150953Z AUTO 35014KT 10SM BLDU CLR 12/M18 A2993 RMK AO2 SLP100 T01171183 $"
"90419","MAF","2011-04-15 10:53:00",-102.2075,31.9466,48.02,8.06,NA,NA,NA,NA,29.96,1011.2,10,-99,"CLR","   ","   ",NA,NA,NA,NA,NA,"BLDU",NA,NA,NA,NA,NA,NA,NA,"KMAF 151053Z AUTO 00000KT 10SM BLDU CLR 09/M13 A2996 RMK AO2 SLP112 T00891133 $"
"90696","MAF","2011-04-26 17:53:00",-102.2075,31.9466,84.02,17.96,8.55,240,31,NA,29.56,996.3,5,38,"CLR","   ","   ",NA,NA,NA,NA,NA,"HZ BLDU",NA,NA,NA,38,240,"2011-04-26 17:53",80.48,"KMAF 261753Z 24031G38KT 5SM HZ BLDU CLR 29/M08 A2956 RMK AO2 PK WND 24038/1753 SLP963 T02891078 10294 20094 58016"
"90697","MAF","2011-04-26 18:53:00",-102.2075,31.9466,86,17.96,8.02,250,26,NA,29.54,995.7,6,41,"CLR","   ","   ",NA,NA,NA,NA,NA,"HZ BLDU",NA,NA,NA,41,260,"2011-04-26 18:51",81.87,"KMAF 261853Z 25026G41KT 6SM HZ BLDU CLR 30/M08 A2954 RMK AO2 PK WND 26041/1851 SLP957 T03001078"
"90700","MAF","2011-04-26 21:13:00",-102.2075,31.9466,89.6,12.2,5.57,270,27,NA,29.46,NA,5,37,"CLR","   ","   ",NA,NA,NA,NA,NA,"BLDU",NA,NA,NA,39,240,"2011-04-26 20:56",84.23,"KMAF 262113Z 27027G37KT 5SM BLDU CLR 32/M11 A2946 RMK AO2 PK WND 24039/2056"
"90701","MAF","2011-04-26 21:53:00",-102.2075,31.9466,87.98,15.08,6.65,250,23,NA,29.45,992.7,8,37,"CLR","   ","   ",NA,NA,NA,NA,NA,"BLDU",NA,NA,NA,39,240,"2011-04-26 20:56",83.17,"KMAF 262153Z 25023G37KT 8SM BLDU CLR 31/M09 A2945 RMK AO2 PK WND 24039/2056 SLP927 T03111094"
"90703","MAF","2011-04-26 23:53:00",-102.2075,31.9466,87.98,12.92,6.05,270,24,NA,29.42,991.9,4,33,"CLR","   ","   ",NA,NA,NA,NA,NA,"BLDU",NA,NA,NA,36,270,"2011-04-26 23:14",83.09,"KMAF 262353Z 27024G33KT 4SM BLDU CLR 31/M11 A2942 RMK AO2 PK WND 27036/2314 SLP919 T03111106 10317 20289 56018"
"90704","MAF","2011-04-27 00:53:00",-102.2075,31.9466,86,10.94,5.9,270,22,NA,29.42,992.3,6,35,"FEW","   ","   ",NA,4200,NA,NA,NA,"BLDU",NA,NA,NA,37,260,"2011-04-27 00:43",81.6,"KMAF 270053Z 27022G35KT 6SM BLDU FEW042 30/M12 A2942 RMK AO2 PK WND 26037/0043 SLP923 T03001117"
"90705","MAF","2011-04-27 01:20:00",-102.2075,31.9466,84.2,12.2,6.61,270,19,NA,29.43,NA,5,28,"BKN","   ","   ",NA,2200,NA,NA,NA,"BLDU",NA,NA,NA,28,270,"2011-04-27 01:16",80.37,"KMAF 270120Z 27019G28KT 5SM BLDU BKN022 29/M11 A2943 RMK AO2 PK WND 27028/0116"
"90706","MAF","2011-04-27 01:53:00",-102.2075,31.9466,82.94,12.02,6.83,270,19,NA,29.44,992.5,8,24,"BKN","   ","   ",NA,2800,NA,NA,NA,"BLDU",NA,NA,NA,32,270,"2011-04-27 01:24",79.49,"KMAF 270153Z 27019G24KT 8SM BLDU BKN028 28/M11 A2944 RMK AO2 PK WND 27032/0124 SLP925 T02831111"
"90707","MAF","2011-04-27 03:10:00",-102.2075,31.9466,78.8,5,5.7,330,16,NA,29.53,NA,9,21,"BKN","   ","   ",NA,2800,NA,NA,NA,"BLDU",NA,NA,NA,NA,NA,NA,76.65,"KMAF 270310Z 33016G21KT 9SM BLDU BKN028 26/M15 A2953 RMK AO2 WSHFT 0250"
"90708","MAF","2011-04-27 03:21:00",-102.2075,31.9466,77,6.8,6.57,340,13,NA,29.54,NA,9,-99,"FEW","   ","   ",NA,2800,NA,NA,NA,"BLDU",NA,NA,NA,NA,NA,NA,74.71,"KMAF 270321Z 34013KT 9SM BLDU FEW028 25/M14 A2954 RMK AO2 WSHFT 0250"
"90709","MAF","2011-04-27 03:53:00",-102.2075,31.9466,73.94,10.04,8.41,340,12,NA,29.57,996.3,9,-99,"CLR","   ","   ",NA,NA,NA,NA,NA,"BLDU",NA,NA,NA,NA,NA,NA,71.43,"KMAF 270353Z 34012KT 9SM BLDU CLR 23/M12 A2957 RMK AO2 WSHFT 0250 SLP963 T02331122"
"90710","MAF","2011-04-27 04:53:00",-102.2075,31.9466,68,14,12.27,350,8,NA,29.6,997.9,10,-99,"CLR","   ","   ",NA,NA,NA,NA,NA,"BLDU",NA,NA,NA,NA,NA,NA,68,"KMAF 270453Z 35008KT 10SM BLDU CLR 20/M10 A2960 RMK AO2 SLP979 T02001100"
"90711","MAF","2011-04-27 05:53:00",-102.2075,31.9466,68,15.98,13.38,350,14,NA,29.63,998.7,10,-99,"CLR","   ","   ",NA,NA,NA,NA,NA,"BLDU",NA,NA,NA,NA,NA,NA,68,"KMAF 270553Z AUTO 35014KT 10SM BLDU CLR 20/M09 A2963 RMK AO2 SLP987 T02001089 10311 20189 403170094 51042"
"90712","MAF","2011-04-27 06:53:00",-102.2075,31.9466,64.04,17.96,16.72,350,13,NA,29.67,1000.2,10,-99,"CLR","   ","   ",NA,NA,NA,NA,NA,"BLDU",NA,NA,NA,NA,NA,NA,64.04,"KMAF 270653Z AUTO 35013KT 10SM BLDU CLR 18/M08 A2967 RMK AO2 SLP002 T01781078"
"90713","MAF","2011-04-27 07:53:00",-102.2075,31.9466,62.06,19.04,18.78,340,13,NA,29.7,1001.2,10,-99,"CLR","   ","   ",NA,NA,NA,NA,NA,"BLDU",NA,NA,NA,NA,NA,NA,62.06,"KMAF 270753Z AUTO 34013KT 10SM BLDU CLR 17/M07 A2970 RMK AO2 SLP012 T01671072"
"90714","MAF","2011-04-27 08:53:00",-102.2075,31.9466,60.08,19.94,20.93,320,15,NA,29.71,1001.8,10,22,"CLR","   ","   ",NA,NA,NA,NA,NA,"BLDU",NA,NA,NA,NA,NA,NA,60.08,"KMAF 270853Z AUTO 32015G22KT 10SM BLDU CLR 16/M07 A2971 RMK AO2 SLP018 T01561067 51027"
"90715","MAF","2011-04-27 09:53:00",-102.2075,31.9466,57.92,15.98,19.07,320,13,NA,29.74,1002.8,10,-99,"CLR","   ","   ",NA,NA,NA,NA,NA,"BLDU",NA,NA,NA,NA,NA,NA,57.92,"KMAF 270953Z AUTO 32013KT 10SM BLDU CLR 14/M09 A2974 RMK AO2 SLP028 T01441089"
"90716","MAF","2011-04-27 10:53:00",-102.2075,31.9466,57.02,10.94,15.79,330,16,NA,29.77,1003.9,10,20,"CLR","   ","   ",NA,NA,NA,NA,NA,"BLDU",NA,NA,NA,NA,NA,NA,57.02,"KMAF 271053Z AUTO 33016G20KT 10SM BLDU CLR 14/M12 A2977 RMK AO2 SLP039 T01391117"
"90797","MAF","2011-04-30 15:35:00",-102.2075,31.9466,73.4,30.2,20.23,20,17,NA,29.81,NA,5,-99,"CLR","   ","   ",NA,NA,NA,NA,NA,"HZ BLDU",NA,NA,NA,NA,NA,NA,71.39,"KMAF 301535Z 02017KT 5SM HZ BLDU CLR 23/M01 A2981 RMK AO2 WSHFT 1446"
"90798","MAF","2011-04-30 15:53:00",-102.2075,31.9466,71.96,33.08,23.86,360,16,NA,29.81,1005.1,5,-99,"CLR","   ","   ",NA,NA,NA,NA,NA,"BLDU",NA,NA,NA,NA,NA,NA,69.98,"KMAF 301553Z 36016KT 5SM BLDU CLR 22/01 A2981 RMK AO2 WSHFT 1446 SLP051 T02220006"
"90827","MAF","2011-05-01 18:53:00",-102.2075,31.9466,55.04,33.98,44.8,30,23,NA,30.02,1013.5,6,30,"OVC","   ","   ",NA,3100,NA,NA,NA,"HZ BLDU",NA,NA,NA,34,30,"2011-05-01 18:08",55.04,"KMAF 011853Z 03023G30KT 6SM HZ BLDU OVC031 13/01 A3002 RMK AO2 PK WND 03034/1808 SLP135 T01280011"
"90828","MAF","2011-05-01 19:53:00",-102.2075,31.9466,55.94,35.06,45.26,40,22,NA,30.01,1013.4,6,28,"OVC","   ","   ",NA,3300,NA,NA,NA,"HZ BLDU",NA,NA,NA,31,70,"2011-05-01 19:01",55.94,"KMAF 011953Z 04022G28KT 6SM HZ BLDU OVC033 13/02 A3001 RMK AO2 PK WND 07031/1901 SLP134 T01330017"
"90829","MAF","2011-05-01 20:53:00",-102.2075,31.9466,57.02,37.04,47.08,40,20,NA,29.99,1013,10,28,"BKN","   ","   ",NA,3300,NA,NA,NA,"BLDU",NA,NA,NA,31,30,"2011-05-01 20:39",57.02,"KMAF 012053Z 04020G28KT 10SM BLDU BKN033 14/03 A2999 RMK AO2 PK WND 03031/2039 SLP130 T01390028 56013"
"90830","MAF","2011-05-01 21:53:00",-102.2075,31.9466,55.94,37.04,48.95,50,17,NA,29.99,1012.7,10,25,"OVC","   ","   ",NA,3300,NA,NA,NA,"BLDU",NA,NA,NA,29,40,"2011-05-01 21:11",55.94,"KMAF 012153Z 05017G25KT 10SM BLDU OVC033 13/03 A2999 RMK AO2 PK WND 04029/2111 SLP127 T01330028"
"90831","MAF","2011-05-01 22:53:00",-102.2075,31.9466,53.96,37.04,52.61,50,19,NA,30,1013.2,10,25,"OVC","   ","   ",NA,3100,NA,NA,NA,"BLDU",NA,NA,NA,27,40,"2011-05-01 22:17",53.96,"KMAF 012253Z 05019G25KT 10SM BLDU OVC031 12/03 A3000 RMK AO2 PK WND 04027/2217 SLP132 T01220028"
"90832","MAF","2011-05-01 23:53:00",-102.2075,31.9466,53.06,37.04,54.38,50,17,NA,30,1013.3,10,27,"FEW","BKN","   ",NA,3000,3700,NA,NA,"BLDU",NA,NA,NA,28,50,"2011-05-01 23:07",53.06,"KMAF 012353Z 05017G27KT 10SM BLDU FEW030 BKN037 12/03 A3000 RMK AO2 PK WND 05028/2307 SLP133 T01170028 10139 20106 53001"
"90833","MAF","2011-05-02 00:53:00",-102.2075,31.9466,51.08,37.04,58.49,50,18,NA,30.01,1014,10,26,"OVC","   ","   ",NA,3000,NA,NA,NA,"BLDU",NA,NA,NA,28,70,"2011-05-02 00:33",51.08,"KMAF 020053Z 05018G26KT 10SM BLDU OVC030 11/03 A3001 RMK AO2 PK WND 07028/0033 SLP140 T01060028"
"91401","MAF","2011-05-24 18:53:00",-102.2075,31.9466,93.92,19.94,6.81,240,26,NA,29.75,1002.2,7,38,"CLR","   ","   ",NA,NA,NA,NA,NA,"BLDU",NA,NA,NA,38,250,"2011-05-24 18:53",87.74,"KMAF 241853Z 24026G38KT 7SM BLDU CLR 34/M07 A2975 RMK AO2 PK WND 25038/1853 SLP022 T03441067"
"91402","MAF","2011-05-24 19:53:00",-102.2075,31.9466,93.02,21.02,7.33,250,25,NA,29.74,1002,10,37,"CLR","   ","   ",NA,NA,NA,NA,NA,"BLDU",NA,NA,NA,38,260,"2011-05-24 19:09",87.15,"KMAF 241953Z AUTO 25025G37KT 10SM BLDU CLR 34/M06 A2974 RMK AO2 PK WND 26038/1909 SLP020 T03391061 TSNO"
"91403","MAF","2011-05-24 20:53:00",-102.2075,31.9466,95,12.92,4.86,270,26,NA,29.72,1001.1,8,39,"CLR","   ","   ",NA,NA,NA,NA,NA,"BLDU",NA,NA,NA,39,270,"2011-05-24 20:47",88.15,"KMAF 242053Z 27026G39KT 8SM BLDU CLR 35/M11 A2972 RMK AO2 PK WND 27039/2047 SLP011 T03501106 58015"
"91404","MAF","2011-05-24 21:49:00",-102.2075,31.9466,93.2,8.6,4.24,260,26,NA,29.72,NA,6,37,"FEW","   ","   ",NA,800,NA,NA,NA,"HZ BLDU",NA,NA,NA,41,270,"2011-05-24 21:35",86.7,"KMAF 242149Z 26026G37KT 6SM HZ BLDU FEW008 34/M13 A2972 RMK AO2 PK WND 27041/2135 FU NW THRU NE"
"91405","MAF","2011-05-24 21:53:00",-102.2075,31.9466,93.92,10.04,4.42,260,31,NA,29.72,1000.9,8,37,"CLR","   ","   ",NA,NA,NA,NA,NA,"BLDU",NA,NA,NA,41,270,"2011-05-24 21:35",87.26,"KMAF 242153Z 26031G37KT 8SM BLDU CLR 34/M12 A2972 RMK AO2 PK WND 27041/2135 SLP009 FU NW THRU NE T03441122"
"91406","MAF","2011-05-24 22:36:00",-102.2075,31.9466,93.2,6.8,3.91,260,30,NA,29.71,NA,6,41,"FEW","   ","   ",NA,800,NA,NA,NA,"FU BLDU",NA,NA,NA,41,270,"2011-05-24 22:31",86.65,"KMAF 242236Z 26030G41KT 6SM FU BLDU FEW008 34/M14 A2971 RMK AO2 PK WND 27041/2231 FU NW-NE"
"91407","MAF","2011-05-24 22:53:00",-102.2075,31.9466,91.94,5,3.74,270,30,NA,29.71,1001.1,6,39,"FEW","   ","   ",NA,800,NA,NA,NA,"FU BLDU",NA,NA,NA,41,260,"2011-05-24 22:39",85.7,"KMAF 242253Z 27030G39KT 6SM FU BLDU FEW008 33/M15 A2971 RMK AO2 PK WND 26041/2239 SLP011 FU NW-NE T03331150"
"91408","MAF","2011-05-24 23:53:00",-102.2075,31.9466,89.96,1.04,3.31,260,26,NA,29.71,1001.1,9,36,"CLR","   ","   ",NA,NA,NA,NA,NA,"FU BLDU",NA,NA,NA,39,270,"2011-05-24 23:40",84.21,"KMAF 242353Z 26026G36KT 9SM FU BLDU CLR 32/M17 A2971 RMK AO2 PK WND 27039/2340 SLP011 T03221172 10361 20322 55001"
"91423","MAF","2011-05-25 14:53:00",-102.2075,31.9466,80.96,24.08,12.24,320,20,NA,29.94,1009,5,25,"FEW","   ","   ",NA,1000,NA,NA,NA,"HZ BLDU",NA,NA,NA,NA,NA,NA,78.8,"KMAF 251453Z 32020G25KT 5SM HZ BLDU FEW010 27/M04 A2994 RMK AO2 SLP090 T02721044 51018"
"91424","MAF","2011-05-25 15:53:00",-102.2075,31.9466,84.02,24.08,11.08,330,14,NA,29.95,1009.2,9,24,"CLR","   ","   ",NA,NA,NA,NA,NA,"BLDU",NA,NA,NA,28,320,"2011-05-25 15:18",80.83,"KMAF 251553Z 33014G24KT 9SM BLDU CLR 29/M04 A2995 RMK AO2 PK WND 32028/1518 SLP092 T02891044"
"91425","MAF","2011-05-25 16:53:00",-102.2075,31.9466,87.08,21.92,9.18,320,17,NA,29.96,1009.6,10,22,"CLR","   ","   ",NA,NA,NA,NA,NA,"BLDU",NA,NA,NA,27,320,"2011-05-25 16:34",82.85,"KMAF 251653Z 32017G22KT 10SM BLDU CLR 31/M06 A2996 RMK AO2 PK WND 32027/1634 SLP096 T03061056"
"91426","MAF","2011-05-25 17:53:00",-102.2075,31.9466,87.98,19.94,8.2,300,19,NA,29.95,1009.6,10,26,"CLR","   ","   ",NA,NA,NA,NA,NA,"BLDU",NA,NA,NA,26,300,"2011-05-25 17:53",83.39,"KMAF 251753Z 30019G26KT 10SM BLDU CLR 31/M07 A2995 RMK AO2 PK WND 30026/1753 SLP096 T03111067 10311 20150 50002"
"91502","MAF","2011-05-28 20:53:00",-102.2075,31.9466,105.98,10.04,3.07,220,16,NA,29.65,998.2,10,27,"CLR","   ","   ",NA,NA,NA,NA,NA,"BLDU",NA,NA,NA,31,270,"2011-05-28 20:39",97,"KMAF 282053Z 22016G27KT 10SM BLDU CLR 41/M12 A2965 RMK AO2 PK WND 27031/2039 SLP982 T04111122 57020"
"91503","MAF","2011-05-28 21:53:00",-102.2075,31.9466,107.06,8.96,2.83,220,17,NA,29.62,997.1,10,31,"CLR","   ","   ",NA,NA,NA,NA,NA,"BLDU",NA,NA,NA,31,240,"2011-05-28 21:49",97.82,"KMAF 282153Z 22017G31KT 10SM BLDU CLR 42/M13 A2962 RMK AO2 PK WND 24031/2149 SLP971 T04171128"
"91504","MAF","2011-05-28 22:53:00",-102.2075,31.9466,105.08,10.94,3.28,220,14,NA,29.6,996.5,10,-99,"CLR","   ","   ",NA,NA,NA,NA,NA,"BLDU",NA,NA,NA,31,240,"2011-05-28 22:14",96.32,"KMAF 282253Z 22014KT 10SM BLDU CLR 41/M12 A2960 RMK AO2 PK WND 24031/2214 SLP965 T04061117"
"91505","MAF","2011-05-28 23:53:00",-102.2075,31.9466,105.08,8.96,3,230,16,NA,29.58,995.8,10,25,"CLR","   ","   ",NA,NA,NA,NA,NA,"BLDU",NA,NA,NA,26,240,"2011-05-28 23:21",96.23,"KMAF 282353Z 23016G25KT 10SM BLDU CLR 41/M13 A2958 RMK AO2 PK WND 24026/2321 SLP958 T04061128 10417 20367 56023"
"91506","MAF","2011-05-29 00:53:00",-102.2075,31.9466,102.02,6.98,3.01,260,13,NA,29.59,996,10,21,"CLR","   ","   ",NA,NA,NA,NA,NA,"BLDU",NA,NA,NA,NA,NA,NA,93.69,"KMAF 290053Z 26013G21KT 10SM BLDU CLR 39/M14 A2959 RMK AO2 SLP960 T03891139"
"92316","MAF","2011-07-01 20:53:00",-102.2075,31.9466,93.02,57.02,29.96,160,18,NA,29.99,1010.4,10,23,"SCT","   ","   ",NA,7000,NA,NA,NA,"BLDU",NA,NA,NA,29,160,"2011-07-01 20:41",91.66,"KMAF 012053Z 16018G23KT 10SM BLDU SCT070 34/14 A2999 RMK AO2 PK WND 16029/2041 SLP104 T03390139 56014"
"92317","MAF","2011-07-01 21:53:00",-102.2075,31.9466,95,55.94,27.1,180,16,NA,29.98,1009.9,10,21,"CLR","   ","   ",NA,NA,NA,NA,NA,"BLDU",NA,NA,NA,NA,NA,NA,93.39,"KMAF 012153Z 18016G21KT 10SM BLDU CLR 35/13 A2998 RMK AO2 SLP099 T03500133"
"95042","MAF","2011-10-17 20:53:00",-102.2075,31.9466,95,24.98,8.14,260,20,NA,29.76,1002.9,8,25,"CLR","   ","   ",NA,NA,NA,NA,NA,"BLDU",NA,NA,NA,28,280,"2011-10-17 20:27",88.93,"KMAF 172053Z 26020G25KT 8SM BLDU CLR 35/M04 A2976 RMK AO2 PK WND      28028/2027 SLP029 T03501039 56030"
"95043","MAF","2011-10-17 21:53:00",-102.2075,31.9466,95,24.98,8.14,290,13,NA,29.75,1002.5,10,24,"CLR","   ","   ",NA,NA,NA,NA,NA,"BLDU",NA,NA,NA,29,270,"2011-10-17 21:13",88.93,"KMAF 172153Z 29013G24KT 10SM BLDU CLR 35/M04 A2975 RMK AO2 PK WND      27029/2113 SLP025 T03501039"
"95048","MAF","2011-10-18 01:03:00",-102.2075,31.9466,80.6,37.4,21.25,10,30,NA,29.87,NA,0.5,47,"VV ","   ","   ",NA,1400,NA,NA,NA,"BLDU",NA,NA,NA,NA,NA,NA,79.02,"KMAF 180103Z 01030G47KT 1/2SM BLDU VV014 27/03 A2987 RMK AO2 PK      WND 01047/0100 RAB0059E01 PRESRR P0000"
"95049","MAF","2011-10-18 01:13:00",-102.2075,31.9466,77,39.2,25.67,20,30,NA,29.89,NA,0.5,44,"VV ","   ","   ",NA,900,NA,NA,NA,"BLDU",NA,NA,NA,NA,NA,NA,75.61,"KMAF 180113Z 02030G44KT 1/2SM BLDU VV009 25/04 A2989 RMK AO2 PK      WND 01047/0100 RAB0059E01 PRESRR P0000"
"95050","MAF","2011-10-18 01:44:00",-102.2075,31.9466,73.4,39.2,28.96,10,29,NA,29.92,NA,0.5,44,"VV ","   ","   ",NA,1100,NA,NA,NA,"BLDU",NA,NA,NA,NA,NA,NA,71.8,"KMAF 180144Z 01029G44KT 1/2SM BLDU VV011 23/04 A2992 RMK AO2 PK      WND 01047/0100 RAB0059E01 P0000"
"95416","MAF","2011-11-02 17:48:00",-102.2075,31.9466,69.8,42.8,37.61,360,29,NA,30.04,NA,1.75,37,"SCT","   ","   ",NA,1800,NA,NA,NA,"HZ BLDU",NA,NA,NA,37,360,"2011-11-02 17:45",69.8,"KMAF 021748Z 36029G37KT 1 3/4SM HZ BLDU SCT018 21/06 A3004 RMK AO2      PK WND 36037/1745 WSHFT 1730 PRESRR"
"95417","MAF","2011-11-02 17:53:00",-102.2075,31.9466,69.08,42.08,37.49,350,27,NA,30.04,1013.9,2,37,"SCT","BKN","   ",NA,2300,3300,NA,NA,"HZ BLDU",NA,NA,NA,37,360,"2011-11-02 17:45",69.08,"KMAF 021753Z 35027G37KT 2SM HZ BLDU SCT023 BKN033 21/06 A3004 RMK      AO2 PK WND 36037/1745 WSHFT 1735 PRESRR SLP139 T02060056      10261 20139 53024"
"95418","MAF","2011-11-02 17:59:00",-102.2075,31.9466,66.2,39.2,37.03,360,28,NA,30.05,NA,3,35,"BKN","BKN","   ",NA,2300,3300,NA,NA,"HZ BLDU",NA,NA,NA,35,350,"2011-11-02 17:54",66.2,"KMAF 021759Z 36028G35KT 3SM HZ BLDU BKN023 BKN033 19/04 A3005 RMK      AO2 PK WND 35035/1754 WSHFT 1740 PRESRR"
"95419","MAF","2011-11-02 18:08:00",-102.2075,31.9466,66.2,37.4,34.51,10,26,NA,30.06,NA,2,35,"BKN","OVC","   ",NA,1900,3000,NA,NA,"HZ BLDU",NA,NA,NA,35,10,"2011-11-02 18:05",66.2,"KMAF 021808Z 01026G35KT 2SM HZ BLDU BKN019 OVC030 19/03 A3006 RMK      AO2 PK WND 01035/1805 WSHFT 1740"
"95420","MAF","2011-11-02 18:53:00",-102.2075,31.9466,64.04,35.06,33.92,360,30,NA,30.09,1015.8,3,37,"OVC","   ","   ",NA,1900,NA,NA,NA,"HZ BLDU",NA,NA,NA,NA,NA,NA,64.04,"KMAF 021853Z 36030G37KT 3SM HZ BLDU OVC019 18/02 A3009 RMK AO2 PK      WND 35037/1852 WSHFT 1740 SLP158 T01780017"
"95421","MAF","2011-11-02 19:04:00",-102.2075,31.9466,64.4,35.6,34.22,360,28,NA,30.1,NA,2,38,"OVC","   ","   ",NA,1900,NA,NA,NA,"HZ BLDU",NA,NA,NA,NA,NA,NA,64.4,"KMAF 021904Z 36028G38KT 2SM HZ BLDU OVC019 18/02 A3010 RMK AO2 PK      WND 01038/1859"
"95422","MAF","2011-11-02 19:21:00",-102.2075,31.9466,64.4,33.8,31.85,360,28,NA,30.11,NA,3,36,"OVC","   ","   ",NA,2100,NA,NA,NA,"HZ BLDU",NA,NA,NA,NA,NA,NA,64.4,"KMAF 021921Z 36028G36KT 3SM HZ BLDU OVC021 18/01 A3011 RMK AO2 PK      WND 01038/1859"
"95423","MAF","2011-11-02 19:43:00",-102.2075,31.9466,62.6,33.8,33.93,360,28,NA,30.12,NA,2.5,37,"OVC","   ","   ",NA,2300,NA,NA,NA,"HZ BLDU",NA,NA,NA,38,10,"2011-11-02 18:59",62.6,"KMAF 021943Z 36028G37KT 2 1/2SM HZ BLDU OVC023 17/01 A3012 RMK AO2      PK WND 01038/1859"
"95424","MAF","2011-11-02 19:53:00",-102.2075,31.9466,62.96,32,31.17,360,30,NA,30.13,1017,2,38,"OVC","   ","   ",NA,2300,NA,NA,NA,"HZ BLDU",NA,NA,NA,NA,NA,NA,62.96,"KMAF 021953Z 36030G38KT 2SM HZ BLDU OVC023 17/00 A3013 RMK AO2 PK      WND 01038/1944 VIS 1 1/2V3 SLP170 T01720000"
"95425","MAF","2011-11-02 20:20:00",-102.2075,31.9466,62.6,32,31.56,10,29,NA,30.15,NA,3,38,"OVC","   ","   ",NA,2700,NA,NA,NA,"HZ BLDU",NA,NA,NA,NA,NA,NA,62.6,"KMAF 022020Z 01029G38KT 3SM HZ BLDU OVC027 17/00 A3015 RMK AO2 PK      WND 36038/2014"
"95426","MAF","2011-11-02 21:53:00",-102.2075,31.9466,57.02,26.96,31.36,10,27,NA,30.22,1020.5,2.5,37,"OVC","   ","   ",NA,2700,NA,NA,NA,"HZ BLDU",NA,NA,NA,41,10,"2011-11-02 21:04",57.02,"KMAF 022153Z 01027G37KT 2 1/2SM HZ BLDU OVC027 14/M03 A3022 RMK      AO2 PK WND 01041/2104 SLP205 T01391028"
"95427","MAF","2011-11-02 22:08:00",-102.2075,31.9466,57.2,24.8,28.48,360,29,NA,30.22,NA,1.5,39,"OVC","   ","   ",NA,2700,NA,NA,NA,"HZ BLDU",NA,NA,NA,39,360,"2011-11-02 22:07",57.2,"KMAF 022208Z 36029G39KT 1 1/2SM HZ BLDU OVC027 14/M04 A3022 RMK      AO2 PK WND 36039/2207"
"95428","MAF","2011-11-02 22:18:00",-102.2075,31.9466,55.4,26.6,32.76,10,32,NA,30.23,NA,2,38,"OVC","   ","   ",NA,2700,NA,NA,NA,"HZ BLDU",NA,NA,NA,NA,NA,NA,55.4,"KMAF 022218Z 01032G38KT 2SM HZ BLDU OVC027 13/M03 A3023 RMK AO2 PK      WND 36039/2207"
"95429","MAF","2011-11-02 22:25:00",-102.2075,31.9466,55.4,24.8,30.4,360,25,NA,30.24,NA,1.75,38,"OVC","   ","   ",NA,2700,NA,NA,NA,"HZ BLDU",NA,NA,NA,39,360,"2011-11-02 22:07",55.4,"KMAF 022225Z 36025G38KT 1 3/4SM HZ BLDU OVC027 13/M04 A3024 RMK      AO2 PK WND 36039/2207"
"95430","MAF","2011-11-02 22:53:00",-102.2075,31.9466,53.96,26.06,33.76,10,28,NA,30.26,1022.3,1.75,35,"OVC","   ","   ",NA,2700,NA,NA,NA,"HZ BLDU",NA,NA,NA,39,360,"2011-11-02 22:07",53.96,"KMAF 022253Z 01028G35KT 1 3/4SM HZ BLDU OVC027 12/M03 A3026 RMK      AO2 PK WND 36039/2207 SLP223 T01221033"
"95431","MAF","2011-11-02 23:53:00",-102.2075,31.9466,51.08,26.06,37.54,10,27,NA,30.32,1024.5,2.5,36,"BKN","   ","   ",NA,2700,NA,NA,NA,"HZ BLDU",NA,NA,NA,37,360,"2011-11-02 23:18",51.08,"KMAF 022353Z 01027G36KT 2 1/2SM HZ BLDU BKN027 11/M03 A3032 RMK      AO2 PK WND 36037/2318 SLP245 T01061033 10206 20106 53046"
"95432","MAF","2011-11-03 00:53:00",-102.2075,31.9466,48.02,24.98,40.22,10,26,NA,30.37,1026.4,2.5,32,"BKN","   ","   ",NA,2700,NA,NA,NA,"HZ BLDU",NA,NA,NA,34,10,"2011-11-02 23:59",39.34,"KMAF 030053Z 01026G32KT 2 1/2SM HZ BLDU BKN027 09/M04 A3037 RMK      AO2 PK WND 01034/2359 SLP264 T00891039"
"95433","MAF","2011-11-03 01:00:00",-102.2075,31.9466,48.2,24.8,39.66,10,27,NA,30.37,NA,5,32,"OVC","   ","   ",NA,2400,NA,NA,NA,"HZ BLDU",NA,NA,NA,NA,NA,NA,39.42,"KMAF 030100Z 01027G32KT 5SM HZ BLDU OVC024 09/M04 A3037 RMK AO2 PK      WND 01032/0059"
"95434","MAF","2011-11-03 01:53:00",-102.2075,31.9466,46.04,26.06,45.33,10,20,NA,30.4,1027.8,9,27,"OVC","   ","   ",NA,2400,NA,NA,NA,"BLDU",NA,NA,NA,NA,NA,NA,37.79,"KMAF 030153Z 01020G27KT 9SM BLDU OVC024 08/M03 A3040 RMK AO2 PK      WND 01034/0107 SLP278 T00781033"
"95435","MAF","2011-11-03 02:46:00",-102.2075,31.9466,44.6,24.8,45.44,10,18,NA,30.44,NA,10,26,"SCT","   ","   ",NA,2600,NA,NA,NA,"BLDU",NA,NA,NA,NA,NA,NA,36.34,"KMAF 030246Z 01018G26KT 10SM BLDU SCT026 07/M04 A3044 RMK AO2 PK      WND 02030/0230"
"95436","MAF","2011-11-03 02:53:00",-102.2075,31.9466,44.06,24.98,46.73,20,15,NA,30.44,1028.8,10,23,"FEW","   ","   ",NA,2600,NA,NA,NA,"BLDU",NA,NA,NA,NA,NA,NA,36.41,"KMAF 030253Z 02015G23KT 10SM BLDU FEW026 07/M04 A3044 RMK AO2 PK      WND 02030/0230 SLP288 T00671039 51038"
"95437","MAF","2011-11-03 03:53:00",-102.2075,31.9466,42.08,26.06,52.73,10,12,NA,30.46,1029.3,10,NA,"CLR","   ","   ",NA,NA,NA,NA,NA,"BLDU",NA,NA,NA,NA,NA,NA,34.83,"KMAF 030353Z 01012KT 10SM BLDU CLR 06/M03 A3046 RMK AO2 SLP293      T00561033"
"96015","MAF","2011-11-26 15:25:00",-102.2075,31.9466,50,28.4,43.03,360,29,NA,30.19,NA,1.25,43,"SCT","SCT","BKN",NA,800,11000,18000,NA,"BLDU",NA,NA,NA,NA,NA,NA,41.59,"KMAF 261525Z COR 36029G43KT 1 1/4SM BLDU SCT008 SCT110 BKN180      10/M02 A3019 RMK AO2 PK WND 36043/1523"
"96016","MAF","2011-11-26 15:45:00",-102.2075,31.9466,50,30.2,46.31,10,29,NA,30.21,NA,3,38,"SCT","SCT","BKN",NA,800,11000,18000,NA,"BLDU",NA,NA,NA,NA,NA,NA,41.59,"KMAF 261545Z 01029G38KT 3SM BLDU SCT008 SCT110 BKN180 10/M01 A3021      RMK AO2 PK WND 01045/1530"
"96017","MAF","2011-11-26 15:53:00",-102.2075,31.9466,51.08,30.02,44.16,360,30,NA,30.22,1021.2,4,37,"SCT","SCT","BKN",NA,800,11000,18000,NA,"BLDU",NA,NA,NA,NA,NA,NA,51.08,"KMAF 261553Z 36030G37KT 4SM BLDU SCT008 SCT110 BKN180 11/M01 A3022      RMK AO2 PK WND 01045/1530 SLP212 T01061011"
"96018","MAF","2011-11-26 16:03:00",-102.2075,31.9466,50,28.4,43.03,360,31,NA,30.22,NA,2.5,40,"BKN","   ","   ",NA,2000,NA,NA,NA,"BLDU",NA,NA,NA,NA,NA,NA,41.32,"KMAF 261603Z 36031G40KT 2 1/2SM BLDU BKN020 10/M02 A3022 RMK AO2      PK WND 36040/1558 VIS 1 1/2V5"
"96019","MAF","2011-11-26 16:14:00",-102.2075,31.9466,50,28.4,43.03,360,33,NA,30.24,NA,1.5,40,"BKN","   ","   ",NA,1800,NA,NA,NA,"BLDU",NA,NA,NA,NA,NA,NA,41.06,"KMAF 261614Z 36033G40KT 1 1/2SM BLDU BKN018 10/M02 A3024 RMK AO2      PK WND 01040/1613"
"96020","MAF","2011-11-26 16:49:00",-102.2075,31.9466,46.4,28.4,49.24,360,27,NA,30.27,NA,3,39,"BKN","OVC","   ",NA,2200,8000,NA,NA,"BLDU",NA,NA,NA,NA,NA,NA,36.97,"KMAF 261649Z 36027G39KT 3SM BLDU BKN022 OVC080 08/M02 A3027 RMK      AO2 PK WND 36043/1617"
"96021","MAF","2011-11-26 16:53:00",-102.2075,31.9466,46.94,28.94,49.33,360,28,NA,30.28,1023.6,3,38,"OVC","   ","   ",NA,2200,NA,NA,NA,"BLDU",NA,NA,NA,NA,NA,NA,37.55,"KMAF 261653Z 36028G38KT 3SM BLDU OVC022 08/M02 A3028 RMK AO2 PK      WND 36043/1617 SLP236 T00831017"
"96022","MAF","2011-11-26 16:57:00",-102.2075,31.9466,46.4,28.4,49.24,360,36,NA,30.28,NA,1.5,47,"BKN","OVC","   ",NA,2200,2700,NA,NA,"BLDU",NA,NA,NA,NA,NA,NA,35.67,"KMAF 261657Z 36036G47KT 1 1/2SM BLDU BKN022 OVC027 08/M02 A3028      RMK AO2 PK WND 36047/1657"
"96023","MAF","2011-11-26 17:05:00",-102.2075,31.9466,46.4,26.6,45.73,10,37,NA,30.29,NA,0.5,47,"VV ","   ","   ",NA,2000,NA,NA,NA,"BLDU",NA,NA,NA,NA,NA,NA,35.54,"KMAF 261705Z 01037G47KT 1/2SM BLDU VV020 08/M03 A3029 RMK AO2 PK      WND 36047/1657 PRESRR"
"96024","MAF","2011-11-26 17:53:00",-102.2075,31.9466,50,26.96,40.55,10,31,NA,30.3,1024.3,2,39,"BKN","OVC","   ",NA,2300,3300,NA,NA,"BLDU",NA,NA,NA,NA,NA,NA,41.32,"KMAF 261753Z 01031G39KT 2SM BLDU BKN023 OVC033 10/M03 A3030 RMK      AO2 PK WND 36047/1657 SLP243 T01001028 10106 20072 51026"
"96025","MAF","2011-11-26 18:53:00",-102.2075,31.9466,50,17.96,27.75,10,30,NA,30.3,1024.4,2,44,"BKN","OVC","   ",NA,2500,3400,NA,NA,"BLDU",NA,NA,NA,47,10,"2011-11-26 18:43",41.45,"KMAF 261853Z 01030G44KT 2SM BLDU BKN025 OVC034 10/M08 A3030 RMK      AO2 PK WND 01047/1843 SLP244 T01001078"
"96026","MAF","2011-11-26 19:10:00",-102.2075,31.9466,50,12.2,21.59,10,30,NA,30.3,NA,0.5,41,"BKN","OVC","   ",NA,2300,3400,NA,NA,"BLDU",NA,NA,NA,NA,NA,NA,41.45,"KMAF 261910Z 01030G41KT 1/2SM BLDU BKN023 OVC034 10/M11 A3030 RMK      AO2 PK WND 02041/1905"
"96027","MAF","2011-11-26 19:53:00",-102.2075,31.9466,51.08,10.04,18.84,360,28,NA,30.29,1023.8,0.5,39,"VV ","   ","   ",NA,1900,NA,NA,NA,"BLDU",NA,NA,NA,NA,NA,NA,51.08,"KMAF 261953Z 36028G39KT 1/2SM BLDU VV019 11/M12 A3029 RMK AO2 PK      WND 02041/1919 SLP238 T01061122"
"96028","MAF","2011-11-26 20:40:00",-102.2075,31.9466,50,10.4,19.93,350,27,NA,30.29,NA,1,34,"BKN","OVC","   ",NA,2100,3200,NA,NA,"BLDU",NA,NA,NA,41,350,"2011-11-26 20:18",41.88,"KMAF 262040Z 35027G34KT 1SM BLDU BKN021 OVC032 10/M12 A3029 RMK      AO2 PK WND 35041/2018"
"96029","MAF","2011-11-26 20:53:00",-102.2075,31.9466,51.08,10.94,19.61,350,25,NA,30.3,1024.3,1.25,33,"BKN","OVC","   ",NA,2300,3400,NA,NA,"BLDU",NA,NA,NA,NA,NA,NA,51.08,"KMAF 262053Z 35025G33KT 1 1/4SM BLDU BKN023 OVC034 11/M12 A3030      RMK AO2 PK WND 35041/2018 SLP243 T01061117 55001"
"96030","MAF","2011-11-26 21:53:00",-102.2075,31.9466,50,8.96,18.69,350,28,NA,30.31,1024.8,1.5,34,"BKN","OVC","   ",NA,2900,3600,NA,NA,"BLDU",NA,NA,NA,34,350,"2011-11-26 21:46",41.73,"KMAF 262153Z 35028G34KT 1 1/2SM BLDU BKN029 OVC036 10/M13 A3031      RMK AO2 PK WND 35034/2146 SLP248 T01001128"
"96031","MAF","2011-11-26 22:14:00",-102.2075,31.9466,50,8.6,18.39,340,25,NA,30.33,NA,1.5,33,"OVC","   ","   ",NA,3200,NA,NA,NA,"BLDU",NA,NA,NA,NA,NA,NA,42.18,"KMAF 262214Z 34025G33KT 1 1/2SM BLDU OVC032 10/M13 A3033 RMK AO2      PK WND 36034/2157"
"96032","MAF","2011-11-26 22:53:00",-102.2075,31.9466,48.92,10.04,20.42,350,25,NA,30.34,1025.8,1.5,32,"OVC","   ","   ",NA,3600,NA,NA,NA,"BLDU",NA,NA,NA,36,340,"2011-11-26 22:34",40.72,"KMAF 262253Z 35025G32KT 1 1/2SM BLDU OVC036 09/M12 A3034 RMK AO2      PK WND 34036/2234 SLP258 T00941122"
"96033","MAF","2011-11-26 23:53:00",-102.2075,31.9466,46.94,12.92,24.99,350,19,NA,30.36,1027,1.5,25,"OVC","   ","   ",NA,4200,NA,NA,NA,"BLDU",NA,NA,NA,NA,NA,NA,39.19,"KMAF 262353Z 35019G25KT 1 1/2SM BLDU OVC042 08/M11 A3036 RMK AO2      PK WND 36035/2306 SLP270 T00831106 10111 20083 53020"
"98552","MAF","2012-02-24 00:53:00",-102.2075,31.9466,66.02,30.02,25.85,40,24,0,29.69,1002.1,6,28,"CLR",NA,NA,NA,NA,NA,NA,NA,"HZ BLDU",NA,NA,NA,28,50,"2012-02-24 00:52",66.02,"KMAF 240053Z 04024G28KT 6SM HZ BLDU CLR 19/M01 A2969 RMK AO2 PK WND 05028/0052 WSHFT 0014 SLP021 T01891011 $"
"98553","MAF","2012-02-24 01:53:00",-102.2075,31.9466,60.08,30.02,31.85,40,23,0,29.75,1004.9,10,28,"CLR",NA,NA,NA,NA,NA,NA,NA,"BLDU",NA,NA,NA,31,40,"2012-02-24 01:32",60.08,"KMAF 240153Z 04023G28KT 10SM BLDU CLR 16/M01 A2975 RMK AO2 PK WND 04031/0132 SLP049 T01561011"
"98554","MAF","2012-02-24 02:53:00",-102.2075,31.9466,55.94,28.04,34.09,40,18,0,29.82,1006.9,10,27,"CLR",NA,NA,NA,NA,NA,NA,NA,"BLDU",NA,NA,NA,27,40,"2012-02-24 02:50",55.94,"KMAF 240253Z 04018G27KT 10SM BLDU CLR 13/M02 A2982 RMK AO2 PK WND 04027/0250 SLP069 T01331022 51063"
"98556","MAF","2012-02-24 04:53:00",-102.2075,31.9466,48.02,15.98,27.43,30,24,0,29.97,1012.1,10,32,"CLR",NA,NA,NA,NA,NA,NA,NA,"BLDU",NA,NA,NA,34,40,"2012-02-24 04:03",39.67,"KMAF 240453Z 03024G32KT 10SM BLDU CLR 09/M09 A2997 RMK AO2 PK WND 04034/0403 SLP121 T00891089"
"98557","MAF","2012-02-24 05:53:00",-102.2075,31.9466,44.96,12.02,25.89,20,22,0,30.03,1013.7,10,29,"CLR",NA,NA,NA,NA,NA,NA,NA,"BLDU",NA,NA,NA,31,30,"2012-02-24 05:17",35.93,"KMAF 240553Z 02022G29KT 10SM BLDU CLR 07/M11 A3003 RMK AO2 PK WND 03031/0517 SLP137 T00721111 10261 20072 402890072 51065"
"98558","MAF","2012-02-24 06:53:00",-102.2075,31.9466,42.98,12.92,29.05,20,20,0,30.07,1015.4,10,24,"CLR",NA,NA,NA,NA,NA,NA,NA,"BLDU",NA,NA,NA,31,30,"2012-02-24 06:13",33.72,"KMAF 240653Z AUTO 02020G24KT 10SM BLDU CLR 06/M11 A3007 RMK AO2 PK WND 03031/0613 SLP154 T00611106 TSNO"
"98559","MAF","2012-02-24 07:53:00",-102.2075,31.9466,41,15.08,34.47,10,13,0,30.11,1016.8,10,NA,"CLR",NA,NA,NA,NA,NA,NA,NA,"BLDU",NA,NA,NA,NA,NA,NA,33.1,"KMAF 240753Z AUTO 01013KT 10SM BLDU CLR 05/M09 A3011 RMK AO2 SLP168 T00501094 TSNO"
"98560","MAF","2012-02-24 08:53:00",-102.2075,31.9466,39.92,17.06,39.17,360,14,0,30.13,1017.3,10,NA,"CLR",NA,NA,NA,NA,NA,NA,NA,"BLDU",NA,NA,NA,NA,NA,NA,31.37,"KMAF 240853Z AUTO 36014KT 10SM BLDU CLR 04/M08 A3013 RMK AO2 SLP173 T00441083 51032 TSNO"
"98561","MAF","2012-02-24 09:53:00",-102.2075,31.9466,37.94,17.06,42.32,360,8,0,30.14,1017.9,10,NA,"CLR",NA,NA,NA,NA,NA,NA,NA,"BLDU",NA,NA,NA,NA,NA,NA,31.43,"KMAF 240953Z AUTO 36008KT 10SM BLDU CLR 03/M08 A3014 RMK AO2 SLP179 T00331083 TSNO"
"98562","MAF","2012-02-24 10:53:00",-102.2075,31.9466,37.04,17.96,45.58,340,9,0,30.17,1018.9,10,NA,"CLR",NA,NA,NA,NA,NA,NA,NA,"BLDU",NA,NA,NA,NA,NA,NA,29.78,"KMAF 241053Z AUTO 34009KT 10SM BLDU CLR 03/M08 A3017 RMK AO2 SLP189 T00281078 TSNO"
"98563","MAF","2012-02-24 11:53:00",-102.2075,31.9466,35.06,17.96,49.3,350,9,0,30.19,1020.1,10,NA,"CLR",NA,NA,NA,NA,NA,NA,NA,"BLDU",NA,NA,NA,NA,NA,NA,27.32,"KMAF 241153Z 35009KT 10SM BLDU CLR 02/M08 A3019 RMK AO2 SLP201 T00171078 10072 20017 53021"
"98564","MAF","2012-02-24 12:53:00",-102.2075,31.9466,33.08,17.96,53.36,360,7,0,30.22,1021.5,10,NA,"CLR",NA,NA,NA,NA,NA,NA,NA,"BLDU",NA,NA,NA,NA,NA,NA,26.1,"KMAF 241253Z 36007KT 10SM BLDU CLR 01/M08 A3022 RMK AO2 SLP215 T00061078"
"99720","MAF","2012-04-07 23:53:00",-102.2075,31.9466,80.06,50,35.03,40,28,0,30.06,1014,3,36,"SCT","SCT",NA,NA,3300,9000,NA,NA,"BLDU",NA,NA,NA,37,30,"2012-04-07 23:43",80.06,"KMAF 072353Z 04028G36KT 3SM BLDU SCT033 SCT090 27/10 A3006 RMK AO2 PK WND 03037/2343 SLP140 T02670100 10322 20267 53001"
"99721","MAF","2012-04-08 00:24:00",-102.2075,31.9466,75.2,51.8,43.97,80,22,0,30.13,NA,3,33,"FEW","BKN",NA,NA,3000,6000,NA,NA,"VCTS BLDU",NA,NA,NA,37,60,"2012-04-07 23:54",75.2,"KMAF 080024Z 08022G33KT 3SM VCTS BLDU FEW030 BKN060 24/11 A3013 RMK AO2 PK WND 06037/2354 LTG DSNT E-SW TSB18 PRESRR"
"102252","MAF","2012-07-16 02:53:00",-102.2075,31.9466,82.9,60.1,46.12,120,21,0,29.98,1010.1,10,NA,"CLR",NA,NA,NA,NA,NA,NA,NA,"BLDU",NA,NA,NA,NA,NA,NA,83.13,"KMAF 160253Z 12021KT 10SM BLDU CLR 28/16 A2998 RMK AO2 PK WND 12031/0243 SLP101 T02830156 53010"
"102450","MAF","2012-07-23 23:22:00",-102.2075,31.9466,87.8,60.8,40.41,120,32,0,30.05,NA,5,38,"SCT",NA,NA,NA,10000,NA,NA,NA,"DU",NA,NA,NA,NA,NA,NA,87.75,"KMAF 232322Z 12032G38KT 5SM DU SCT100CB 31/16 A3005 RMK AO2 PK WND 12038/2321 WSHFT 2302 CB SE MOV W"
"105308","MAF","2012-11-10 19:20:00",-102.2075,31.9466,80.6,51.8,36.79,200,24,0,29.77,NA,3,30,"FEW",NA,NA,NA,400,NA,NA,NA,"BLDU",NA,NA,NA,30,190,"2012-11-10 19:19",80.6,"KMAF 101920Z 20024G30KT 3SM BLDU FEW004 27/11 A2977 RMK AO2 PK WND 19030/1919"
"105309","MAF","2012-11-10 19:33:00",-102.2075,31.9466,80.6,53.6,39.3,190,23,0,29.76,NA,5,29,"FEW",NA,NA,NA,700,NA,NA,NA,"BLDU",NA,NA,NA,30,190,"2012-11-10 19:19",80.6,"KMAF 101933Z 19023G29KT 5SM BLDU FEW007 27/12 A2976 RMK AO2 PK WND 19030/1919"
"105310","MAF","2012-11-10 19:53:00",-102.2075,31.9466,80.06,53.06,39.22,190,22,0,29.75,1003,8,29,"CLR",NA,NA,NA,NA,NA,NA,NA,"BLDU",NA,NA,NA,30,190,"2012-11-10 19:36",80.06,"KMAF 101953Z 19022G29KT 8SM BLDU CLR 27/12 A2975 RMK AO2 PK WND 19030/1936 SLP030 T02670117"
"105311","MAF","2012-11-10 20:53:00",-102.2075,31.9466,80.96,51.08,35.4,180,18,0,29.72,1002,10,30,"CLR",NA,NA,NA,NA,NA,NA,NA,"BLDU",NA,NA,NA,33,180,"2012-11-10 20:33",80.96,"KMAF 102053Z 18018G30KT 10SM BLDU CLR 27/11 A2972 RMK AO2 PK WND 18033/2033 SLP020 T02720106 56038"
"106169","MAF","2012-12-14 17:49:00",-102.2075,31.9466,60.8,51.8,72.2,170,24,0,29.85,NA,7,28,"BKN",NA,NA,NA,10000,NA,NA,NA,"BLDU",NA,NA,NA,31,170,"2012-12-14 17:28",60.8,"KMAF 141749Z 17024G28KT 7SM BLDU BKN100 16/11 A2985 RMK AO2 PK WND 17031/1728"
"106170","MAF","2012-12-14 17:53:00",-102.2075,31.9466,60.08,51.08,72.13,180,22,0,29.85,1008.2,7,28,"BKN",NA,NA,NA,10000,NA,NA,NA,"BLDU",NA,NA,NA,31,170,"2012-12-14 17:28",60.08,"KMAF 141753Z 18022G28KT 7SM BLDU BKN100 16/11 A2985 RMK AO2 PK WND 17031/1728 PRESFR SLP082 T01560106 10161 20111 58015"
"106171","MAF","2012-12-14 18:53:00",-102.2075,31.9466,60.98,51.08,69.86,180,23,0,29.78,1005.9,5,34,"CLR",NA,NA,NA,NA,NA,NA,NA,"HZ BLDU",NA,NA,NA,34,170,"2012-12-14 18:46",60.98,"KMAF 141853Z 18023G34KT 5SM HZ BLDU CLR 16/11 A2978 RMK AO2 PK WND 17034/1846 SLP059 T01610106"
"106172","MAF","2012-12-14 19:53:00",-102.2075,31.9466,62.96,51.08,65.14,180,27,0,29.74,1004.2,7,32,"CLR",NA,NA,NA,NA,NA,NA,NA,"BLDU",NA,NA,NA,34,180,"2012-12-14 19:26",62.96,"KMAF 141953Z 18027G32KT 7SM BLDU CLR 17/11 A2974 RMK AO2 PK WND 18034/1926 SLP042 T01720106"
"106173","MAF","2012-12-14 20:53:00",-102.2075,31.9466,64.04,50,60.25,190,24,0,29.73,1003.9,8,33,"CLR",NA,NA,NA,NA,NA,NA,NA,"BLDU",NA,NA,NA,34,190,"2012-12-14 20:20",64.04,"KMAF 142053Z 19024G33KT 8SM BLDU CLR 18/10 A2973 RMK AO2 PK WND 19034/2020 SLP039 T01780100 56037"
"106174","MAF","2012-12-14 21:53:00",-102.2075,31.9466,64.04,50,60.25,180,22,0,29.71,1003.4,9,34,"CLR",NA,NA,NA,NA,NA,NA,NA,"BLDU",NA,NA,NA,34,180,"2012-12-14 21:45",64.04,"KMAF 142153Z 18022G34KT 9SM BLDU CLR 18/10 A2971 RMK AO2 PK WND 18034/2145 SLP034 T01780100"
"106175","MAF","2012-12-14 22:42:00",-102.2075,31.9466,57.2,42.8,58.52,290,20,0,29.84,NA,10,26,"BKN","OVC",NA,NA,3500,4600,NA,NA,"BLDU",NA,NA,NA,NA,NA,NA,57.2,"KMAF 142242Z 29020G26KT 10SM BLDU BKN035 OVC046 14/06 A2984"
"106176","MAF","2012-12-14 22:53:00",-102.2075,31.9466,57.02,44.06,61.81,300,16,0,29.85,1008.4,10,23,"OVC",NA,NA,NA,3500,NA,NA,NA,"BLDU",NA,NA,NA,29,260,"2012-12-14 22:31",57.02,"KMAF 142253Z 30016G23KT 10SM BLDU OVC035 14/07 A2985 RMK AO2 PK WND 26029/2231 WSHFT 2222 SLP084 T01390067"
"106177","MAF","2012-12-14 23:53:00",-102.2075,31.9466,55.04,33.98,44.8,280,16,0,29.89,1009.7,10,24,"SCT",NA,NA,NA,7500,NA,NA,NA,"BLDU",NA,NA,NA,NA,NA,NA,55.04,"KMAF 142353Z 28016G24KT 10SM BLDU SCT075 13/01 A2989 RMK AO2 SLP097 T01280011 10183 20128 53049"
"106295","MAF","2012-12-19 21:44:00",-102.2075,31.9466,69.8,24.8,18.3,270,27,0,29.69,NA,2,35,"BKN",NA,NA,NA,1800,NA,NA,NA,"BLDU",NA,NA,NA,35,260,"2012-12-19 21:44",69.8,"KMAF 192144Z 27027G35KT 2SM BLDU BKN018 21/M04 A2969 RMK AO2 PK WND 26035/2144"
"106296","MAF","2012-12-19 21:53:00",-102.2075,31.9466,69.08,26.06,19.77,270,22,0,29.69,1002.6,2.5,35,"CLR",NA,NA,NA,NA,NA,NA,NA,"BLDU",NA,NA,NA,NA,NA,NA,69.08,"KMAF 192153Z 27022G35KT 2 1/2SM BLDU CLR 21/M03 A2969 RMK AO2 PK WND 26035/2150 SLP026 T02061033"
"106297","MAF","2012-12-19 21:55:00",-102.2075,31.9466,69.8,26.6,19.72,270,25,0,29.69,NA,3,35,"BKN",NA,NA,NA,1800,NA,NA,NA,"BLDU",NA,NA,NA,NA,NA,NA,69.8,"KMAF 192155Z 27025G35KT 3SM BLDU BKN018 21/M03 A2969 RMK AO2 PK WND 27032/2154"
"106298","MAF","2012-12-19 22:02:00",-102.2075,31.9466,69.8,26.6,19.72,270,26,0,29.7,NA,5,33,"CLR",NA,NA,NA,NA,NA,NA,NA,"BLDU",NA,NA,NA,NA,NA,NA,69.8,"KMAF 192202Z 27026G33KT 5SM BLDU CLR 21/M03 A2970 RMK AO2 PK WND 27033/2201"
"106299","MAF","2012-12-19 22:31:00",-102.2075,31.9466,66.2,32,27.83,280,24,0,29.73,NA,2,34,"CLR",NA,NA,NA,NA,NA,NA,NA,"BLDU",NA,NA,NA,NA,NA,NA,66.2,"KMAF 192231Z 28024G34KT 2SM BLDU CLR 19/00 A2973 RMK AO2 PK WND 28034/2231 PRESRR"
"106300","MAF","2012-12-19 22:53:00",-102.2075,31.9466,64.94,32,29.08,280,26,0,29.75,1004.7,2,38,"CLR",NA,NA,NA,NA,NA,NA,NA,"BLDU",NA,NA,NA,NA,NA,NA,64.94,"KMAF 192253Z 28026G38KT 2SM BLDU CLR 18/00 A2975 RMK AO2 PK WND 28038/2244 SLP047 T01830000"
"106301","MAF","2012-12-19 23:09:00",-102.2075,31.9466,62.6,30.2,29.35,280,33,0,29.77,NA,0.75,45,"CLR",NA,NA,NA,NA,NA,NA,NA,"BLDU",NA,NA,NA,NA,NA,NA,62.6,"KMAF 192309Z 28033G45KT 3/4SM BLDU CLR 17/M01 A2977 RMK AO2 PK WND 28045/2306"
"106302","MAF","2012-12-19 23:53:00",-102.2075,31.9466,60.08,28.04,29.38,290,23,0,29.8,1006.8,1,32,"CLR",NA,NA,NA,NA,NA,NA,NA,"BLDU",NA,NA,NA,NA,NA,NA,60.08,"KMAF 192353Z 29023G32KT 1SM BLDU CLR 16/M02 A2980 RMK AO2 PK WND 28045/2306 SLP068 T01561022 10211 20156 53041"
"106303","MAF","2012-12-20 00:53:00",-102.2075,31.9466,57.02,19.04,22.48,290,21,0,29.87,1009.3,1,33,"CLR",NA,NA,NA,NA,NA,NA,NA,"BLDU",NA,NA,NA,43,290,"2012-12-20 00:14",57.02,"KMAF 200053Z 29021G33KT 1SM BLDU CLR 14/M07 A2987 RMK AO2 PK WND 29043/0014 PRESRR SLP093 T01391072"
"106304","MAF","2012-12-20 01:00:00",-102.2075,31.9466,57.2,17.6,20.99,280,24,0,29.88,NA,3,32,"CLR",NA,NA,NA,NA,NA,NA,NA,"BLDU",NA,NA,NA,32,280,"2012-12-20 00:55",57.2,"KMAF 200100Z 28024G32KT 3SM BLDU CLR 14/M08 A2988 RMK AO2 PK WND 28032/0055 PRESRR"
"106305","MAF","2012-12-20 01:53:00",-102.2075,31.9466,53.06,6.98,15.26,310,16,0,29.95,1012,5,23,"CLR",NA,NA,NA,NA,NA,NA,NA,"BLDU",NA,NA,NA,33,270,"2012-12-20 01:10",53.06,"KMAF 200153Z 31016G23KT 5SM BLDU CLR 12/M14 A2995 RMK AO2 PK WND 27033/0110 SLP120 T01171139"
"106306","MAF","2012-12-20 02:53:00",-102.2075,31.9466,50,8.06,17.94,310,19,0,30,1014.1,10,26,"CLR",NA,NA,NA,NA,NA,NA,NA,"BLDU",NA,NA,NA,27,310,"2012-12-20 02:42",43.24,"KMAF 200253Z 31019G26KT 10SM BLDU CLR 10/M13 A3000 RMK AO2 PK WND 31027/0242 SLP141 T01001133 51063"
"106451","MAF","2012-12-25 21:04:00",-102.2075,31.9466,35.6,12.2,37.53,340,19,0,30.1,NA,5,24,"CLR",NA,NA,NA,NA,NA,NA,NA,"BLDU",NA,NA,NA,NA,NA,NA,24.2,"KMAF 252104Z 34019G24KT 5SM BLDU CLR 02/M11 A3010 RMK AO2"
"106452","MAF","2012-12-25 21:53:00",-102.2075,31.9466,33.08,12.02,41.17,350,17,0,30.1,1018.1,5,25,"CLR",NA,NA,NA,NA,NA,NA,NA,"BLDU",NA,NA,NA,28,340,"2012-12-25 21:16",21.49,"KMAF 252153Z 35017G25KT 5SM BLDU CLR 01/M11 A3010 RMK AO2 PK WND 34028/2116 SLP181 T00061111"
"106453","MAF","2012-12-25 22:53:00",-102.2075,31.9466,30.92,12.02,44.92,340,20,0,30.12,1019.4,6,24,"CLR",NA,NA,NA,NA,NA,NA,NA,"BLDU",NA,NA,NA,27,350,"2012-12-25 22:38",17.7,"KMAF 252253Z 34020G24KT 6SM BLDU CLR M01/M11 A3012 RMK AO2 PK WND 35027/2238 SLP194 T10061111"
"106454","MAF","2012-12-25 23:53:00",-102.2075,31.9466,28.94,12.02,48.69,350,13,0,30.14,1020.2,8,24,"CLR",NA,NA,NA,NA,NA,NA,NA,"BLDU",NA,NA,NA,28,330,"2012-12-25 22:54",17.65,"KMAF 252353Z 35013G24KT 8SM BLDU CLR M02/M11 A3014 RMK AO2 PK WND 33028/2254 SLP202 T10171111 10022 21017 53013"
"106570","MAF","2012-12-30 17:53:00",-102.2075,31.9466,42.98,14,30.47,170,20,0,30.15,1021,6,28,"CLR",NA,NA,NA,NA,NA,NA,NA,"BLDU",NA,NA,NA,28,180,"2012-12-30 17:47",33.72,"KMAF 301753Z 17020G28KT 6SM BLDU CLR 06/M10 A3015 RMK AO2 PK WND 18028/1747 SLP210 T00611100 10061 20006 58009"
"106571","MAF","2012-12-30 18:53:00",-102.2075,31.9466,44.06,15.98,31.87,170,24,0,30.12,1019.5,7,28,"OVC",NA,NA,NA,10000,NA,NA,NA,"BLDU",NA,NA,NA,28,170,"2012-12-30 18:53",34.33,"KMAF 301853Z 17024G28KT 7SM BLDU OVC100 07/M09 A3012 RMK AO2 PK WND 17028/1853 SLP195 T00671089"
"107404","MAF","2013-01-29 17:29:00",-102.2075,31.9466,53.6,24.8,32.46,260,30,0,29.79,NA,5,42,"CLR",NA,NA,NA,NA,NA,NA,NA,"BLDU",NA,NA,NA,42,250,"2013-01-29 17:27",53.6,"KMAF 291729Z 26030G42KT 5SM BLDU CLR 12/M04 A2979 RMK AO2 PK WND 25042/1727"
"107405","MAF","2013-01-29 17:53:00",-102.2075,31.9466,53.06,26.06,34.89,260,27,0,29.77,1005.4,5,38,"BKN","BKN",NA,NA,7000,11000,NA,NA,"BLDU",NA,NA,NA,42,250,"2013-01-29 17:27",53.06,"KMAF 291753Z 26027G38KT 5SM BLDU BKN070 BKN110 12/M03 A2977 RMK AO2 PK WND 25042/1727 SLP054 T01171033 10122 20067 50005"
"107406","MAF","2013-01-29 18:53:00",-102.2075,31.9466,51.08,24.98,35.89,260,31,0,29.75,1004.7,8,38,"FEW","OVC",NA,NA,7000,9500,NA,NA,"BLDU",NA,NA,NA,40,260,"2013-01-29 18:43",51.08,"KMAF 291853Z 26031G38KT 8SM BLDU FEW070 OVC095 11/M04 A2975 RMK AO2 PK WND 26040/1843 SLP047 T01061039"
"107407","MAF","2013-01-29 19:53:00",-102.2075,31.9466,53.06,23,30.71,260,33,0,29.72,1003.5,4,43,"BKN",NA,NA,NA,10000,NA,NA,NA,"BLDU",NA,NA,NA,43,260,"2013-01-29 19:49",53.06,"KMAF 291953Z 26033G43KT 4SM BLDU BKN100 12/M05 A2972 RMK AO2 PK WND 26043/1949 SLP035 T01171050"
"107408","MAF","2013-01-29 20:53:00",-102.2075,31.9466,53.96,21.02,27.33,260,33,0,29.72,1003.5,8,43,"CLR",NA,NA,NA,NA,NA,NA,NA,"BLDU",NA,NA,NA,45,260,"2013-01-29 20:43",53.96,"KMAF 292053Z 26033G43KT 8SM BLDU CLR 12/M06 A2972 RMK AO2 PK WND 26045/2043 SLP035 T01221061 56017"
"107409","MAF","2013-01-29 21:53:00",-102.2075,31.9466,51.08,21.02,30.39,270,28,0,29.72,1004,6,45,"SCT","BKN",NA,NA,3600,7500,NA,NA,"BLDU",NA,NA,NA,45,250,"2013-01-29 21:44",51.08,"KMAF 292153Z 27028G45KT 6SM BLDU SCT036 BKN075 11/M06 A2972 RMK AO2 PK WND 25045/2144 SLP040 T01061061"
"107410","MAF","2013-01-29 22:53:00",-102.2075,31.9466,50,19.94,30.21,270,29,0,29.74,1004.8,8,41,"SCT",NA,NA,NA,3600,NA,NA,NA,"BLDU",NA,NA,NA,48,270,"2013-01-29 22:16",41.59,"KMAF 292253Z 27029G41KT 8SM BLDU SCT036 10/M07 A2974 RMK AO2 PK WND 27048/2216 SLP048 T01001067"
"107411","MAF","2013-01-29 23:53:00",-102.2075,31.9466,46.94,17.06,29.94,250,31,0,29.76,1005.8,10,43,"CLR",NA,NA,NA,NA,NA,NA,NA,"BLDU",NA,NA,NA,44,270,"2013-01-29 23:08",37.1,"KMAF 292353Z 25031G43KT 10SM BLDU CLR 08/M08 A2976 RMK AO2 PK WND 27044/2308 SLP058 T00831083 10128 20083 53013"
"108090","MAF","2013-02-25 18:50:00",-102.2075,31.9466,41,26.6,56.22,320,39,0,29.89,NA,4,50,"BKN","OVC",NA,NA,2700,3700,NA,NA,"BLDU",NA,NA,NA,51,320,"2013-02-25 18:09",27.7,"KMAF 251850Z 32039G50KT 4SM BLDU BKN027 OVC037 05/M03 A2989 RMK AO2 PK WND 32051/1809"
"108091","MAF","2013-02-25 18:53:00",-102.2075,31.9466,41,26.96,57.06,320,32,0,29.89,1011.3,4,50,"FEW","BKN","OVC",NA,2500,3000,3700,NA,"BLDU",NA,NA,NA,51,320,"2013-02-25 18:09",28.74,"KMAF 251853Z 32032G50KT 4SM BLDU FEW025 BKN030 OVC037 05/M03 A2989 RMK AO2 PK WND 32051/1809 SLP113 T00501028"
"108092","MAF","2013-02-25 19:53:00",-102.2075,31.9466,46.04,23,39.9,330,37,1e-04,29.88,1010.5,4,47,"SCT","BKN",NA,NA,2500,4400,NA,NA,"BLDU",NA,NA,NA,52,330,"2013-02-25 19:42",35.04,"KMAF 251953Z 33037G47KT 4SM BLDU SCT025 BKN044 08/M05 A2988 RMK AO2 PK WND 33052/1942 RAB1858E08 SLP105 P0000 T00781050"
"108680","MAF","2013-03-21 22:53:00",-102.2075,31.9466,86,17.06,7.72,270,27,0,29.55,996.4,7,34,"FEW",NA,NA,NA,1400,NA,NA,NA,"BLDU",NA,NA,NA,37,260,"2013-03-21 22:04",81.83,"KMAF 212253Z 27027G34KT 7SM BLDU FEW014 30/M08 A2955 RMK AO2 PK WND 26037/2204 SLP964 T03001083"
"108728","MAF","2013-03-23 22:53:00",-102.2075,31.9466,78.08,3.02,5.33,270,29,0,29.65,1000.8,6,41,"CLR",NA,NA,NA,NA,NA,NA,NA,"HZ BLDU",NA,NA,NA,41,270,"2013-03-23 22:48",75.84,"KMAF 232253Z 27029G41KT 6SM HZ BLDU CLR 26/M16 A2965 RMK AO2 PK WND 27041/2248 SLP008 T02561161"
"108729","MAF","2013-03-23 23:53:00",-102.2075,31.9466,77,6.98,6.62,270,24,0,29.66,1001.4,10,31,"CLR",NA,NA,NA,NA,NA,NA,NA,"BLDU",NA,NA,NA,38,280,"2013-03-23 23:06",74.71,"KMAF 232353Z 27024G31KT 10SM BLDU CLR 25/M14 A2966 RMK AO2 PK WND 28038/2306 SLP014 T02501139 10267 20233 55000"
"108730","MAF","2013-03-24 00:53:00",-102.2075,31.9466,73.94,6.08,7.04,270,16,0,29.68,1002.3,10,NA,"CLR",NA,NA,NA,NA,NA,NA,NA,"BLDU",NA,NA,NA,33,280,"2013-03-23 23:56",71.36,"KMAF 240053Z 27016KT 10SM BLDU CLR 23/M14 A2968 RMK AO2 PK WND 28033/2356 SLP023 T02331144"
"108731","MAF","2013-03-24 01:46:00",-102.2075,31.9466,66.2,-0.4,6.79,340,29,0,29.77,NA,1.75,40,"OVC",NA,NA,NA,3200,NA,NA,NA,"BLDU",NA,NA,NA,40,340,"2013-03-24 01:41",66.2,"KMAF 240146Z 34029G40KT 1 3/4SM BLDU OVC032 19/M18 A2977 RMK AO2 PK WND 34040/0141 WSHFT 0128 PRESRR"
"108732","MAF","2013-03-24 01:53:00",-102.2075,31.9466,64.94,-0.04,7.22,350,28,0,29.79,1006.1,1.75,37,"OVC",NA,NA,NA,2800,NA,NA,NA,"BLDU",NA,NA,NA,40,340,"2013-03-24 01:41",64.94,"KMAF 240153Z 35028G37KT 1 3/4SM BLDU OVC028 18/M18 A2979 RMK AO2 PK WND 34040/0141 WSHFT 0128 PRESRR SLP061 T01831178"
"108733","MAF","2013-03-24 02:12:00",-102.2075,31.9466,60.8,1.4,8.93,350,31,0,29.82,NA,2.5,40,"OVC",NA,NA,NA,2200,NA,NA,NA,"BLDU",NA,NA,NA,40,360,"2013-03-24 02:10",60.8,"KMAF 240212Z 35031G40KT 2 1/2SM BLDU OVC022 16/M17 A2982 RMK AO2 PK WND 36040/0210"
"108734","MAF","2013-03-24 02:38:00",-102.2075,31.9466,57.2,-2.2,8.58,360,32,0,29.86,NA,1.75,43,"OVC",NA,NA,NA,2000,NA,NA,NA,"BLDU",NA,NA,NA,43,360,"2013-03-24 02:36",57.2,"KMAF 240238Z 36032G43KT 1 3/4SM BLDU OVC020 14/M19 A2986 RMK AO2 PK WND 36043/0236"
"108735","MAF","2013-03-24 02:53:00",-102.2075,31.9466,55.94,-5.98,7.49,350,30,0,29.88,1009.5,1.75,38,"OVC",NA,NA,NA,1800,NA,NA,NA,"BLDU",NA,NA,NA,43,360,"2013-03-24 02:36",55.94,"KMAF 240253Z 35030G38KT 1 3/4SM BLDU OVC018 13/M21 A2988 RMK AO2 PK WND 36043/0236 SLP095 T01331211 53069"
"108736","MAF","2013-03-24 03:25:00",-102.2075,31.9466,53.6,-9.4,6.9,350,29,0,29.9,NA,2,38,"OVC",NA,NA,NA,1800,NA,NA,NA,"BLDU",NA,NA,NA,38,350,"2013-03-24 03:25",53.6,"KMAF 240325Z 35029G38KT 2SM BLDU OVC018 12/M23 A2990 RMK AO2 PK WND 35038/0325"
"108737","MAF","2013-03-24 03:49:00",-102.2075,31.9466,50,15.8,25.28,350,25,0,29.94,NA,3,35,"OVC",NA,NA,NA,2000,NA,NA,NA,"BLDU",NA,NA,NA,38,360,"2013-03-24 03:32",42.18,"KMAF 240349Z 35025G35KT 3SM BLDU OVC020 10/M09 A2994 RMK AO2 PK WND 36038/0332"
"108738","MAF","2013-03-24 03:53:00",-102.2075,31.9466,50,15.98,25.48,360,24,0,29.95,1011.5,4,34,"OVC",NA,NA,NA,2000,NA,NA,NA,"BLDU",NA,NA,NA,38,360,"2013-03-24 03:32",42.34,"KMAF 240353Z 36024G34KT 4SM BLDU OVC020 10/M09 A2995 RMK AO2 PK WND 36038/0332 SLP115 T01001089"
"108739","MAF","2013-03-24 04:53:00",-102.2075,31.9466,42.08,24.98,50.42,10,28,0,30,1013.2,6,40,"OVC",NA,NA,NA,2200,NA,NA,NA,"BLDU",NA,NA,NA,40,10,"2013-03-24 04:46",30.9,"KMAF 240453Z 01028G40KT 6SM BLDU OVC022 06/M04 A3000 RMK AO2 PK WND 01040/0446 SLP132 T00561039"
"108740","MAF","2013-03-24 05:53:00",-102.2075,31.9466,37.94,23,54.51,10,25,0,30.07,1015.8,9,32,"BKN",NA,NA,NA,2000,NA,NA,NA,"BLDU",NA,NA,NA,35,10,"2013-03-24 05:22",25.86,"KMAF 240553Z AUTO 01025G32KT 9SM BLDU BKN020 03/M05 A3007 RMK AO2 PK WND 01035/0522 PRESRR SLP158 T00331050 10250 20033 402670033 53038"
"108741","MAF","2013-03-24 06:06:00",-102.2075,31.9466,37.4,23,55.68,10,22,0,30.07,NA,10,33,"SCT",NA,NA,NA,2000,NA,NA,NA,"BLDU",NA,NA,NA,33,20,"2013-03-24 06:01",25.81,"KMAF 240606Z AUTO 01022G33KT 10SM BLDU SCT020 03/M05 A3007 RMK AO2 PK WND 02033/0601"
"108742","MAF","2013-03-24 06:32:00",-102.2075,31.9466,35.6,21.2,55.41,360,23,0,30.09,NA,9,29,"BKN",NA,NA,NA,2400,NA,NA,NA,"BLDU",NA,NA,NA,33,20,"2013-03-24 06:01",23.15,"KMAF 240632Z AUTO 36023G29KT 9SM BLDU BKN024 02/M06 A3009 RMK AO2 PK WND 02033/0601"
"108743","MAF","2013-03-24 06:44:00",-102.2075,31.9466,35.6,21.2,55.41,360,19,0,30.1,NA,10,26,"SCT",NA,NA,NA,2400,NA,NA,NA,"BLDU",NA,NA,NA,33,20,"2013-03-24 06:01",24.2,"KMAF 240644Z AUTO 36019G26KT 10SM BLDU SCT024 02/M06 A3010 RMK AO2 PK WND 02033/0601"
"108744","MAF","2013-03-24 06:53:00",-102.2075,31.9466,35.06,21.02,56.18,10,20,0,30.1,1017,10,25,"FEW",NA,NA,NA,2400,NA,NA,NA,"BLDU",NA,NA,NA,33,20,"2013-03-24 06:01",23.2,"KMAF 240653Z AUTO 01020G25KT 10SM BLDU FEW024 02/M06 A3010 RMK AO2 PK WND 02033/0601 SLP170 T00171061"
"108745","MAF","2013-03-24 07:53:00",-102.2075,31.9466,33.08,19.04,55.89,360,14,0,30.15,1018.7,10,NA,"CLR",NA,NA,NA,NA,NA,NA,NA,"BLDU",NA,NA,NA,NA,NA,NA,22.55,"KMAF 240753Z AUTO 36014KT 10SM BLDU CLR 01/M07 A3015 RMK AO2 SLP187 T00061072"
"108746","MAF","2013-03-24 08:53:00",-102.2075,31.9466,30.92,15.98,53.44,350,11,0,30.15,1018.9,10,NA,"CLR",NA,NA,NA,NA,NA,NA,NA,"BLDU",NA,NA,NA,NA,NA,NA,21.1,"KMAF 240853Z AUTO 35011KT 10SM BLDU CLR M01/M09 A3015 RMK AO2 SLP189 T10061089 51027"
"108747","MAF","2013-03-24 09:53:00",-102.2075,31.9466,28.94,15.08,55.69,340,10,0,30.17,1019.3,10,NA,"CLR",NA,NA,NA,NA,NA,NA,NA,"BLDU",NA,NA,NA,NA,NA,NA,19.13,"KMAF 240953Z AUTO 34010KT 10SM BLDU CLR M02/M09 A3017 RMK AO2 SLP193 T10171094"
"108748","MAF","2013-03-24 10:53:00",-102.2075,31.9466,28.04,15.08,57.79,320,8,0,30.18,1020,10,NA,"CLR",NA,NA,NA,NA,NA,NA,NA,"BLDU",NA,NA,NA,NA,NA,NA,19.24,"KMAF 241053Z 32008KT 10SM BLDU CLR M02/M09 A3018 RMK AO2 SLP200 T10221094"
"108749","MAF","2013-03-24 11:53:00",-102.2075,31.9466,28.04,14,55.12,310,7,0,30.21,1021,10,NA,"CLR",NA,NA,NA,NA,NA,NA,NA,"BLDU",NA,NA,NA,NA,NA,NA,19.95,"KMAF 241153Z 31007KT 10SM BLDU CLR M02/M10 A3021 RMK AO2 SLP210 T10221100 10033 21022 53017"
"109154","MAF","2013-04-09 21:53:00",-102.2075,31.9466,89.06,23,9.02,260,13,0,29.52,994.6,6,22,"CLR",NA,NA,NA,NA,NA,NA,NA,"HZ BLDU",NA,NA,NA,NA,NA,NA,84.35,"KMAF 092153Z 26013G22KT 6SM HZ BLDU CLR 32/M05 A2952 RMK AO2 PK WND 25032/2107 SLP946 T03171050"
"109155","MAF","2013-04-09 22:53:00",-102.2075,31.9466,80.96,32,16.94,330,29,0,29.55,996.3,5,34,"FEW",NA,NA,NA,3100,NA,NA,NA,"HZ BLDU",NA,NA,NA,NA,NA,NA,79.05,"KMAF 092253Z 33029G34KT 5SM HZ BLDU FEW031 27/00 A2955 RMK AO2 PK WND 33034/2253 SLP963 T02720000"
"109156","MAF","2013-04-09 23:53:00",-102.2075,31.9466,73.04,30.92,21.09,360,30,0,29.61,998.5,5,38,"BKN",NA,NA,NA,3300,NA,NA,NA,"HZ BLDU",NA,NA,NA,NA,NA,NA,71.04,"KMAF 092353Z 36030G38KT 5SM HZ BLDU BKN033 23/M01 A2961 RMK AO2 PK WND 36038/2352 SLP985 T02281006 10322 20228 53024"
"109157","MAF","2013-04-10 00:11:00",-102.2075,31.9466,68,30.2,24.32,10,31,0,29.62,NA,3,39,"OVC",NA,NA,NA,2900,NA,NA,NA,"HZ BLDU",NA,NA,NA,NA,NA,NA,68,"KMAF 100011Z 01031G39KT 3SM HZ BLDU OVC029 20/M01 A2962 RMK AO2 PK WND 36039/0011"
"109158","MAF","2013-04-10 00:53:00",-102.2075,31.9466,60.98,28.94,29.52,10,25,0,29.69,1002.1,4,31,"OVC",NA,NA,NA,2700,NA,NA,NA,"HZ BLDU",NA,NA,NA,NA,NA,NA,60.98,"KMAF 100053Z 01025G31KT 4SM HZ BLDU OVC027 16/M02 A2969 RMK AO2 PK WND 36039/0011 PRESRR SLP021 T01611017"
"109159","MAF","2013-04-10 01:53:00",-102.2075,31.9466,55.94,26.96,32.61,10,20,0,29.73,1003.7,6,25,"FEW",NA,NA,NA,2700,NA,NA,NA,"BLDU",NA,NA,NA,28,10,"2013-04-10 00:57",55.94,"KMAF 100153Z 01020G25KT 6SM BLDU FEW027 13/M03 A2973 RMK AO2 PK WND 01028/0057 SLP037 T01331028"
"109160","MAF","2013-04-10 02:32:00",-102.2075,31.9466,55.4,26.6,32.76,30,16,0,29.77,NA,6,NA,"VV ",NA,NA,NA,2000,NA,NA,NA,"BLDU",NA,NA,NA,NA,NA,NA,55.4,"KMAF 100232Z 03016KT 6SM BLDU VV020 13/M03 A2977 RMK AO2 DU020"
"109161","MAF","2013-04-10 02:53:00",-102.2075,31.9466,53.96,26.96,35.04,20,18,0,29.78,1005,6,NA,"VV ",NA,NA,NA,2000,NA,NA,NA,"DU",NA,NA,NA,NA,NA,NA,53.96,"KMAF 100253Z 02018KT 6SM DU VV020 12/M03 A2978 RMK AO2 SLP050 T01221028 51053"
"109162","MAF","2013-04-10 03:53:00",-102.2075,31.9466,51.08,28.94,42.26,20,18,0,29.82,1006.3,9,22,"VV ",NA,NA,NA,2000,NA,NA,NA,"DU",NA,NA,NA,NA,NA,NA,51.08,"KMAF 100353Z 02018G22KT 9SM DU VV020 11/M02 A2982 RMK AO2 SLP063 T01061017"
"109357","MAF","2013-04-18 03:53:00",-102.2075,31.9466,78.08,8.96,6.99,260,12,0,29.65,999.2,9,NA,"BKN",NA,NA,NA,2900,NA,NA,NA,"BLDU",NA,NA,NA,NA,NA,NA,75.92,"KMAF 180353Z 26012KT 9SM BLDU BKN029 26/M13 A2965 RMK AO2 SLP992 T02561128 $"
"109358","MAF","2013-04-18 04:00:00",-102.2075,31.9466,78.8,10.4,7.28,270,13,0,29.66,NA,8,NA,"OVC",NA,NA,NA,3300,NA,NA,NA,"BLDU",NA,NA,NA,NA,NA,NA,76.72,"KMAF 180400Z 27013KT 8SM BLDU OVC033 26/M12 A2966 RMK AO2 $"
"109359","MAF","2013-04-18 04:53:00",-102.2075,31.9466,78.98,17.96,10.07,300,21,0,29.7,1000.7,4,28,"OVC",NA,NA,NA,4100,NA,NA,NA,"HZ BLDU",NA,NA,NA,NA,NA,NA,77.05,"KMAF 180453Z 30021G28KT 4SM HZ BLDU OVC041 26/M08 A2970 RMK AO2 PK WND 30028/0452 SLP007 T02611078 $"
"109360","MAF","2013-04-18 05:06:00",-102.2075,31.9466,77,24.8,14.37,300,24,0,29.72,NA,2,38,"OVC",NA,NA,NA,3900,NA,NA,NA,"HZ BLDU",NA,NA,NA,38,300,"2013-04-18 05:01",75.08,"KMAF 180506Z AUTO 30024G38KT 2SM HZ BLDU OVC039 25/M04 A2972 RMK AO2 PK WND 30038/0501 PRESRR $"
"109361","MAF","2013-04-18 05:13:00",-102.2075,31.9466,71.6,26.6,18.55,340,33,0,29.75,NA,1.5,42,"OVC",NA,NA,NA,3300,NA,NA,NA,"HZ BLDU",NA,NA,NA,42,340,"2013-04-18 05:10",69.33,"KMAF 180513Z AUTO 34033G42KT 1 1/2SM HZ BLDU OVC033 22/M03 A2975 RMK AO2 PK WND 34042/0510 PRESRR $"
"109362","MAF","2013-04-18 05:22:00",-102.2075,31.9466,66.2,26.6,22.33,340,28,0,29.76,NA,1.25,39,"OVC",NA,NA,NA,2600,NA,NA,NA,"HZ BLDU",NA,NA,NA,NA,NA,NA,66.2,"KMAF 180522Z AUTO 34028G39KT 1 1/4SM HZ BLDU OVC026 19/M03 A2976 RMK AO2 PK WND 34042/0510 PRESRR $"
"109363","MAF","2013-04-18 05:36:00",-102.2075,31.9466,64.4,32,29.63,350,28,0,29.78,NA,2,37,"OVC",NA,NA,NA,2000,NA,NA,NA,"HZ BLDU",NA,NA,NA,NA,NA,NA,64.4,"KMAF 180536Z AUTO 35028G37KT 2SM HZ BLDU OVC020 18/00 A2978 RMK AO2 PK WND 34042/0510 PRESRR $"
"109364","MAF","2013-04-18 05:53:00",-102.2075,31.9466,60.98,33.98,36.19,350,27,0,29.8,1005,4,36,"OVC",NA,NA,NA,3000,NA,NA,NA,"HZ BLDU",NA,NA,NA,NA,NA,NA,60.98,"KMAF 180553Z AUTO 35027G36KT 4SM HZ BLDU OVC030 16/01 A2980 RMK AO2 PK WND 34042/0510 PRESRR SLP050 T01610011 10333 20161 403440161 51046 $"
"109365","MAF","2013-04-18 06:49:00",-102.2075,31.9466,53.6,37.4,54.07,10,19,0,29.87,NA,7,29,"OVC",NA,NA,NA,2400,NA,NA,NA,"BLDU",NA,NA,NA,39,350,"2013-04-18 05:55",53.6,"KMAF 180649Z AUTO 01019G29KT 7SM BLDU OVC024 12/03 A2987 RMK AO2 PK WND 35039/0555 PRESRR $"
"109366","MAF","2013-04-18 06:53:00",-102.2075,31.9466,53.06,37.04,54.38,10,20,0,29.87,1007.4,8,23,"OVC",NA,NA,NA,2000,NA,NA,NA,"BLDU",NA,NA,NA,39,350,"2013-04-18 05:55",53.06,"KMAF 180653Z AUTO 01020G23KT 8SM BLDU OVC020 12/03 A2987 RMK AO2 PK WND 35039/0555 SLP074 T01170028 $"
"109367","MAF","2013-04-18 07:53:00",-102.2075,31.9466,48.02,35.06,60.62,10,19,0,29.9,1008.4,10,NA,"OVC",NA,NA,NA,1800,NA,NA,NA,"BLDU",NA,NA,NA,NA,NA,NA,40.62,"KMAF 180753Z AUTO 01019KT 10SM BLDU OVC018 09/02 A2990 RMK AO2 SLP084 T00890017 $"
"109368","MAF","2013-04-18 08:14:00",-102.2075,31.9466,46.4,35.6,65.83,350,22,0,29.9,NA,10,27,"FEW",NA,NA,NA,1800,NA,NA,NA,"BLDU",NA,NA,NA,27,350,"2013-04-18 08:14",37.86,"KMAF 180814Z AUTO 35022G27KT 10SM BLDU FEW018 08/02 A2990 RMK AO2 PK WND 35027/0814 $"
"109369","MAF","2013-04-18 08:53:00",-102.2075,31.9466,44.06,33.08,65.07,360,19,0,29.9,1009,10,24,"CLR",NA,NA,NA,NA,NA,NA,NA,"BLDU",NA,NA,NA,NA,NA,NA,35.39,"KMAF 180853Z AUTO 36019G24KT 10SM BLDU CLR 07/01 A2990 RMK AO2 PK WND 36028/0822 SLP090 T00670006 53012 $"
"109370","MAF","2013-04-18 09:53:00",-102.2075,31.9466,42.98,32,64.93,350,17,0,29.91,1009.2,10,26,"CLR",NA,NA,NA,NA,NA,NA,NA,"BLDU",NA,NA,NA,NA,NA,NA,34.46,"KMAF 180953Z AUTO 35017G26KT 10SM BLDU CLR 06/00 A2991 RMK AO2 PK WND 34026/0947 SLP092 T00610000 $"
"109371","MAF","2013-04-18 10:53:00",-102.2075,31.9466,41,30.02,64.68,10,18,0,29.96,1011.2,10,25,"CLR",NA,NA,NA,NA,NA,NA,NA,"BLDU",NA,NA,NA,NA,NA,NA,31.6,"KMAF 181053Z 01018G25KT 10SM BLDU CLR 05/M01 A2996 RMK AO2 PK WND 36030/1035 SLP112 T00501011 $"
"109704","MAF","2013-05-01 18:53:00",-102.2075,31.9466,87.98,37.04,16.52,360,18,0,29.89,1007,5,28,"CLR",NA,NA,NA,NA,NA,NA,NA,"BLDU",NA,NA,NA,28,20,"2013-05-01 18:50",84.3,"KMAF 011853Z 36018G28KT 5SM BLDU CLR 31/03 A2989 RMK AO2 PK WND 02028/1850 SLP070 T03110028"
"109705","MAF","2013-05-01 19:53:00",-102.2075,31.9466,89.06,37.04,15.97,20,16,0,29.9,1007.4,5,25,"CLR",NA,NA,NA,NA,NA,NA,NA,"BLDU",NA,NA,NA,27,360,"2013-05-01 19:23",85.2,"KMAF 011953Z 02016G25KT 5SM BLDU CLR 32/03 A2990 RMK AO2 PK WND 36027/1923 SLP074 T03170028"
"109706","MAF","2013-05-01 20:53:00",-102.2075,31.9466,89.06,35.96,15.3,20,16,0,29.9,1007.5,6,23,"CLR",NA,NA,NA,NA,NA,NA,NA,"BLDU",NA,NA,NA,26,10,"2013-05-01 20:25",85.17,"KMAF 012053Z 02016G23KT 6SM BLDU CLR 32/02 A2990 RMK AO2 PK WND 01026/2025 SLP075 T03170022 51005"
"109707","MAF","2013-05-01 21:53:00",-102.2075,31.9466,87.98,37.94,17.12,30,15,0,29.9,1007.6,6,23,"CLR",NA,NA,NA,NA,NA,NA,NA,"BLDU",NA,NA,NA,NA,NA,NA,84.33,"KMAF 012153Z 03015G23KT 6SM BLDU CLR 31/03 A2990 RMK AO2 SLP076 T03110033"
"109708","MAF","2013-05-01 22:53:00",-102.2075,31.9466,87.08,41,19.85,30,18,0,29.9,1007.7,10,25,"BKN",NA,NA,NA,3800,NA,NA,NA,"BLDU",NA,NA,NA,NA,NA,NA,83.71,"KMAF 012253Z 03018G25KT 10SM BLDU BKN038 31/05 A2990 RMK AO2 SLP077 T03060050"
"109709","MAF","2013-05-01 23:00:00",-102.2075,31.9466,87.8,39.2,18.09,40,15,0,29.9,NA,10,24,"CLR",NA,NA,NA,NA,NA,NA,NA,"BLDU",NA,NA,NA,NA,NA,NA,84.22,"KMAF 012300Z 04015G24KT 10SM BLDU CLR 31/04 A2990 RMK AO2"
"110189","MAF","2013-05-21 13:53:00",-102.2075,31.9466,69.98,50,49.07,360,19,0,29.86,1006.4,10,29,"CLR",NA,NA,NA,NA,NA,NA,NA,"BLDU",NA,NA,NA,32,360,"2013-05-21 13:34",69.98,"KMAF 211353Z 36019G29KT 10SM BLDU CLR 21/10 A2986 RMK AO2 PK WND 36032/1334 SLP064 T02110100"
"110190","MAF","2013-05-21 14:53:00",-102.2075,31.9466,73.04,46.94,39.44,360,18,0,29.89,1007.2,10,23,"CLR",NA,NA,NA,NA,NA,NA,NA,"BLDU",NA,NA,NA,29,350,"2013-05-21 13:59",71.9,"KMAF 211453Z 36018G23KT 10SM BLDU CLR 23/08 A2989 RMK AO2 PK WND 35029/1359 SLP072 T02280083 51031"
"110486","MAF","2013-06-01 16:41:00",-102.2075,31.9466,84.2,57.2,39.86,30,21,0,29.94,NA,5,27,"SCT",NA,NA,NA,3000,NA,NA,NA,"BLDU",NA,NA,NA,28,40,"2013-06-01 16:13",84.2,"KMAF 011641Z 03021G27KT 5SM BLDU SCT030 29/14 A2994 RMK AO2 PK WND 04028/1613"
"110487","MAF","2013-06-01 16:53:00",-102.2075,31.9466,86,57.92,38.61,50,21,0,29.94,1008.6,5,NA,"CLR",NA,NA,NA,NA,NA,NA,NA,"BLDU",NA,NA,NA,28,40,"2013-06-01 16:13",86,"KMAF 011653Z 05021KT 5SM BLDU CLR 30/14 A2994 RMK AO2 PK WND 04028/1613 SLP086 T03000144"
"110488","MAF","2013-06-01 17:53:00",-102.2075,31.9466,87.98,51.98,29.2,40,20,0,29.96,1009,5,25,"CLR",NA,NA,NA,NA,NA,NA,NA,"BLDU",NA,NA,NA,27,70,"2013-06-01 17:32",85.57,"KMAF 011753Z 04020G25KT 5SM BLDU CLR 31/11 A2996 RMK AO2 PK WND 07027/1732 SLP090 T03110111 10311 20217 53012"
"110489","MAF","2013-06-01 18:53:00",-102.2075,31.9466,89.06,51.98,28.22,60,17,0,29.97,1009.4,5,28,"FEW",NA,NA,NA,3900,NA,NA,NA,"BLDU",NA,NA,NA,29,60,"2013-06-01 17:58",86.54,"KMAF 011853Z 06017G28KT 5SM BLDU FEW039 32/11 A2997 RMK AO2 PK WND 06029/1758 SLP094 T03170111"
"110490","MAF","2013-06-01 19:53:00",-102.2075,31.9466,89.96,53.06,28.55,70,18,0,29.96,1009.2,5,30,"CLR",NA,NA,NA,NA,NA,NA,NA,"BLDU",NA,NA,NA,30,60,"2013-06-01 19:44",87.58,"KMAF 011953Z 07018G30KT 5SM BLDU CLR 32/12 A2996 RMK AO2 PK WND 06030/1944 SLP092 T03220117"
"110491","MAF","2013-06-01 20:53:00",-102.2075,31.9466,89.96,53.06,28.55,70,19,0,29.96,1009.1,10,26,"CLR",NA,NA,NA,NA,NA,NA,NA,"BLDU",NA,NA,NA,28,60,"2013-06-01 20:43",87.58,"KMAF 012053Z 07019G26KT 10SM BLDU CLR 32/12 A2996 RMK AO2 PK WND 06028/2043 SLP091 T03220117 58001"
"110492","MAF","2013-06-01 21:53:00",-102.2075,31.9466,89.96,51.08,26.54,70,15,0,29.96,1009.3,10,24,"CLR",NA,NA,NA,NA,NA,NA,NA,"BLDU",NA,NA,NA,27,60,"2013-06-01 21:40",87.2,"KMAF 012153Z 07015G24KT 10SM BLDU CLR 32/11 A2996 RMK AO2 PK WND 06027/2140 SLP093 T03220106"
"110493","MAF","2013-06-01 22:53:00",-102.2075,31.9466,87.98,48.92,26.07,70,18,0,29.96,1009.2,10,NA,"CLR",NA,NA,NA,NA,NA,NA,NA,"BLDU",NA,NA,NA,26,70,"2013-06-01 22:27",85.12,"KMAF 012253Z 07018KT 10SM BLDU CLR 31/09 A2996 RMK AO2 PK WND 07026/2227 SLP092 T03110094"
"111221","MAF","2013-06-29 17:31:00",-102.2075,31.9466,95,60.8,32.27,50,18,0,30.05,NA,2,23,"BKN","BKN",NA,NA,1400,11000,NA,NA,"BLDU",NA,NA,NA,28,50,"2013-06-29 17:21",95,"KMAF 291731Z 05018G23KT 2SM BLDU BKN014 BKN110 35/16 A3005 RMK AO2 PK WND 05028/1721"
"111222","MAF","2013-06-29 17:50:00",-102.2075,31.9466,91.4,64.4,40.96,50,27,0,30.05,NA,1.25,38,"OVC",NA,NA,NA,1400,NA,NA,NA,"BLDU",NA,NA,NA,38,30,"2013-06-29 17:47",93.19,"KMAF 291750Z 05027G38KT 1 1/4SM BLDU OVC014 33/18 A3005 RMK AO2 PK WND 03038/1747"
"111223","MAF","2013-06-29 17:53:00",-102.2075,31.9466,91.04,64.04,40.9,50,28,0,30.05,1012.1,1,38,"VV ",NA,NA,NA,1400,NA,NA,NA,"BLDU",NA,NA,NA,38,30,"2013-06-29 17:47",92.59,"KMAF 291753Z 05028G38KT 1SM BLDU VV014 33/18 A3005 RMK AO2 PK WND 03038/1747 SLP121 T03280178 10367 20256 53004"
"111224","MAF","2013-06-29 18:53:00",-102.2075,31.9466,95,60.08,31.45,60,21,0,30.03,1011.1,2.5,NA,"VV ",NA,NA,NA,1600,NA,NA,NA,"BLDU",NA,NA,NA,34,40,"2013-06-29 17:56",95,"KMAF 291853Z 06021KT 2 1/2SM BLDU VV016 35/16 A3003 RMK AO2 PK WND 04034/1756 SLP111 T03500156"
"111225","MAF","2013-06-29 19:14:00",-102.2075,31.9466,96.8,59,28.63,80,20,0,30.02,NA,5,NA,"FEW",NA,NA,NA,2000,NA,NA,NA,"BLDU",NA,NA,NA,NA,NA,NA,96.8,"KMAF 291914Z 08020KT 5SM BLDU FEW020 36/15 A3002 RMK AO2"
"112650","MAF","2013-08-23 22:34:00",-102.2075,31.9466,89.6,60.8,38.18,150,25,0,30.01,NA,2,34,"SCT","BKN",NA,NA,1300,8500,NA,NA,"HZ BLDU",NA,NA,NA,34,140,"2013-08-23 22:25",89.6,"KMAF 232234Z 15025G34KT 2SM HZ BLDU SCT013 BKN085 32/16 A3001 RMK AO2 PK WND 14034/2225"
"112651","MAF","2013-08-23 22:41:00",-102.2075,31.9466,89.6,60.8,38.18,140,26,0,30.01,NA,5,31,"SCT","BKN",NA,NA,1000,8000,NA,NA,"HZ BLDU",NA,NA,NA,34,140,"2013-08-23 22:25",89.6,"KMAF 232241Z 14026G31KT 5SM HZ BLDU SCT010 BKN080 32/16 A3001 RMK AO2 PK WND 14034/2225"
"112652","MAF","2013-08-23 22:53:00",-102.2075,31.9466,89.06,60.98,39.08,150,22,0,30.01,1011.4,7,NA,"FEW",NA,NA,NA,1200,NA,NA,NA,"BLDU",NA,NA,NA,34,140,"2013-08-23 22:25",89.06,"KMAF 232253Z 15022KT 7SM BLDU FEW012 32/16 A3001 RMK AO2 PK WND 14034/2225 SLP114 T03170161"
"112653","MAF","2013-08-23 23:53:00",-102.2075,31.9466,86,60.98,43.07,140,16,1e-04,30.02,1011.6,10,NA,"BKN",NA,NA,NA,11000,NA,NA,NA,"-RA BLDU",NA,NA,NA,27,150,"2013-08-23 22:57",86.11,"KMAF 232353Z 14016KT 10SM -RA BLDU BKN110 30/16 A3002 RMK AO2 PK WND 15027/2257 RAB48 SLP116 P0000 60000 T03000161 10350 20300 55000"
"112654","MAF","2013-08-24 00:53:00",-102.2075,31.9466,84.92,60.08,43.18,130,13,1e-04,30.02,1011.8,10,NA,"CLR",NA,NA,NA,NA,NA,NA,NA,"BLDU",NA,NA,NA,NA,NA,NA,84.84,"KMAF 240053Z 13013KT 10SM BLDU CLR 29/16 A3002 RMK AO2 RAE26 SLP118 P0000 T02940156"
"112655","MAF","2013-08-24 01:53:00",-102.2075,31.9466,82.04,62.96,52.47,160,8,0,30.02,1011.8,10,NA,"CLR",NA,NA,NA,NA,NA,NA,NA,"BLDU",NA,NA,NA,NA,NA,NA,83.19,"KMAF 240153Z 16008KT 10SM BLDU CLR 28/17 A3002 RMK AO2 SLP118 T02780172"
"112656","MAF","2013-08-24 02:53:00",-102.2075,31.9466,82.04,60.08,47.39,120,7,0,30.07,1013.2,10,NA,"CLR",NA,NA,NA,NA,NA,NA,NA,"BLDU",NA,NA,NA,NA,NA,NA,82.43,"KMAF 240253Z 12007KT 10SM BLDU CLR 28/16 A3007 RMK AO2 SLP132 60000 T02780156 53017"
"112657","MAF","2013-08-24 03:53:00",-102.2075,31.9466,78.98,62.96,57.99,130,7,0,30.07,1013.2,10,NA,"CLR",NA,NA,NA,NA,NA,NA,NA,"BLDU",NA,NA,NA,NA,NA,NA,80.52,"KMAF 240353Z 13007KT 10SM BLDU CLR 26/17 A3007 RMK AO2 SLP132 T02610172"
"112658","MAF","2013-08-24 04:53:00",-102.2075,31.9466,78.08,62.96,59.74,130,5,0,30.07,1013,10,NA,"CLR",NA,NA,NA,NA,NA,NA,NA,"BLDU",NA,NA,NA,NA,NA,NA,78.08,"KMAF 240453Z AUTO 13005KT 10SM BLDU CLR 26/17 A3007 RMK AO2 SLP130 T02560172"
"112659","MAF","2013-08-24 05:53:00",-102.2075,31.9466,75.92,64.04,66.65,140,6,0,30.08,1013.6,10,NA,"CLR",NA,NA,NA,NA,NA,NA,NA,"BLDU",NA,NA,NA,NA,NA,NA,75.92,"KMAF 240553Z AUTO 14006KT 10SM BLDU CLR 24/18 A3008 RMK AO2 SLP136 60000 T02440178 10300 20244 403500222 53003"
"112660","MAF","2013-08-24 06:53:00",-102.2075,31.9466,73.94,62.96,68.57,110,4,0,30.08,1013.6,10,NA,"CLR",NA,NA,NA,NA,NA,NA,NA,"BLDU",NA,NA,NA,NA,NA,NA,73.94,"KMAF 240653Z AUTO 11004KT 10SM BLDU CLR 23/17 A3008 RMK AO2 SLP136 T02330172"
"112661","MAF","2013-08-24 07:53:00",-102.2075,31.9466,73.04,62.96,70.68,120,6,0,30.09,1013.8,10,NA,"CLR",NA,NA,NA,NA,NA,NA,NA,"BLDU",NA,NA,NA,NA,NA,NA,73.04,"KMAF 240753Z AUTO 12006KT 10SM BLDU CLR 23/17 A3009 RMK AO2 SLP138 T02280172"
"112662","MAF","2013-08-24 08:53:00",-102.2075,31.9466,71.96,62.96,73.3,120,6,0,30.09,1013.7,10,NA,"CLR",NA,NA,NA,NA,NA,NA,NA,"BLDU",NA,NA,NA,NA,NA,NA,71.96,"KMAF 240853Z AUTO 12006KT 10SM BLDU CLR 22/17 A3009 RMK AO2 SLP137 T02220172 51002"
"112663","MAF","2013-08-24 09:53:00",-102.2075,31.9466,71.96,62.96,73.3,140,7,0,30.09,1013.9,10,NA,"CLR",NA,NA,NA,NA,NA,NA,NA,"BLDU",NA,NA,NA,NA,NA,NA,71.96,"KMAF 240953Z AUTO 14007KT 10SM BLDU CLR 22/17 A3009 RMK AO2 SLP139 T02220172"
"112664","MAF","2013-08-24 10:53:00",-102.2075,31.9466,71.06,62.06,73.22,150,6,0,30.1,1014.4,10,NA,"CLR",NA,NA,NA,NA,NA,NA,NA,"BLDU",NA,NA,NA,NA,NA,NA,71.06,"KMAF 241053Z AUTO 15006KT 10SM BLDU CLR 22/17 A3010 RMK AO2 SLP144 T02170167"
"114143","MAF","2013-10-18 23:19:00",-102.2075,31.9466,68,42.8,40,10,31,0,29.98,NA,0.25,38,"SCT",NA,NA,NA,2800,NA,NA,NA,"HZ BLDU",NA,NA,NA,38,10,"2013-10-18 23:18",68,"KMAF 182319Z 01031G38KT 1/4SM HZ BLDU SCT028 20/06 A2998 RMK AO2 PK WND 01038/2318"
"114144","MAF","2013-10-18 23:53:00",-102.2075,31.9466,59,44.06,57.57,20,24,0,30.02,1013.8,0.75,32,"OVC",NA,NA,NA,2200,NA,NA,NA,"HZ BLDU",NA,NA,NA,38,10,"2013-10-18 23:18",59,"KMAF 182353Z 02024G32KT 3/4SM HZ BLDU OVC022 15/07 A3002 RMK AO2 PK WND 01038/2318 SLP138 T01500067 10261 20150 53038"
"114145","MAF","2013-10-19 00:01:00",-102.2075,31.9466,57.2,42.8,58.52,20,26,0,30.03,NA,1,33,"OVC",NA,NA,NA,2200,NA,NA,NA,"HZ BLDU",NA,NA,NA,33,20,"2013-10-18 23:57",57.2,"KMAF 190001Z 02026G33KT 1SM HZ BLDU OVC022 14/06 A3003 RMK AO2 PK WND 02033/2357 PRESRR"
"114146","MAF","2013-10-19 00:53:00",-102.2075,31.9466,51.08,41,68.28,20,20,0,30.09,1016.5,9,32,"OVC",NA,NA,NA,2000,NA,NA,NA,"BLDU",NA,NA,NA,33,30,"2013-10-19 00:15",51.08,"KMAF 190053Z 02020G32KT 9SM BLDU OVC020 11/05 A3009 RMK AO2 PK WND 03033/0015 SLP165 T01060050"
"114147","MAF","2013-10-19 01:22:00",-102.2075,31.9466,50,39.2,66.27,30,21,0,30.11,NA,10,30,"SCT",NA,NA,NA,2000,NA,NA,NA,"BLDU",NA,NA,NA,34,30,"2013-10-19 01:06",42.86,"KMAF 190122Z 03021G30KT 10SM BLDU SCT020 10/04 A3011 RMK AO2 PK WND 03034/0106"
"114148","MAF","2013-10-19 01:53:00",-102.2075,31.9466,48.02,37.94,67.92,20,25,0,30.14,1018.3,10,31,"CLR",NA,NA,NA,NA,NA,NA,NA,"BLDU",NA,NA,NA,34,30,"2013-10-19 01:06",39.5,"KMAF 190153Z 02025G31KT 10SM BLDU CLR 09/03 A3014 RMK AO2 PK WND 03034/0106 SLP183 T00890033"
"116590","MAF","2014-01-17 17:53:00",-102.2075,31.9466,51.08,15.98,24.48,140,9,0,30.34,1026.2,9,NA,"CLR",NA,NA,NA,NA,NA,NA,NA,"BLDU",NA,NA,NA,NA,NA,NA,51.08,"KMAF 171753Z 14009KT 9SM BLDU CLR 11/M09 A3034 RMK AO2 SLP262 T01061089 10106 21033 58002"
"116591","MAF","2014-01-17 18:53:00",-102.2075,31.9466,53.06,15.08,21.88,160,11,0,30.3,1024.8,9,16,"OVC",NA,NA,NA,3100,NA,NA,NA,"BLDU",NA,NA,NA,NA,NA,NA,53.06,"KMAF 171853Z 16011G16KT 9SM BLDU OVC031 12/M09 A3030 RMK AO2 SLP248 T01171094"
"116592","MAF","2014-01-17 19:53:00",-102.2075,31.9466,55.04,15.08,20.35,200,9,0,30.25,1023.5,10,19,"CLR",NA,NA,NA,NA,NA,NA,NA,"BLDU",NA,NA,NA,NA,NA,NA,55.04,"KMAF 171953Z 20009G19KT 10SM BLDU CLR 13/M09 A3025 RMK AO2 SLP235 T01281094"
"116593","MAF","2014-01-17 20:53:00",-102.2075,31.9466,55.94,17.96,22.32,200,11,0,30.23,1022.6,10,NA,"CLR",NA,NA,NA,NA,NA,NA,NA,"BLDU",NA,NA,NA,NA,NA,NA,55.94,"KMAF 172053Z 20011KT 10SM BLDU CLR 13/M08 A3023 RMK AO2 SLP226 T01331078 56034"
"116594","MAF","2014-01-17 21:53:00",-102.2075,31.9466,57.02,17.96,21.46,180,10,0,30.21,1021.9,10,NA,"CLR",NA,NA,NA,NA,NA,NA,NA,"BLDU",NA,NA,NA,NA,NA,NA,57.02,"KMAF 172153Z 18010KT 10SM BLDU CLR 14/M08 A3021 RMK AO2 SLP219 T01391078"
"116595","MAF","2014-01-17 22:53:00",-102.2075,31.9466,55.94,19.94,24.29,180,10,0,30.2,1021.6,10,NA,"CLR",NA,NA,NA,NA,NA,NA,NA,"BLDU",NA,NA,NA,NA,NA,NA,55.94,"KMAF 172253Z 18010KT 10SM BLDU CLR 13/M07 A3020 RMK AO2 SLP216 T01331067"
"116596","MAF","2014-01-17 23:53:00",-102.2075,31.9466,53.96,17.96,23.98,190,7,0,30.19,1021.5,10,NA,"CLR",NA,NA,NA,NA,NA,NA,NA,"BLDU",NA,NA,NA,NA,NA,NA,53.96,"KMAF 172353Z 19007KT 10SM BLDU CLR 12/M08 A3019 RMK AO2 SLP215 T01221078 10144 20106 56013"
"116597","MAF","2014-01-18 00:53:00",-102.2075,31.9466,48.02,19.04,31.3,160,5,0,30.18,1021.8,10,NA,"CLR",NA,NA,NA,NA,NA,NA,NA,"BLDU",NA,NA,NA,NA,NA,NA,45.42,"KMAF 180053Z 16005KT 10SM BLDU CLR 09/M07 A3018 RMK AO2 SLP218 T00891072"
"116598","MAF","2014-01-18 01:53:00",-102.2075,31.9466,46.04,19.04,33.73,170,5,0,30.18,1022,10,NA,"CLR",NA,NA,NA,NA,NA,NA,NA,"BLDU",NA,NA,NA,NA,NA,NA,43.07,"KMAF 180153Z 17005KT 10SM BLDU CLR 08/M07 A3018 RMK AO2 SLP220 T00781072"
"116599","MAF","2014-01-18 02:53:00",-102.2075,31.9466,42.08,19.94,40.77,160,6,0,30.19,1021.8,10,NA,"CLR",NA,NA,NA,NA,NA,NA,NA,"BLDU",NA,NA,NA,NA,NA,NA,37.67,"KMAF 180253Z 16006KT 10SM BLDU CLR 06/M07 A3019 RMK AO2 SLP218 T00561067 55000"
"117891","MAF","2014-03-05 18:53:00",-102.2075,31.9466,68,35.06,29.56,350,15,0,29.95,1011.4,10,NA,"FEW",NA,NA,NA,6500,NA,NA,NA,"BLDU",NA,NA,NA,NA,NA,NA,68,"KMAF 051853Z 35015KT 10SM BLDU FEW065 20/02 A2995 RMK AO2 SLP114 T02000017"
"117892","MAF","2014-03-05 19:12:00",-102.2075,31.9466,66.92,35.96,31.8,20,22,0,29.96,NA,4,31,"BKN","BKN","BKN",NA,2600,3400,6500,NA,"HZ BLDU",NA,NA,NA,31,10,"2014-03-05 19:10",66.92,"KMAF 051912Z 02022G31KT 4SM HZ BLDU BKN026 BKN034 BKN065 19/02 A2996 RMK AO2 PK WND 01031/1910 T01940022"
"117893","MAF","2014-03-05 19:39:00",-102.2075,31.9466,66.92,35.96,31.8,350,19,0,29.97,NA,4,26,"OVC",NA,NA,NA,3100,NA,NA,NA,"HZ BLDU",NA,NA,NA,31,10,"2014-03-05 19:10",66.92,"KMAF 051939Z 35019G26KT 4SM HZ BLDU OVC031 19/02 A2997 RMK AO2 PK WND 01031/1910 T01940022"
"117894","MAF","2014-03-05 19:53:00",-102.2075,31.9466,66.02,33.08,29.25,10,23,0,29.98,1012.5,4,30,"BKN","OVC",NA,NA,3100,3700,NA,NA,"HZ BLDU",NA,NA,NA,31,10,"2014-03-05 19:10",66.02,"KMAF 051953Z 01023G30KT 4SM HZ BLDU BKN031 OVC037 19/01 A2998 RMK AO2 PK WND 01031/1910 SLP125 T01890006"
"117895","MAF","2014-03-05 20:53:00",-102.2075,31.9466,64.94,33.08,30.37,20,23,0,29.99,1012.9,7,28,"BKN",NA,NA,NA,3400,NA,NA,NA,"BLDU",NA,NA,NA,30,20,"2014-03-05 20:35",64.94,"KMAF 052053Z 02023G28KT 7SM BLDU BKN034 18/01 A2999 RMK AO2 PK WND 02030/2035 SLP129 T01830006 53013"
"117896","MAF","2014-03-05 21:53:00",-102.2075,31.9466,64.04,32,30.01,360,19,0,30.02,1014.1,7,28,"OVC",NA,NA,NA,3400,NA,NA,NA,"BLDU",NA,NA,NA,29,30,"2014-03-05 21:01",64.04,"KMAF 052153Z 36019G28KT 7SM BLDU OVC034 18/00 A3002 RMK AO2 PK WND 03029/2101 SLP141 T01780000"
"117897","MAF","2014-03-05 22:53:00",-102.2075,31.9466,62.06,33.08,33.6,10,19,0,30.05,1015.5,8,27,"SCT","SCT",NA,NA,4400,6500,NA,NA,"BLDU",NA,NA,NA,27,10,"2014-03-05 22:47",62.06,"KMAF 052253Z 01019G27KT 8SM BLDU SCT044 SCT065 17/01 A3005 RMK AO2 PK WND 01027/2247 SLP155 T01670006"
"117898","MAF","2014-03-05 23:53:00",-102.2075,31.9466,57.02,35.96,45.11,10,19,0,30.08,1016.8,10,NA,"FEW",NA,NA,NA,7000,NA,NA,NA,"BLDU",NA,NA,NA,27,10,"2014-03-05 23:20",57.02,"KMAF 052353Z 01019KT 10SM BLDU FEW070 14/02 A3008 RMK AO2 PK WND 01027/2320 SLP168 T01390022 10206 20139 51030"
"117899","MAF","2014-03-06 00:53:00",-102.2075,31.9466,53.06,35.06,50.28,30,16,0,30.13,1018.9,10,NA,"FEW",NA,NA,NA,5500,NA,NA,NA,"BLDU",NA,NA,NA,NA,NA,NA,53.06,"KMAF 060053Z 03016KT 10SM BLDU FEW055 12/02 A3013 RMK AO2 SLP189 T01170017"
"117900","MAF","2014-03-06 01:53:00",-102.2075,31.9466,48.92,35.06,58.61,30,14,0,30.17,1020.2,10,NA,"CLR",NA,NA,NA,NA,NA,NA,NA,"BLDU",NA,NA,NA,NA,NA,NA,42.97,"KMAF 060153Z 03014KT 10SM BLDU CLR 09/02 A3017 RMK AO2 SLP202 T00940017"
"117901","MAF","2014-03-06 02:53:00",-102.2075,31.9466,46.94,35.06,63.13,30,10,0,30.2,1021.1,10,NA,"CLR",NA,NA,NA,NA,NA,NA,NA,"BLDU",NA,NA,NA,NA,NA,NA,41.7,"KMAF 060253Z 03010KT 10SM BLDU CLR 08/02 A3020 RMK AO2 SLP211 T00830017 51036"
"118050","MAF","2014-03-12 03:36:00",-102.2075,31.9466,64.04,15.98,15.35,10,29,0,29.88,NA,4,35,"BKN",NA,NA,NA,1900,NA,NA,NA,"BLDU",NA,NA,NA,35,10,"2014-03-12 03:35",64.04,"KMAF 120336Z 01029G35KT 4SM BLDU BKN019 18/M09 A2988 RMK AO2 PK WND 01035/0335 T01781089"
"118051","MAF","2014-03-12 03:41:00",-102.2075,31.9466,64.04,28.04,25.54,10,34,0,29.89,NA,1.75,45,"BKN",NA,NA,NA,1500,NA,NA,NA,"BLDU",NA,NA,NA,45,10,"2014-03-12 03:40",64.04,"KMAF 120341Z 01034G45KT 1 3/4SM BLDU BKN015 18/M02 A2989 RMK AO2 PK WND 01045/0340 T01781022"
"118052","MAF","2014-03-12 03:49:00",-102.2075,31.9466,62.6,33.8,33.93,20,35,0,29.9,NA,0.75,45,"VV ",NA,NA,NA,1300,NA,NA,NA,"BLDU",NA,NA,NA,45,10,"2014-03-12 03:45",62.6,"KMAF 120349Z 02035G45KT 3/4SM BLDU VV013 17/01 A2990 RMK AO2 PK WND 01045/0345"
"118053","MAF","2014-03-12 03:53:00",-102.2075,31.9466,62.06,33.98,34.83,20,30,0,29.9,1009,1,45,"VV ",NA,NA,NA,1300,NA,NA,NA,"BLDU",NA,NA,NA,45,10,"2014-03-12 03:45",62.06,"KMAF 120353Z 02030G45KT 1SM BLDU VV013 17/01 A2990 RMK AO2 PK WND 01045/0345 SLP090 T01670011"
"118054","MAF","2014-03-12 04:53:00",-102.2075,31.9466,53.96,33.08,44.95,20,33,0,30,1012.6,1.5,40,"OVC",NA,NA,NA,1400,NA,NA,NA,"BLDU",NA,NA,NA,46,20,"2014-03-12 04:22",53.96,"KMAF 120453Z 02033G40KT 1 1/2SM BLDU OVC014 12/01 A3000 RMK AO2 PK WND 02046/0422 SLP126 T01220006"
"118055","MAF","2014-03-12 05:12:00",-102.2075,31.9466,51.8,32,46.59,20,33,0,30.02,NA,1.75,42,"OVC",NA,NA,NA,1600,NA,NA,NA,"BLDU",NA,NA,NA,NA,NA,NA,51.8,"KMAF 120512Z AUTO 02033G42KT 1 3/4SM BLDU OVC016 11/00 A3002"
"118056","MAF","2014-03-12 05:53:00",-102.2075,31.9466,48.92,32,51.85,30,26,0,30.07,1015,2,37,"OVC",NA,NA,NA,1800,NA,NA,NA,"BLDU",NA,NA,NA,48,20,"2014-03-12 05:20",40.56,"KMAF 120553Z AUTO 03026G37KT 2SM BLDU OVC018 09/00 A3007 RMK AO2 PK WND 02048/0520 SLP150 T00940000 10272 20094 402940078 51073"
"118057","MAF","2014-03-12 06:53:00",-102.2075,31.9466,46.04,30.02,53.33,20,28,0,30.1,1016.2,2,40,"OVC",NA,NA,NA,2000,NA,NA,NA,"BLDU",NA,NA,NA,41,10,"2014-03-12 06:08",36.32,"KMAF 120653Z AUTO 02028G40KT 2SM BLDU OVC020 08/M01 A3010 RMK AO2 PK WND 01041/0608 SLP162 T00781011"
"118058","MAF","2014-03-12 07:30:00",-102.2075,31.9466,44.96,28.94,53.17,20,33,0,30.12,NA,3,42,"OVC",NA,NA,NA,2000,NA,NA,NA,"BLDU",NA,NA,NA,42,20,"2014-03-12 07:28",34.07,"KMAF 120730Z AUTO 02033G42KT 3SM BLDU OVC020 07/M02 A3012 RMK AO2 PK WND 02042/0728 T00721017"
"118059","MAF","2014-03-12 07:53:00",-102.2075,31.9466,44.06,28.94,55.02,20,26,0,30.14,1017.5,3,36,"OVC",NA,NA,NA,2000,NA,NA,NA,"BLDU",NA,NA,NA,42,20,"2014-03-12 07:28",33.96,"KMAF 120753Z AUTO 02026G36KT 3SM BLDU OVC020 07/M02 A3014 RMK AO2 PK WND 02042/0728 SLP175 T00671017"
"118060","MAF","2014-03-12 08:53:00",-102.2075,31.9466,42.08,28.94,59.36,20,22,0,30.18,1019.1,6,27,"OVC",NA,NA,NA,2500,NA,NA,NA,"BLDU",NA,NA,NA,37,20,"2014-03-12 07:55",32.08,"KMAF 120853Z AUTO 02022G27KT 6SM BLDU OVC025 06/M02 A3018 RMK AO2 PK WND 02037/0755 SLP191 T00561017 53037"
"118061","MAF","2014-03-12 09:53:00",-102.2075,31.9466,41,28.04,59.65,10,22,0,30.21,1020.1,7,28,"OVC",NA,NA,NA,2600,NA,NA,NA,"BLDU",NA,NA,NA,30,10,"2014-03-12 09:20",30.63,"KMAF 120953Z AUTO 01022G28KT 7SM BLDU OVC026 05/M02 A3021 RMK AO2 PK WND 01030/0920 SLP201 T00501022"
"118062","MAF","2014-03-12 10:11:00",-102.2075,31.9466,41,26.96,57.06,10,25,0,30.22,NA,8,29,"SCT",NA,NA,NA,2500,NA,NA,NA,"BLDU",NA,NA,NA,29,10,"2014-03-12 10:11",30,"KMAF 121011Z AUTO 01025G29KT 8SM BLDU SCT025 05/M03 A3022 RMK AO2 PK WND 01029/1011 T00501028"
"118063","MAF","2014-03-12 10:53:00",-102.2075,31.9466,39.92,26.06,57.33,10,20,0,30.24,1021.1,10,NA,"CLR",NA,NA,NA,NA,NA,NA,NA,"BLDU",NA,NA,NA,29,10,"2014-03-12 10:11",29.66,"KMAF 121053Z AUTO 01020KT 10SM BLDU CLR 04/M03 A3024 RMK AO2 PK WND 01029/1011 SLP211 T00441033"
"118178","MAF","2014-03-16 20:53:00",-102.2075,31.9466,60.08,15.98,17.65,10,28,0,30.11,1017.5,5,34,"CLR",NA,NA,NA,NA,NA,NA,NA,"BLDU",NA,NA,NA,42,30,"2014-03-16 20:05",60.08,"KMAF 162053Z 01028G34KT 5SM BLDU CLR 16/M09 A3011 RMK AO2 PK WND 03042/2005 SLP175 T01561089 58035"
"118179","MAF","2014-03-16 21:53:00",-102.2075,31.9466,59,17.06,19.23,360,21,0,30.1,1017.2,5,35,"CLR",NA,NA,NA,NA,NA,NA,NA,"BLDU",NA,NA,NA,35,350,"2014-03-16 21:48",59,"KMAF 162153Z 36021G35KT 5SM BLDU CLR 15/M08 A3010 RMK AO2 PK WND 35035/2148 SLP172 T01501083"
"118180","MAF","2014-03-16 22:53:00",-102.2075,31.9466,60.08,17.96,19.23,360,21,0,30.09,1017,6,34,"CLR",NA,NA,NA,NA,NA,NA,NA,"BLDU",NA,NA,NA,36,10,"2014-03-16 22:41",60.08,"KMAF 162253Z 36021G34KT 6SM BLDU CLR 16/M08 A3009 RMK AO2 PK WND 01036/2241 SLP170 T01561078"
"118181","MAF","2014-03-16 23:53:00",-102.2075,31.9466,57.02,15.98,19.7,10,18,0,30.1,1017.5,6,28,"CLR",NA,NA,NA,NA,NA,NA,NA,"BLDU",NA,NA,NA,33,340,"2014-03-16 22:57",57.02,"KMAF 162353Z 01018G28KT 6SM BLDU CLR 14/M09 A3010 RMK AO2 PK WND 34033/2257 SLP175 T01391089 10161 20122 55003"
"118182","MAF","2014-03-17 00:53:00",-102.2075,31.9466,53.96,14,20.19,10,19,0,30.13,1018.5,7,25,"CLR",NA,NA,NA,NA,NA,NA,NA,"BLDU",NA,NA,NA,NA,NA,NA,53.96,"KMAF 170053Z 01019G25KT 7SM BLDU CLR 12/M10 A3013 RMK AO2 PK WND 01033/2357 SLP185 T01221100"
"118183","MAF","2014-03-17 01:53:00",-102.2075,31.9466,51.08,12.92,21.41,20,15,0,30.13,1018.9,10,NA,"CLR",NA,NA,NA,NA,NA,NA,NA,"BLDU",NA,NA,NA,NA,NA,NA,51.08,"KMAF 170153Z 02015KT 10SM BLDU CLR 11/M11 A3013 RMK AO2 PK WND 02026/0100 SLP189 T01061106"
"118235","MAF","2014-03-19 04:20:00",-102.2075,31.9466,57.02,10.04,15.16,30,20,0,29.94,NA,5,NA,"BKN",NA,NA,NA,1800,NA,NA,NA,"HZ BLDU",NA,NA,NA,29,20,"2014-03-19 04:04",57.02,"KMAF 190420Z 03020KT 5SM HZ BLDU BKN018 14/M12 A2994 RMK AO2 PK WND 02029/0404 T01391122"
"118236","MAF","2014-03-19 04:53:00",-102.2075,31.9466,55.94,15.98,20.48,30,19,0,29.96,1011,3,30,"OVC",NA,NA,NA,1900,NA,NA,NA,"HZ BLDU",NA,NA,NA,32,40,"2014-03-19 04:43",55.94,"KMAF 190453Z AUTO 03019G30KT 3SM HZ BLDU OVC019 13/M09 A2996 RMK AO2 PK WND 04032/0443 SLP110 T01331089 TSNO"
"118237","MAF","2014-03-19 05:13:00",-102.2075,31.9466,55.04,17.06,22.18,30,20,0,29.98,NA,2.5,31,"OVC",NA,NA,NA,2000,NA,NA,NA,"HZ BLDU",NA,NA,NA,31,40,"2014-03-19 05:06",55.04,"KMAF 190513Z AUTO 03020G31KT 2 1/2SM HZ BLDU OVC020 13/M08 A2998 RMK AO2 PK WND 04031/0506 T01281083 TSNO"
"118238","MAF","2014-03-19 05:20:00",-102.2075,31.9466,55.04,17.06,22.18,40,21,0,29.99,NA,3,26,"OVC",NA,NA,NA,2000,NA,NA,NA,"HZ BLDU",NA,NA,NA,31,40,"2014-03-19 05:06",55.04,"KMAF 190520Z AUTO 04021G26KT 3SM HZ BLDU OVC020 13/M08 A2999 RMK AO2 PK WND 04031/0506 T01281083 TSNO"
"118239","MAF","2014-03-19 05:48:00",-102.2075,31.9466,53.6,17.6,23.93,40,21,0,30,NA,2.5,28,"OVC",NA,NA,NA,2100,NA,NA,NA,"HZ BLDU",NA,NA,NA,31,40,"2014-03-19 05:06",53.6,"KMAF 190548Z AUTO 04021G28KT 2 1/2SM HZ BLDU OVC021 12/M08 A3000 RMK AO2 PK WND 04031/0506 TSNO"
"118240","MAF","2014-03-19 05:53:00",-102.2075,31.9466,53.06,17.96,24.79,30,20,0,30,1012.4,2.5,26,"OVC",NA,NA,NA,2200,NA,NA,NA,"HZ BLDU",NA,NA,NA,31,40,"2014-03-19 05:06",53.06,"KMAF 190553Z AUTO 03020G26KT 2 1/2SM HZ BLDU OVC022 12/M08 A3000 RMK AO2 PK WND 04031/0506 SLP124 T01171078 10244 20117 402830106 51027 TSNO"
"118241","MAF","2014-03-19 06:19:00",-102.2075,31.9466,51.08,19.04,27.93,20,19,0,30.01,NA,1.75,28,"OVC",NA,NA,NA,2000,NA,NA,NA,"HZ BLDU",NA,NA,NA,30,40,"2014-03-19 06:07",51.08,"KMAF 190619Z AUTO 02019G28KT 1 3/4SM HZ BLDU OVC020 11/M07 A3001 RMK AO2 PK WND 04030/0607 T01061072 TSNO"
"118242","MAF","2014-03-19 06:28:00",-102.2075,31.9466,50,19.04,29.07,20,20,0,30.02,NA,2,NA,"OVC",NA,NA,NA,1900,NA,NA,NA,"HZ BLDU",NA,NA,NA,30,40,"2014-03-19 06:07",43.05,"KMAF 190628Z AUTO 02020KT 2SM HZ BLDU OVC019 10/M07 A3002 RMK AO2 PK WND 04030/0607 T01001072 TSNO"
"118243","MAF","2014-03-19 06:53:00",-102.2075,31.9466,48.92,19.04,30.27,20,19,0,30.03,1013.5,3,26,"OVC",NA,NA,NA,2100,NA,NA,NA,"HZ BLDU",NA,NA,NA,30,40,"2014-03-19 06:07",41.81,"KMAF 190653Z AUTO 02019G26KT 3SM HZ BLDU OVC021 09/M07 A3003 RMK AO2 PK WND 04030/0607 SLP135 T00941072 TSNO"
"118244","MAF","2014-03-19 07:53:00",-102.2075,31.9466,46.04,21.02,36.7,20,15,0,30.09,1015.8,4,NA,"OVC",NA,NA,NA,2600,NA,NA,NA,"HZ BLDU",NA,NA,NA,27,20,"2014-03-19 06:58",38.98,"KMAF 190753Z AUTO 02015KT 4SM HZ BLDU OVC026 08/M06 A3009 RMK AO2 PK WND 02027/0658 SLP158 T00781061 TSNO"
"118245","MAF","2014-03-19 08:53:00",-102.2075,31.9466,44.06,21.02,39.57,50,17,0,30.13,1017.2,6,NA,"OVC",NA,NA,NA,2100,NA,NA,NA,"HZ BLDU",NA,NA,NA,NA,NA,NA,35.87,"KMAF 190853Z AUTO 05017KT 6SM HZ BLDU OVC021 07/M06 A3013 RMK AO2 SLP172 T00671061 53040 TSNO"
"118246","MAF","2014-03-19 09:25:00",-102.2075,31.9466,42.98,21.02,41.24,40,19,0,30.13,NA,9,25,"SCT",NA,NA,NA,2200,NA,NA,NA,"BLDU",NA,NA,NA,26,30,"2014-03-19 09:13",33.96,"KMAF 190925Z AUTO 04019G25KT 9SM BLDU SCT022 06/M06 A3013 RMK AO2 PK WND 03026/0913 T00611061 TSNO"
"118247","MAF","2014-03-19 09:53:00",-102.2075,31.9466,42.98,21.02,41.24,40,16,0,30.15,1018,10,NA,"CLR",NA,NA,NA,NA,NA,NA,NA,"BLDU",NA,NA,NA,26,30,"2014-03-19 09:13",34.73,"KMAF 190953Z AUTO 04016KT 10SM BLDU CLR 06/M06 A3015 RMK AO2 PK WND 03026/0913 PRESRR SLP180 T00611061 TSNO"
"118248","MAF","2014-03-19 10:53:00",-102.2075,31.9466,41,21.02,44.51,30,12,0,30.18,1019.3,9,NA,"CLR",NA,NA,NA,NA,NA,NA,NA,"BLDU",NA,NA,NA,NA,NA,NA,33.46,"KMAF 191053Z 03012KT 9SM BLDU CLR 05/M06 A3018 RMK AO2 SLP193 T00501061"
"118249","MAF","2014-03-19 11:53:00",-102.2075,31.9466,37.94,21.02,50.14,360,8,0,30.21,1020.8,10,NA,"CLR",NA,NA,NA,NA,NA,NA,NA,"BLDU",NA,NA,NA,NA,NA,NA,31.43,"KMAF 191153Z 36008KT 10SM BLDU CLR 03/M06 A3021 RMK AO2 SLP208 T00331061 10117 20033 53027"
"118250","MAF","2014-03-19 12:53:00",-102.2075,31.9466,37.04,21.02,51.95,350,9,0,30.22,1021.4,10,NA,"CLR",NA,NA,NA,NA,NA,NA,NA,"BLDU",NA,NA,NA,NA,NA,NA,29.78,"KMAF 191253Z 35009KT 10SM BLDU CLR 03/M06 A3022 RMK AO2 SLP214 T00281061"
"118251","MAF","2014-03-19 13:53:00",-102.2075,31.9466,37.94,21.02,50.14,350,9,0,30.24,1022.3,9,NA,"CLR",NA,NA,NA,NA,NA,NA,NA,"BLDU",NA,NA,NA,NA,NA,NA,30.9,"KMAF 191353Z 35009KT 9SM BLDU CLR 03/M06 A3024 RMK AO2 SLP223 T00331061"
"118252","MAF","2014-03-19 14:53:00",-102.2075,31.9466,42.98,21.92,42.84,360,13,0,30.26,1022.7,10,NA,"CLR",NA,NA,NA,NA,NA,NA,NA,"BLDU",NA,NA,NA,NA,NA,NA,35.64,"KMAF 191453Z 36013KT 10SM BLDU CLR 06/M06 A3026 RMK AO2 SLP227 T00611056 53013"
"118253","MAF","2014-03-19 15:53:00",-102.2075,31.9466,46.94,21.02,35.47,20,12,0,30.27,1023.2,10,NA,"CLR",NA,NA,NA,NA,NA,NA,NA,"BLDU",NA,NA,NA,NA,NA,NA,41.02,"KMAF 191553Z 02012KT 10SM BLDU CLR 08/M06 A3027 RMK AO2 SLP232 T00831061"
"118851","MAF","2014-04-12 22:53:00",-102.2075,31.9466,87.98,35.96,15.83,220,28,0,29.74,1002.3,2,39,"CLR",NA,NA,NA,NA,NA,NA,NA,"BLDU",NA,NA,NA,39,220,"2014-04-12 22:46",84.28,"KMAF 122253Z 22028G39KT 2SM BLDU CLR 31/02 A2974 RMK AO2 PK WND 22039/2246 SLP023 T03110022"
"118852","MAF","2014-04-12 23:00:00",-102.2075,31.9466,87.8,35.6,15.7,210,20,0,29.74,NA,4,34,"FEW",NA,NA,NA,600,NA,NA,NA,"BLDU",NA,NA,NA,NA,NA,NA,84.12,"KMAF 122300Z 21020G34KT 4SM BLDU FEW006 31/02 A2974"
"118871","MAF","2014-04-13 17:53:00",-102.2075,31.9466,84.02,21.92,10.12,250,27,0,29.75,1002.2,4,42,"CLR",NA,NA,NA,NA,NA,NA,NA,"HZ BLDU",NA,NA,NA,NA,NA,NA,80.69,"KMAF 131753Z 25027G42KT 4SM HZ BLDU CLR 29/M06 A2975 RMK AO2 PK WND 25042/1750 SLP022 T02891056 10294 20217 58007"
"118872","MAF","2014-04-13 18:53:00",-102.2075,31.9466,84.92,17.96,8.3,260,26,0,29.73,1001.6,10,36,"CLR",NA,NA,NA,NA,NA,NA,NA,"BLDU",NA,NA,NA,NA,NA,NA,81.11,"KMAF 131853Z 26026G36KT 10SM BLDU CLR 29/M08 A2973 RMK AO2 PK WND 27041/1805 SLP016 T02941078"
"118873","MAF","2014-04-13 19:53:00",-102.2075,31.9466,87.08,17.06,7.46,260,26,0,29.71,1001.1,10,34,"CLR",NA,NA,NA,NA,NA,NA,NA,"BLDU",NA,NA,NA,NA,NA,NA,82.6,"KMAF 131953Z AUTO 26026G34KT 10SM BLDU CLR 31/M08 A2971 RMK AO2 PK WND 25035/1859 SLP011 T03061083 TSNO"
"118874","MAF","2014-04-13 20:53:00",-102.2075,31.9466,86,15.08,7.08,250,22,0,29.69,1000.5,10,32,"CLR",NA,NA,NA,NA,NA,NA,NA,"BLDU",NA,NA,NA,NA,NA,NA,81.75,"KMAF 132053Z 25022G32KT 10SM BLDU CLR 30/M09 A2969 RMK AO2 PK WND 27036/2037 SLP005 T03001094 56016"
"118875","MAF","2014-04-13 21:53:00",-102.2075,31.9466,86,17.06,7.72,240,20,0,29.67,999.7,10,26,"CLR",NA,NA,NA,NA,NA,NA,NA,"BLDU",NA,NA,NA,NA,NA,NA,81.83,"KMAF 132153Z 24020G26KT 10SM BLDU CLR 30/M08 A2967 RMK AO2 PK WND 27032/2111 SLP997 T03001083"
"118876","MAF","2014-04-13 22:53:00",-102.2075,31.9466,86,15.08,7.08,260,17,0,29.65,998.9,10,26,"CLR",NA,NA,NA,NA,NA,NA,NA,"BLDU",NA,NA,NA,28,260,"2014-04-13 21:56",81.75,"KMAF 132253Z 26017G26KT 10SM BLDU CLR 30/M09 A2965 RMK AO2 PK WND 26028/2156 SLP989 T03001094"
"118877","MAF","2014-04-13 23:53:00",-102.2075,31.9466,84.92,14,6.99,250,17,0,29.65,999.2,10,25,"CLR",NA,NA,NA,NA,NA,NA,NA,"BLDU",NA,NA,NA,NA,NA,NA,80.94,"KMAF 132353Z 25017G25KT 10SM BLDU CLR 29/M10 A2965 RMK AO2 PK WND 25026/2301 SLP992 T02941100 10306 20289 55012"
"118878","MAF","2014-04-14 00:53:00",-102.2075,31.9466,82.04,14,7.67,250,15,0,29.66,999.6,10,NA,"CLR",NA,NA,NA,NA,NA,NA,NA,"BLDU",NA,NA,NA,NA,NA,NA,78.96,"KMAF 140053Z 25015KT 10SM BLDU CLR 28/M10 A2966 RMK AO2 SLP996 T02781100"
"118879","MAF","2014-04-14 01:53:00",-102.2075,31.9466,77,12.92,8.63,250,9,0,29.68,1000.5,10,NA,"CLR",NA,NA,NA,NA,NA,NA,NA,"BLDU",NA,NA,NA,NA,NA,NA,74.81,"KMAF 140153Z 25009KT 10SM BLDU CLR 25/M11 A2968 RMK AO2 SLP005 T02501106"
"118880","MAF","2014-04-14 02:53:00",-102.2075,31.9466,71.96,14,10.72,230,6,0,29.7,1001.4,10,NA,"CLR",NA,NA,NA,NA,NA,NA,NA,"BLDU",NA,NA,NA,NA,NA,NA,69.36,"KMAF 140253Z 23006KT 10SM BLDU CLR 22/M10 A2970 RMK AO2 SLP014 T02221100 53015"
"118881","MAF","2014-04-14 03:53:00",-102.2075,31.9466,69.98,15.08,12.02,210,5,0,29.72,1001.9,10,NA,"CLR",NA,NA,NA,NA,NA,NA,NA,"BLDU",NA,NA,NA,NA,NA,NA,69.98,"KMAF 140353Z 21005KT 10SM BLDU CLR 21/M09 A2972 RMK AO2 SLP019 T02111094"
"118882","MAF","2014-04-14 04:53:00",-102.2075,31.9466,69.08,15.08,12.4,250,8,0,29.73,1002.1,10,NA,"CLR",NA,NA,NA,NA,NA,NA,NA,"BLDU",NA,NA,NA,NA,NA,NA,69.08,"KMAF 140453Z AUTO 25008KT 10SM BLDU CLR 21/M09 A2973 RMK AO2 SLP021 T02061094"
"118883","MAF","2014-04-14 05:53:00",-102.2075,31.9466,62.06,14,15.09,30,6,0,29.77,1003.8,10,NA,"CLR",NA,NA,NA,NA,NA,NA,NA,"BLDU",NA,NA,NA,NA,NA,NA,62.06,"KMAF 140553Z AUTO 03006KT 10SM BLDU CLR 17/M10 A2977 RMK AO2 PRESRR SLP038 T01671100 10294 20167 403060167 53020"
"118884","MAF","2014-04-14 06:08:00",-102.2075,31.9466,60.08,35.96,40.43,50,26,0,29.8,NA,4,34,"BKN",NA,NA,NA,1800,NA,NA,NA,"HZ BLDU",NA,NA,NA,34,40,"2014-04-14 06:04",60.08,"KMAF 140608Z AUTO 05026G34KT 4SM HZ BLDU BKN018 16/02 A2980 RMK AO2 PK WND 04034/0604 WSHFT 0554 PRESRR T01560022"
"118885","MAF","2014-04-14 06:39:00",-102.2075,31.9466,55.94,37.04,48.95,50,27,0,29.85,NA,8,35,"OVC",NA,NA,NA,3200,NA,NA,NA,"BLDU",NA,NA,NA,35,60,"2014-04-14 06:26",55.94,"KMAF 140639Z AUTO 05027G35KT 8SM BLDU OVC032 13/03 A2985 RMK AO2 PK WND 06035/0626 WSHFT 0554 PRESRR T01330028"
"118886","MAF","2014-04-14 06:53:00",-102.2075,31.9466,53.96,37.04,52.61,50,24,0,29.86,1007.1,7,35,"OVC",NA,NA,NA,3200,NA,NA,NA,"BLDU",NA,NA,NA,35,60,"2014-04-14 06:26",53.96,"KMAF 140653Z AUTO 05024G35KT 7SM BLDU OVC032 12/03 A2986 RMK AO2 PK WND 06035/0626 WSHFT 0554 SLP071 T01220028"
"118887","MAF","2014-04-14 07:10:00",-102.2075,31.9466,51.08,35.06,54.09,30,26,0,29.87,NA,7,34,"BKN",NA,NA,NA,2600,NA,NA,NA,"BLDU",NA,NA,NA,34,30,"2014-04-14 07:06",51.08,"KMAF 140710Z AUTO 03026G34KT 7SM BLDU BKN026 11/02 A2987 RMK AO2 PK WND 03034/0706 T01060017"
"118888","MAF","2014-04-14 07:49:00",-102.2075,31.9466,46.4,33.8,61.28,30,26,0,29.91,NA,10,34,"FEW",NA,NA,NA,1900,NA,NA,NA,"BLDU",NA,NA,NA,35,30,"2014-04-14 07:19",37.14,"KMAF 140749Z AUTO 03026G34KT 10SM BLDU FEW019 08/01 A2991 RMK AO2 PK WND 03035/0719"
"118889","MAF","2014-04-14 07:53:00",-102.2075,31.9466,46.94,33.08,58.33,30,25,0,29.92,1009.7,10,34,"FEW",NA,NA,NA,1900,NA,NA,NA,"BLDU",NA,NA,NA,35,30,"2014-04-14 07:19",38.04,"KMAF 140753Z AUTO 03025G34KT 10SM BLDU FEW019 08/01 A2992 RMK AO2 PK WND 03035/0719 SLP097 T00830006"
"118890","MAF","2014-04-14 08:53:00",-102.2075,31.9466,42.08,28.94,59.36,10,30,0,29.96,1011.5,9,37,"FEW",NA,NA,NA,2300,NA,NA,NA,"BLDU",NA,NA,NA,37,10,"2014-04-14 08:53",30.56,"KMAF 140853Z AUTO 01030G37KT 9SM BLDU FEW023 06/M02 A2996 RMK AO2 PK WND 01037/0853 SLP115 T00561017 51034"
"118891","MAF","2014-04-14 09:17:00",-102.2075,31.9466,41,28.94,61.89,10,29,0,29.98,NA,8,35,"BKN",NA,NA,NA,2300,NA,NA,NA,"BLDU",NA,NA,NA,36,10,"2014-04-14 08:54",29.25,"KMAF 140917Z AUTO 01029G35KT 8SM BLDU BKN023 05/M02 A2998 RMK AO2 PK WND 01036/0854 T00501017"
"118892","MAF","2014-04-14 09:53:00",-102.2075,31.9466,41,28.94,61.89,10,28,0,30,1012.8,8,34,"OVC",NA,NA,NA,2400,NA,NA,NA,"BLDU",NA,NA,NA,36,10,"2014-04-14 08:54",29.43,"KMAF 140953Z AUTO 01028G34KT 8SM BLDU OVC024 05/M02 A3000 RMK AO2 PK WND 01036/0854 SLP128 T00501017"
"118893","MAF","2014-04-14 10:53:00",-102.2075,31.9466,39.92,28.94,64.54,20,28,0,30.04,1014.2,9,33,"OVC",NA,NA,NA,2700,NA,NA,NA,"BLDU",NA,NA,NA,36,20,"2014-04-14 10:09",27.95,"KMAF 141053Z 02028G33KT 9SM BLDU OVC027 04/M02 A3004 RMK AO2 PK WND 02036/1009 SLP142 T00441017"
"118894","MAF","2014-04-14 11:53:00",-102.2075,31.9466,37.94,26.96,64.29,20,23,0,30.09,1015.9,10,30,"BKN",NA,NA,NA,2500,NA,NA,NA,"BLDU",NA,NA,NA,32,20,"2014-04-14 10:57",26.3,"KMAF 141153Z 02023G30KT 10SM BLDU BKN025 03/M03 A3009 RMK AO2 PK WND 02032/1057 SLP159 T00331028 10172 20033 53039"
"118899","MAF","2014-04-14 16:53:00",-102.2075,31.9466,44.06,24.08,45.01,360,23,0,30.26,1022.4,8,30,"CLR",NA,NA,NA,NA,NA,NA,NA,"BLDU",NA,NA,NA,33,10,"2014-04-14 16:16",34.52,"KMAF 141653Z 36023G30KT 8SM BLDU CLR 07/M04 A3026 RMK AO2 PK WND 01033/1616 SLP224 T00671044"
"118900","MAF","2014-04-14 17:53:00",-102.2075,31.9466,48.02,24.08,38.74,10,18,0,30.25,1022.3,9,26,"CLR",NA,NA,NA,NA,NA,NA,NA,"BLDU",NA,NA,NA,32,360,"2014-04-14 17:03",40.84,"KMAF 141753Z 01018G26KT 9SM BLDU CLR 09/M04 A3025 RMK AO2 PK WND 36032/1703 SLP223 T00891044 10089 20028 50007"
"118901","MAF","2014-04-14 18:53:00",-102.2075,31.9466,51.08,23,33.04,340,21,0,30.24,1022,7,31,"CLR",NA,NA,NA,NA,NA,NA,NA,"BLDU",NA,NA,NA,31,10,"2014-04-14 18:50",51.08,"KMAF 141853Z 34021G31KT 7SM BLDU SKC 11/M05 A3024 RMK AO2 PK WND 01031/1850 SLP220 T01061050"
"118902","MAF","2014-04-14 19:53:00",-102.2075,31.9466,53.06,23,30.71,10,23,0,30.24,1022.2,6,31,"CLR",NA,NA,NA,NA,NA,NA,NA,"BLDU",NA,NA,NA,31,350,"2014-04-14 19:30",53.06,"KMAF 141953Z 01023G31KT 6SM BLDU CLR 12/M05 A3024 RMK AO2 PK WND 35031/1930 SLP222 T01171050"
"118903","MAF","2014-04-14 20:53:00",-102.2075,31.9466,53.96,21.92,28.39,360,23,0,30.23,1022.2,8,31,"CLR",NA,NA,NA,NA,NA,NA,NA,"BLDU",NA,NA,NA,32,360,"2014-04-14 20:22",53.96,"KMAF 142053Z 36023G31KT 8SM BLDU CLR 12/M06 A3023 RMK AO2 PK WND 36032/2022 SLP222 T01221056 56006"
"118904","MAF","2014-04-14 21:53:00",-102.2075,31.9466,55.04,19.94,25.1,360,22,0,30.23,1022.1,9,32,"CLR",NA,NA,NA,NA,NA,NA,NA,"BLDU",NA,NA,NA,32,350,"2014-04-14 21:31",55.04,"KMAF 142153Z 36022G32KT 9SM BLDU CLR 13/M07 A3023 RMK AO2 PK WND 35032/2131 SLP221 T01281067"
"118905","MAF","2014-04-14 22:53:00",-102.2075,31.9466,53.96,19.04,25.12,360,21,0,30.23,1022.3,8,31,"FEW",NA,NA,NA,3900,NA,NA,NA,"BLDU",NA,NA,NA,31,360,"2014-04-14 22:31",53.96,"KMAF 142253Z 36021G31KT 8SM BLDU FEW039 12/M07 A3023 RMK AO2 PK WND 36031/2231 SLP223 T01221072"
"118906","MAF","2014-04-14 23:53:00",-102.2075,31.9466,53.06,17.96,24.79,350,22,0,30.24,1022.7,9,29,"FEW",NA,NA,NA,4200,NA,NA,NA,"BLDU",NA,NA,NA,30,360,"2014-04-14 23:07",53.06,"KMAF 142353Z 35022G29KT 9SM BLDU FEW042 12/M08 A3024 RMK AO2 PK WND 36030/2307 SLP227 T01171078 10133 20089 53002"
"119158","MAF","2014-04-24 15:03:00",-102.2075,31.9466,66.02,30.92,26.81,360,21,0,30.01,NA,2,30,"CLR",NA,NA,NA,NA,NA,NA,NA,"BLDU",NA,NA,NA,30,360,"2014-04-24 14:57",66.02,"KMAF 241503Z 36021G30KT 2SM BLDU CLR 19/M01 A3001 RMK AO2 PK WND 36030/1457 T01891006"
"119159","MAF","2014-04-24 15:53:00",-102.2075,31.9466,66.92,35.96,31.8,20,18,0,30.03,1012.7,2.5,27,"CLR",NA,NA,NA,NA,NA,NA,NA,"BLDU",NA,NA,NA,30,360,"2014-04-24 15:25",66.92,"KMAF 241553Z 02018G27KT 2 1/2SM BLDU CLR 19/02 A3003 RMK AO2 PK WND 36030/1525 SLP127 T01940022"
"119160","MAF","2014-04-24 16:53:00",-102.2075,31.9466,69.98,35.06,27.62,10,21,0,30.03,1012.7,2.5,28,"CLR",NA,NA,NA,NA,NA,NA,NA,"BLDU",NA,NA,NA,29,10,"2014-04-24 16:42",69.98,"KMAF 241653Z 01021G28KT 2 1/2SM BLDU CLR 21/02 A3003 RMK AO2 PK WND 01029/1642 SLP127 T02110017"
"119161","MAF","2014-04-24 17:19:00",-102.2075,31.9466,71.96,33.98,24.74,10,19,0,30.03,NA,6,24,"CLR",NA,NA,NA,NA,NA,NA,NA,"BLDU",NA,NA,NA,27,10,"2014-04-24 16:56",70.02,"KMAF 241719Z 01019G24KT 6SM BLDU CLR 22/01 A3003 RMK AO2 PK WND 01027/1656 T02220011"
"119235","MAF","2014-04-27 18:20:00",-102.2075,31.9466,77,19.94,11.7,260,29,0,29.66,NA,3,39,"CLR",NA,NA,NA,NA,NA,NA,NA,"BLDU",NA,NA,NA,41,240,"2014-04-27 18:05",74.95,"KMAF 271820Z 26029G39KT 3SM BLDU CLR 25/M07 A2966 RMK AO2 PK WND 24041/1805 T02501067"
"119236","MAF","2014-04-27 18:53:00",-102.2075,31.9466,77,19.04,11.26,250,28,0,29.64,999.1,3,46,"CLR",NA,NA,NA,NA,NA,NA,NA,"BLDU",NA,NA,NA,46,260,"2014-04-27 18:45",74.93,"KMAF 271853Z 25028G46KT 3SM BLDU CLR 25/M07 A2964 RMK AO2 PK WND 26046/1845 SLP991 T02501072"
"119237","MAF","2014-04-27 19:32:00",-102.2075,31.9466,78.98,17.96,10.07,260,37,0,29.63,NA,2,46,"CLR",NA,NA,NA,NA,NA,NA,NA,"BLDU",NA,NA,NA,46,240,"2014-04-27 19:26",77.05,"KMAF 271932Z 26037G46KT 2SM BLDU CLR 26/M08 A2963 RMK AO2 PK WND 24046/1926 T02611078"
"119238","MAF","2014-04-27 19:53:00",-102.2075,31.9466,78.08,19.04,10.87,240,37,0,29.62,998.4,2,48,"CLR",NA,NA,NA,NA,NA,NA,NA,"BLDU",NA,NA,NA,51,240,"2014-04-27 19:42",76.1,"KMAF 271953Z AUTO 24037G48KT 2SM BLDU CLR 26/M07 A2962 RMK AO2 PK WND 24051/1942 SLP984 T02561072 TSNO"
"119239","MAF","2014-04-27 20:00:00",-102.2075,31.9466,78.08,19.04,10.87,240,34,0,29.61,NA,5,43,"BKN","OVC",NA,NA,2600,3300,NA,NA,"BLDU",NA,NA,NA,41,250,"2014-04-27 19:59",76.1,"KMAF 272000Z AUTO 24034G43KT 5SM BLDU BKN026 OVC033 26/M07 A2961 RMK AO2 PK WND 25041/1959 T02561072 TSNO"
"119240","MAF","2014-04-27 20:11:00",-102.2075,31.9466,78.08,17.96,10.38,240,38,0,29.61,NA,2,47,"BKN","OVC",NA,NA,2800,3600,NA,NA,"BLDU",NA,NA,NA,47,240,"2014-04-27 20:03",76.08,"KMAF 272011Z 24038G47KT 2SM BLDU BKN028 OVC036 26/M08 A2961 RMK AO2 PK WND 24047/2003 T02561078"
"119241","MAF","2014-04-27 20:18:00",-102.2075,31.9466,78.08,17.96,10.38,240,34,0,29.61,NA,2,45,"OVC",NA,NA,NA,3200,NA,NA,NA,"BLDU",NA,NA,NA,47,240,"2014-04-27 20:03",76.08,"KMAF 272018Z 24034G45KT 2SM BLDU OVC032 26/M08 A2961 RMK AO2 PK WND 24047/2003 T02561078"
"119242","MAF","2014-04-27 20:53:00",-102.2075,31.9466,78.98,17.06,9.69,250,36,0,29.6,997.6,2,50,"CLR",NA,NA,NA,NA,NA,NA,NA,"BLDU",NA,NA,NA,51,240,"2014-04-27 20:29",77.03,"KMAF 272053Z 25036G50KT 2SM BLDU CLR 26/M08 A2960 RMK AO2 PK WND 24051/2029 SLP976 T02611083 56022"
"119243","MAF","2014-04-27 21:53:00",-102.2075,31.9466,78.98,17.96,10.07,250,33,0,29.59,997.7,2,45,"CLR",NA,NA,NA,NA,NA,NA,NA,"BLDU",NA,NA,NA,48,260,"2014-04-27 21:28",77.05,"KMAF 272153Z 25033G45KT 2SM BLDU CLR 26/M08 A2959 RMK AO2 PK WND 26048/2128 SLP977 T02611078"
"119244","MAF","2014-04-27 22:00:00",-102.2075,31.9466,78.98,17.96,10.07,250,36,0,29.59,NA,6,42,"BKN","OVC",NA,NA,3200,4200,NA,NA,"BLDU",NA,NA,NA,42,260,"2014-04-27 22:00",77.05,"KMAF 272200Z 25036G42KT 6SM BLDU BKN032 OVC042 26/M08 A2959 RMK AO2 PK WND 26042/2200 T02611078"
"119245","MAF","2014-04-27 22:53:00",-102.2075,31.9466,78.08,17.06,9.98,270,30,0,29.58,997.5,7,40,"CLR",NA,NA,NA,NA,NA,NA,NA,"BLDU",NA,NA,NA,46,270,"2014-04-27 22:03",76.06,"KMAF 272253Z 27030G40KT 7SM BLDU CLR 26/M08 A2958 RMK AO2 PK WND 27046/2203 SLP975 T02561083"
"119246","MAF","2014-04-27 23:53:00",-102.2075,31.9466,77,17.96,10.75,270,28,0,29.59,997.7,9,36,"SCT",NA,NA,NA,4300,NA,NA,NA,"BLDU",NA,NA,NA,42,270,"2014-04-27 23:04",74.91,"KMAF 272353Z 27028G36KT 9SM BLDU SCT043 25/M08 A2959 RMK AO2 PK WND 27042/2304 SLP977 T02501078 10267 20233 55004"
"119247","MAF","2014-04-28 00:53:00",-102.2075,31.9466,75.02,19.94,12.5,260,19,0,29.6,998.3,10,32,"CLR",NA,NA,NA,NA,NA,NA,NA,"BLDU",NA,NA,NA,35,280,"2014-04-28 00:06",72.81,"KMAF 280053Z 26019G32KT 10SM BLDU CLR 24/M07 A2960 RMK AO2 PK WND 28035/0006 SLP983 T02391067"
"119290","MAF","2014-04-29 19:53:00",-102.2075,31.9466,69.98,19.04,14.26,350,16,0,30.03,1013.3,8,23,"CLR",NA,NA,NA,NA,NA,NA,NA,"BLDU",NA,NA,NA,NA,NA,NA,69.98,"KMAF 291953Z 35016G23KT 8SM BLDU CLR 21/M07 A3003 RMK AO2 SLP133 T02111072"
"119291","MAF","2014-04-29 20:53:00",-102.2075,31.9466,71.06,17.96,13.13,10,17,0,30,1012.6,7,26,"OVC",NA,NA,NA,3500,NA,NA,NA,"BLDU",NA,NA,NA,27,360,"2014-04-29 20:31",68.48,"KMAF 292053Z 01017G26KT 7SM BLDU OVC035 22/M08 A3000 RMK AO2 PK WND 36027/2031 SLP126 T02171078 58013"
"119292","MAF","2014-04-29 21:53:00",-102.2075,31.9466,71.96,19.04,13.33,360,11,0,29.99,1012.2,6,23,"SCT",NA,NA,NA,3500,NA,NA,NA,"HZ BLDU",NA,NA,NA,26,10,"2014-04-29 21:05",69.48,"KMAF 292153Z 36011G23KT 6SM HZ BLDU SCT035 22/M07 A2999 RMK AO2 PK WND 01026/2105 SLP122 T02221072"
"119293","MAF","2014-04-29 22:53:00",-102.2075,31.9466,71.06,17.06,12.63,350,13,0,29.99,1012.6,10,27,"CLR",NA,NA,NA,NA,NA,NA,NA,"BLDU",NA,NA,NA,27,350,"2014-04-29 22:48",68.46,"KMAF 292253Z 35013G27KT 10SM BLDU CLR 22/M08 A2999 RMK AO2 PK WND 35027/2248 SLP126 T02171083"
"120423","MAF","2014-06-12 16:53:00",-102.2075,31.9466,84.02,60.08,44.45,350,16,0,29.97,1009.7,6,24,"CLR",NA,NA,NA,NA,NA,NA,NA,"BLDU",NA,NA,NA,26,360,"2014-06-12 16:01",84.06,"KMAF 121653Z 35016G24KT 6SM BLDU CLR 29/16 A2997 RMK AO2 PK WND 36026/1601 SLP097 T02890156"
"120424","MAF","2014-06-12 17:53:00",-102.2075,31.9466,87.98,60.08,39.17,20,13,0,29.96,1009.4,10,NA,"CLR",NA,NA,NA,NA,NA,NA,NA,"BLDU",NA,NA,NA,NA,NA,NA,87.98,"KMAF 121753Z 02013KT 10SM BLDU CLR 31/16 A2996 RMK AO2 SLP094 T03110156 10317 20244 50012"
"120586","MAF","2014-06-19 00:00:00",-102.2075,31.9466,78.98,60.08,52.37,80,27,0,29.87,NA,2.5,32,"SCT",NA,NA,NA,11000,NA,NA,NA,"DU",NA,NA,NA,32,80,"2014-06-18 23:59",80.12,"KMAF 190000Z 08027G32KT 2 1/2SM DU SCT110CB 26/16 A2987 RMK AO2 PK WND 08032/2359 WSHFT 2345 LTG DSNT ALQDS CB N-E  SW-NW MOV E T02610156"
"120587","MAF","2014-06-19 00:14:00",-102.2075,31.9466,80.96,60.08,49.09,100,22,0,29.84,NA,4,30,"SCT",NA,NA,NA,11000,NA,NA,NA,"VCTS DU",NA,NA,NA,32,80,"2014-06-18 23:59",81.59,"KMAF 190014Z 10022G30KT 4SM VCTS DU SCT110CB 27/16 A2984 RMK AO2 PK WND 08032/2359 WSHFT 2345 LTG DSNT ALQDS TSE12 PRESFR CB N-E  SW-NW MOV E T02720156"
"120956","MAF","2014-07-02 15:53:00",-102.2075,31.9466,80.06,64.94,59.99,0,0,0,30.14,1015.5,6,NA,"CLR",NA,NA,NA,NA,NA,NA,NA,"BLDU HZ",NA,NA,NA,NA,NA,NA,81.88,"KMAF 021553Z 00000KT 6SM BLDU HZ CLR 27/18 A3014 RMK AO2 SLP155 T02670183"
"121468","MAF","2014-07-22 21:42:00",-102.2075,31.9466,91.04,62.06,38.15,90,32,0,30.11,NA,2,40,"FEW","BKN",NA,NA,600,8000,NA,NA,"HZ BLDU",NA,NA,NA,NA,NA,NA,91.04,"KMAF 222142Z 09032G40KT 2SM HZ BLDU FEW006 BKN080 33/17 A3011 RMK AO2 PK WND 09040/2140 WSHFT 2128 T03280167"
"121469","MAF","2014-07-22 21:53:00",-102.2075,31.9466,86,64.94,49.51,110,27,0,30.11,1014.5,1.75,35,"FEW","BKN","BKN",NA,500,8500,11000,NA,"HZ BLDU",NA,NA,NA,NA,NA,NA,87.75,"KMAF 222153Z 11027G35KT 1 3/4SM HZ BLDU FEW005 BKN085 BKN110 30/18 A3011 RMK AO2 PK WND 09040/2140 WSHFT 2128 SLP145 T03000183"
"121470","MAF","2014-07-22 21:55:00",-102.2075,31.9466,84.92,66.02,53.21,110,25,0,30.11,NA,4,34,"FEW","BKN","BKN",NA,500,8500,12000,NA,"HZ BLDU",NA,NA,NA,NA,NA,NA,87.16,"KMAF 222155Z 11025G34KT 4SM HZ BLDU FEW005 BKN085 BKN120 29/19 A3011 RMK AO2 PK WND 11031/2154 T02940189"
"121621","MAF","2014-07-29 00:53:00",-102.2075,31.9466,87.98,64.04,45.04,80,20,0,30.12,1014.8,10,27,"CLR",NA,NA,NA,NA,NA,NA,NA,"BLDU",NA,NA,NA,29,80,"2014-07-29 00:02",89.34,"KMAF 290053Z 08020G27KT 10SM BLDU CLR 31/18 A3012 RMK AO2 PK WND 08029/0002 SLP148 T03110178"
"121622","MAF","2014-07-29 01:53:00",-102.2075,31.9466,86,64.04,47.97,80,15,0,30.13,1015.3,10,NA,"CLR",NA,NA,NA,NA,NA,NA,NA,"BLDU",NA,NA,NA,26,70,"2014-07-29 01:32",87.33,"KMAF 290153Z 08015KT 10SM BLDU CLR 30/18 A3013 RMK AO2 PK WND 07026/0132 SLP153 T03000178"
"121623","MAF","2014-07-29 02:53:00",-102.2075,31.9466,84.02,64.94,52.75,80,18,0,30.15,1015.9,10,NA,"CLR",NA,NA,NA,NA,NA,NA,NA,"BLDU",NA,NA,NA,NA,NA,NA,85.76,"KMAF 290253Z 08018KT 10SM BLDU CLR 29/18 A3015 RMK AO2 SLP159 T02890183 53011"
"121624","MAF","2014-07-29 03:53:00",-102.2075,31.9466,82.94,64.04,52.93,100,15,0,30.17,1016.6,10,NA,"CLR",NA,NA,NA,NA,NA,NA,NA,"BLDU",NA,NA,NA,NA,NA,NA,84.37,"KMAF 290353Z 10015KT 10SM BLDU CLR 28/18 A3017 RMK AO2 SLP166 T02830178"
"121669","MAF","2014-07-30 23:21:00",-102.2075,31.9466,89.06,60.08,37.85,330,33,0,29.94,NA,0.25,42,"SCT","BKN",NA,NA,600,11000,NA,NA,"BLDU",NA,NA,NA,42,330,"2014-07-30 23:19",89.06,"KMAF 302321Z 33033G42KT 1/4SM BLDU SCT006 BKN110 32/16 A2994 RMK AO2 PK WND 33042/2319 PRESRR T03170156"
"122313","MAF","2014-08-24 23:48:00",-102.2075,31.9466,84.2,60.8,45.34,20,26,0,29.93,NA,3,32,"FEW","BKN",NA,NA,900,9000,NA,NA,"TS BLDU",NA,NA,NA,NA,NA,NA,84.43,"KMAF 242348Z 02026G32KT 3SM TS BLDU FEW009 BKN090 29/16 A2993 RMK AO2 PK WND 02032/2347 WSHFT 2334 LTG DSNT NW-NE TSB47"
"122314","MAF","2014-08-24 23:53:00",-102.2075,31.9466,84.02,60.98,45.9,30,21,0,29.94,1008.8,5,32,"BKN",NA,NA,NA,9000,NA,NA,NA,"TS BLDU",NA,NA,NA,NA,NA,NA,84.33,"KMAF 242353Z 03021G32KT 5SM TS BLDU BKN090 29/16 A2994 RMK AO2 PK WND 02032/2347 WSHFT 2334 LTG DSNT NW-NE TSB47 SLP088 60000 T02890161 10372 20289 53007"
"122584","MAF","2014-09-04 16:53:00",-102.2075,31.9466,82.94,62.96,50.97,180,24,0,30.05,1012.9,8,30,"FEW",NA,NA,NA,3400,NA,NA,NA,"BLDU",NA,NA,NA,33,160,"2014-09-04 16:31",84,"KMAF 041653Z 18024G30KT 8SM BLDU FEW034 28/17 A3005 RMK AO2 PK WND 16033/1631 SLP129 T02830172"
"122585","MAF","2014-09-04 17:53:00",-102.2075,31.9466,87.08,60.98,41.61,160,25,0,30.05,1012.4,7,33,"FEW",NA,NA,NA,4300,NA,NA,NA,"BLDU",NA,NA,NA,33,160,"2014-09-04 17:50",87.13,"KMAF 041753Z 16025G33KT 7SM BLDU FEW043 31/16 A3005 RMK AO2 PK WND 16033/1750 SLP124 T03060161 10306 20206 50002"
"122586","MAF","2014-09-04 18:53:00",-102.2075,31.9466,87.08,60.08,40.3,170,22,0,30.03,1012,8,34,"FEW","SCT",NA,NA,4900,10000,NA,NA,"BLDU",NA,NA,NA,34,170,"2014-09-04 18:45",86.8,"KMAF 041853Z 17022G34KT 8SM BLDU FEW049 SCT100 31/16 A3003 RMK AO2 PK WND 17034/1845 SLP120 T03060156"
"122587","MAF","2014-09-04 19:53:00",-102.2075,31.9466,87.08,59,38.78,160,20,0,30.02,1011.6,9,31,"FEW",NA,NA,NA,5500,NA,NA,NA,"BLDU",NA,NA,NA,39,170,"2014-09-04 19:38",87.08,"KMAF 041953Z 16020G31KT 9SM BLDU FEW055 31/15 A3002 RMK AO2 PK WND 17039/1938 SLP116 T03060150"
"122588","MAF","2014-09-04 20:53:00",-102.2075,31.9466,89.06,60.08,37.85,170,22,0,29.99,1010.5,9,28,"SCT",NA,NA,NA,5500,NA,NA,NA,"BLDU",NA,NA,NA,36,160,"2014-09-04 20:03",89.06,"KMAF 042053Z 17022G28KT 9SM BLDU SCT055 32/16 A2999 RMK AO2 PK WND 16036/2003 SLP105 T03170156 58019"
"122589","MAF","2014-09-04 21:53:00",-102.2075,31.9466,87.98,62.06,42.02,170,24,0,29.98,1010.3,10,29,"SCT",NA,NA,NA,5000,NA,NA,NA,"BLDU",NA,NA,NA,39,170,"2014-09-04 21:02",88.43,"KMAF 042153Z 17024G29KT 10SM BLDU SCT050 31/17 A2998 RMK AO2 PK WND 17039/2102 SLP103 T03110167"
"122590","MAF","2014-09-04 22:53:00",-102.2075,31.9466,86,59,40.14,160,25,0,29.99,1010.6,10,32,"CLR",NA,NA,NA,NA,NA,NA,NA,"BLDU",NA,NA,NA,35,160,"2014-09-04 22:34",85.47,"KMAF 042253Z 16025G32KT 10SM BLDU CLR 30/15 A2999 RMK AO2 PK WND 16035/2234 SLP106 T03000150"
"122591","MAF","2014-09-04 23:53:00",-102.2075,31.9466,84.92,57.92,39.97,150,23,0,29.99,1010.9,10,NA,"CLR",NA,NA,NA,NA,NA,NA,NA,"BLDU",NA,NA,NA,31,170,"2014-09-04 23:08",84.92,"KMAF 042353Z 15023KT 10SM BLDU CLR 29/14 A2999 RMK AO2 PK WND 17031/2308 SLP109 T02940144 10322 20294 53001"
"122592","MAF","2014-09-05 00:53:00",-102.2075,31.9466,84.02,59,42.77,160,20,0,29.99,1010.9,10,26,"CLR",NA,NA,NA,NA,NA,NA,NA,"BLDU",NA,NA,NA,NA,NA,NA,83.77,"KMAF 050053Z 16020G26KT 10SM BLDU CLR 29/15 A2999 RMK AO2 PK WND 16030/0000 SLP109 T02890150"
"122593","MAF","2014-09-05 01:53:00",-102.2075,31.9466,82.94,60.08,46.03,170,15,0,30,1011.3,10,NA,"CLR",NA,NA,NA,NA,NA,NA,NA,"BLDU",NA,NA,NA,NA,NA,NA,83.16,"KMAF 050153Z 17015KT 10SM BLDU CLR 28/16 A3000 RMK AO2 SLP113 T02830156"
"122594","MAF","2014-09-05 02:53:00",-102.2075,31.9466,80.96,62.06,52.66,160,17,0,30.03,1012,10,NA,"CLR",NA,NA,NA,NA,NA,NA,NA,"BLDU",NA,NA,NA,NA,NA,NA,82.02,"KMAF 050253Z 16017KT 10SM BLDU CLR 27/17 A3003 RMK AO2 SLP120 T02720167 53012"
"125405","MAF","2014-12-14 19:53:00",-102.2075,31.9466,66.02,26.96,22.8,240,24,0,29.85,1007.5,10,30,"CLR",NA,NA,NA,NA,NA,NA,NA,"BLDU",NA,NA,NA,36,250,"2014-12-14 19:15",66.02,"KMAF 141953Z 24024G30KT 10SM BLDU CLR 19/M03 A2985 RMK AO2 PK WND 25036/1915 SLP075 T01891028"
"125406","MAF","2014-12-14 20:53:00",-102.2075,31.9466,66.02,24.98,21.01,230,22,0,29.83,1006.7,10,31,"CLR",NA,NA,NA,NA,NA,NA,NA,"BLDU",NA,NA,NA,35,250,"2014-12-14 20:18",66.02,"KMAF 142053Z 23022G31KT 10SM BLDU CLR 19/M04 A2983 RMK AO2 PK WND 25035/2018 SLP067 T01891039 56025"
"125407","MAF","2014-12-14 21:53:00",-102.2075,31.9466,66.92,26.06,21.3,230,21,0,29.81,1006.2,10,34,"CLR",NA,NA,NA,NA,NA,NA,NA,"BLDU",NA,NA,NA,34,240,"2014-12-14 21:44",66.92,"KMAF 142153Z 23021G34KT 10SM BLDU CLR 19/M03 A2981 RMK AO2 PK WND 24034/2144 SLP062 T01941033"
"125408","MAF","2014-12-14 22:53:00",-102.2075,31.9466,66.02,15.98,14.33,250,23,0,29.81,1006.1,9,36,"CLR",NA,NA,NA,NA,NA,NA,NA,"BLDU",NA,NA,NA,39,240,"2014-12-14 22:41",66.02,"KMAF 142253Z 25023G36KT 9SM BLDU CLR 19/M09 A2981 RMK AO2 PK WND 24039/2241 SLP061 T01891089"
"127027","MAF","2015-02-04 23:53:00",-102.2075,31.9466,59,39.02,47.39,20,29,0,30.02,1015,0.75,38,"VV ",NA,NA,NA,1800,NA,NA,NA,"HZ BLDU",NA,NA,NA,40,20,"2015-02-04 23:43",59,"KMAF 042353Z 02029G38KT 3/4SM HZ BLDU VV018 15/04 A3002 RMK AO2 PK WND 02040/2343 WSHFT 2308 PRESRR SLP150 T01500039 10244 20150 53024"
"127028","MAF","2015-02-04 23:55:00",-102.2075,31.9466,57.92,39.02,49.26,20,27,0,30.03,NA,3,38,"BKN",NA,NA,NA,1800,NA,NA,NA,"HZ BLDU",NA,NA,NA,32,20,"2015-02-04 23:55",57.92,"KMAF 042355Z 02027G38KT 3SM HZ BLDU BKN018 14/04 A3003 RMK AO2 PK WND 02032/2355 T01440039"
"127029","MAF","2015-02-04 23:57:00",-102.2075,31.9466,57.92,39.02,49.26,20,26,0,30.02,NA,1,38,"VV ",NA,NA,NA,1800,NA,NA,NA,"HZ BLDU",NA,NA,NA,32,20,"2015-02-04 23:55",57.92,"KMAF 042357Z 02026G38KT 1SM HZ BLDU VV018 14/04 A3002 RMK AO2 PK WND 02032/2355 T01440039"
"127030","MAF","2015-02-05 00:53:00",-102.2075,31.9466,44.06,35.06,70.42,20,24,0,30.14,1019.7,5,34,"OVC",NA,NA,NA,1600,NA,NA,NA,"HZ BLDU",NA,NA,NA,38,30,"2015-02-05 00:13",34.33,"KMAF 050053Z 02024G34KT 5SM HZ BLDU OVC016 07/02 A3014 RMK AO2 PK WND 03038/0013 PRESRR SLP197 T00670017"
"127031","MAF","2015-02-05 01:34:00",-102.2075,31.9466,39.92,33.98,79.12,30,26,0,30.19,NA,8,38,"OVC",NA,NA,NA,1400,NA,NA,NA,"BLDU",NA,NA,NA,38,30,"2015-02-05 01:26",28.33,"KMAF 050134Z 03026G38KT 8SM BLDU OVC014 04/01 A3019 RMK AO2 PK WND 03038/0126 PRESRR T00440011"
"136161","MAF","2015-12-27 17:09:00",-102.2075,31.9466,28.04,26.06,92.16,340,11,0.02,29.99,NA,0.25,NA,"FEW","OVC",NA,NA,700,1300,NA,NA,"TSSN FZFG",NA,NA,NA,NA,NA,NA,17.46,"KMAF 271709Z 34011KT 1/4SM TSSN FZFG FEW007 OVC013 M02/M03 A2999 RMK AO2 TSB04 P0002 T10221033 $"
"137202","MAF","2016-02-01 22:09:00",-102.2075,31.9466,68,30.92,25.04,290,31,0,29.49,NA,2.5,43,"BKN",NA,NA,NA,2800,NA,NA,NA,"BLDU",NA,NA,NA,43,290,"2016-02-01 22:08",68,"KMAF 012209Z 29031G43KT 2 1/2SM BLDU BKN028 20/M01 A2949 RMK AO2 PK WND 29043/2208 WSHFT 2147 PRESRR T02001006"
"137203","MAF","2016-02-01 22:53:00",-102.2075,31.9466,59,28.94,31.68,300,33,0,29.56,999,2.5,47,"OVC",NA,NA,NA,2800,NA,NA,NA,"BLDU",NA,NA,NA,47,310,"2016-02-01 22:44",59,"KMAF 012253Z 30033G47KT 2 1/2SM BLDU OVC028 15/M02 A2956 RMK AO2 PK WND 31047/2244 WSHFT 2147 SLP990 T01501017"
"137204","MAF","2016-02-01 22:57:00",-102.2075,31.9466,59,28.94,31.68,290,37,0,29.57,NA,5,45,"OVC",NA,NA,NA,3000,NA,NA,NA,"BLDU",NA,NA,NA,44,290,"2016-02-01 22:56",59,"KMAF 012257Z 29037G45KT 5SM BLDU OVC030 15/M02 A2957 RMK AO2 PK WND 29044/2256 PRESRR T01501017"
"137205","MAF","2016-02-01 23:53:00",-102.2075,31.9466,53.06,26.96,36.22,280,32,0,29.62,1001.3,5,44,"CLR",NA,NA,NA,NA,NA,NA,NA,"BLDU",NA,NA,NA,45,290,"2016-02-01 23:05",53.06,"KMAF 012353Z 28032G44KT 5SM BLDU CLR 12/M03 A2962 RMK AO2 PK WND 29045/2305 SLP013 T01171028 10256 20117 53047"
"211455","MAF","2016-12-17 20:53:00",-102.2075,31.9466,79,28.9,15.93,260,30,0,29.69,1001.5,8,39,"SCT",NA,NA,NA,3100,NA,NA,NA,"DU",NA,NA,NA,NA,NA,NA,77.35,"KMAF 172053Z 26030G39KT 8SM DU SCT031 26/M02 A2969 RMK AO2 PK WND 27047/2017 SLP015 T02611017 53014"
"211458","MAF","2016-12-17 21:03:00",-102.2075,31.9466,79,28,15.35,350,33,0,29.71,NA,1,46,"BKN","BKN",NA,NA,3200,11000,NA,NA,"SS",NA,NA,NA,NA,NA,NA,77.32,"KMAF 172103Z 35033G46KT 1SM SS BKN032 BKN110 26/M02 A2971 RMK AO2 PK WND 36046/2103 PRESRR T02611022"
"211459","MAF","2016-12-17 21:05:00",-102.2075,31.9466,NA,NA,NA,NA,NA,NA,29.73,NA,1,NA,NA,NA,NA,NA,NA,NA,NA,NA,"SS",NA,NA,NA,NA,NA,NA,NA,"KMAF 172105Z AUTO /////KT 1SM SS A2973 RMK MADISHF"
"211460","MAF","2016-12-17 21:10:00",-102.2075,31.9466,NA,NA,NA,NA,NA,NA,29.76,NA,1,NA,NA,NA,NA,NA,NA,NA,NA,NA,"SS",NA,NA,NA,NA,NA,NA,NA,"KMAF 172110Z AUTO /////KT 1SM SS A2976 RMK MADISHF"
"211461","MAF","2016-12-17 21:15:00",-102.2075,31.9466,NA,NA,NA,NA,NA,NA,29.77,NA,1,42,NA,NA,NA,NA,NA,NA,NA,NA,"SS",NA,NA,NA,NA,NA,NA,NA,"KMAF 172115Z AUTO /////G42KT 1SM SS A2977 RMK MADISHF"
"211462","MAF","2016-12-17 21:17:00",-102.2075,31.9466,44.1,25,46.7,20,34,0,29.78,NA,0.5,43,NA,NA,NA,NA,NA,NA,NA,NA,"SS",NA,NA,NA,NA,NA,NA,32.74,"KMAF 172117Z 02034G43KT 1/2SM SS 07/M04 A2978 RMK AO2 PRESRR T00671039 $"
"211463","MAF","2016-12-17 21:20:00",-102.2075,31.9466,44.1,25,46.7,20,32,0,29.78,NA,0.5,43,"VV ",NA,NA,NA,500,NA,NA,NA,"SS",NA,NA,NA,NA,NA,NA,33.03,"KMAF 172120Z 02032G43KT 1/2SM SS VV005 07/M04 A2978 RMK AO2 PRESRR T00671039 $"
"211464","MAF","2016-12-17 21:25:00",-102.2075,31.9466,NA,NA,NA,NA,NA,NA,29.79,NA,0.5,39,"VV ",NA,NA,NA,499,NA,NA,NA,"SS",NA,NA,NA,NA,NA,NA,NA,"KMAF 172125Z AUTO /////G39KT 1/2SM SS VV004 A2979 RMK MADISHF"
"211465","MAF","2016-12-17 21:30:00",-102.2075,31.9466,NA,NA,NA,10,28,NA,29.8,NA,0.5,NA,"VV ",NA,NA,NA,499,NA,NA,NA,"SS",NA,NA,NA,NA,NA,NA,NA,"KMAF 172130Z AUTO 01028KT 1/2SM SS VV004 A2980 RMK MADISHF"
"211466","MAF","2016-12-17 21:35:00",-102.2075,31.9466,NA,NA,NA,10,25,NA,29.81,NA,0.5,33,"VV ",NA,NA,NA,499,NA,NA,NA,"SS",NA,NA,NA,NA,NA,NA,NA,"KMAF 172135Z AUTO 01025G33KT 1/2SM SS VV004 A2981 RMK MADISHF"
"211467","MAF","2016-12-17 21:40:00",-102.2075,31.9466,NA,NA,NA,20,29,NA,29.82,NA,0.5,36,"VV ",NA,NA,NA,499,NA,NA,NA,"SS",NA,NA,NA,NA,NA,NA,NA,"KMAF 172140Z AUTO 02029G36KT 1/2SM SS VV004 A2982 RMK MADISHF"
"211468","MAF","2016-12-17 21:45:00",-102.2075,31.9466,NA,NA,NA,NA,NA,NA,29.83,NA,2,36,"OVC",NA,NA,NA,2400,NA,NA,NA,"SS",NA,NA,NA,NA,NA,NA,NA,"KMAF 172145Z AUTO /////G36KT 2SM SS OVC024 A2983 RMK MADISHF"
"211469","MAF","2016-12-17 21:48:00",-102.2075,31.9466,39.2,23,51.89,10,27,0,29.83,NA,2,36,"BKN","OVC",NA,NA,2400,3700,NA,NA,"SS",NA,NA,NA,NA,NA,NA,27.16,"KMAF 172148Z 01027G36KT 2SM SS BKN024 OVC037 04/M05 A2983 RMK AO2 $"
"211470","MAF","2016-12-17 21:50:00",-102.2075,31.9466,NA,NA,NA,10,28,NA,29.84,NA,2,NA,"BKN","OVC",NA,NA,2600,3700,NA,NA,"SS",NA,NA,NA,NA,NA,NA,NA,"KMAF 172150Z AUTO 01028KT 2SM SS BKN026 OVC037 A2984 RMK MADISHF"
"211471","MAF","2016-12-17 21:53:00",-102.2075,31.9466,39.9,23,50.5,20,25,0,29.84,1008.7,2.5,36,"BKN","OVC",NA,NA,2600,3700,NA,NA,"SS",NA,NA,NA,NA,NA,NA,28.51,"KMAF 172153Z 02025G36KT 2 1/2SM SS BKN026 OVC037 04/M05 A2984 RMK AO2 SLP087 T00441050 $"
"211472","MAF","2016-12-17 21:55:00",-102.2075,31.9466,NA,NA,NA,20,22,NA,29.85,NA,2.5,NA,"BKN","OVC",NA,NA,2600,3700,NA,NA,"SS",NA,NA,NA,NA,NA,NA,NA,"KMAF 172155Z AUTO 02022KT 2 1/2SM SS BKN026 OVC037 A2985 RMK MADISHF"
"211473","MAF","2016-12-17 22:00:00",-102.2075,31.9466,NA,NA,NA,20,28,NA,29.86,NA,2.5,NA,"BKN","OVC",NA,NA,2400,3700,NA,NA,"SS",NA,NA,NA,NA,NA,NA,NA,"KMAF 172200Z AUTO 02028KT 2 1/2SM SS BKN024 OVC037 A2986 RMK MADISHF"
