"","station","valid","lon","lat","tmpf","dwpf","relh","drct","sknt","p01i","alti","mslp","vsby","gust","skyc1","skyc2","skyc3","skyc4","skyl1","skyl2","skyl3","skyl4","wxcodes","ice_accretion_1hr","ice_accretion_3hr","ice_accretion_6hr","peak_wind_gust","peak_wind_drct","peak_wind_time","feel","metar"
"1595","HOB","2001-04-06 20:50:00",-103.217,32.6875,86,33.8,15.48,210,35,NA,29.57,NA,3,50,"BKN","   ","   ",NA,3000,NA,NA,NA,"BLDU",NA,NA,NA,NA,NA,NA,82.66,"KHOB 062050Z 21035G50KT 3SM BLDU BKN030 30/01 A2957 RMK SLPNO"
"1596","HOB","2001-04-06 21:15:00",-103.217,32.6875,69.8,39.2,32.72,240,35,NA,29.66,NA,1.5,48,"BKN","   ","   ",NA,3000,NA,NA,NA,"BLDU",NA,NA,NA,NA,NA,NA,69.8,"KHOB 062115Z 24035G48KT 1 1/2SM BLDU BKN030 21/04 A2966 RMK SLPNO"
"1597","HOB","2001-04-06 21:50:00",-103.217,32.6875,66.2,35.6,32.14,250,30,NA,29.68,NA,1.5,45,"VV ","   ","   ",NA,1000,NA,NA,NA,"BLDU",NA,NA,NA,NA,NA,NA,66.2,"KHOB 062150Z 25030G45KT 1 1/2SM BLDU VV010 19/02 A2968 RMK SLPNO"
"1599","HOB","2001-04-06 23:50:00",-103.217,32.6875,64.4,17.6,16.26,250,25,NA,29.78,NA,2,37,"VV ","   ","   ",NA,1000,NA,NA,NA,"BLDU",NA,NA,NA,NA,NA,NA,64.4,"KHOB 062350Z 25025G37KT 2SM BLDU VV010 18/M08 A2978 RMK SLPNO 10304"
"1666","HOB","2001-04-10 23:50:00",-103.217,32.6875,77,28.4,16.67,220,20,NA,29.5,NA,6,NA,"OVC","   ","   ",NA,10000,NA,NA,NA,"BLSA",NA,NA,NA,NA,NA,NA,75.18,"KHOB 102350Z 22020KT 6SM BLSA OVC100 25/M02 A2950 RMK SLPNO 10270"
"1667","HOB","2001-04-11 00:50:00",-103.217,32.6875,73.4,21.2,13.93,240,25,NA,29.53,NA,4,35,"OVC","   ","   ",NA,1000,NA,NA,NA,"BLDU",NA,NA,NA,NA,NA,NA,71.09,"KHOB 110050Z 24025G35KT 4SM BLDU OVC010 23/-06 A2953 RMK SLPNO"
"1668","HOB","2001-04-11 01:50:00",-103.217,32.6875,66.2,19.4,16.5,240,25,NA,29.58,NA,4,35,"OVC","   ","   ",NA,10000,NA,NA,NA,"BLDU",NA,NA,NA,NA,NA,NA,66.2,"KHOB 110150Z 24025G35KT 4SM BLDU OVC100 19/M07 A2958 RMK SLPNO"
"1669","HOB","2001-04-11 02:50:00",-103.217,32.6875,62.6,14,14.81,240,25,NA,29.62,NA,4,35,"OVC","   ","   ",NA,10000,NA,NA,NA,"BLDU",NA,NA,NA,NA,NA,NA,62.6,"KHOB 110250Z 24025G35KT 4SM BLDU OVC100 17/M10 A2962 RMK SLPNO"
"2323","HOB","2001-05-21 13:50:00",-103.217,32.6875,50,32,49.81,20,25,NA,30.14,NA,5,35,"SCT","   ","   ",NA,20000,NA,NA,NA,"BLDU",NA,NA,NA,NA,NA,NA,42.18,"KHOB 211350Z 02025G35KT 5SM BLDU SCT200 10/00 A3014 RMK SLPNO"
"2324","HOB","2001-05-21 14:50:00",-103.217,32.6875,51.8,32,46.59,20,20,NA,30.18,NA,5,35,"BKN","   ","   ",NA,9000,NA,NA,NA,"BLDU",NA,NA,NA,NA,NA,NA,51.8,"KHOB 211450Z 02020G35KT 5SM BLDU BKN090 11/M00 A3018 RMK SLPNO"
"3453","HOB","2001-07-27 23:38:00",-103.217,32.6875,91.4,62.6,38.45,70,20,NA,30.02,NA,3,NA,"BKN","   ","   ",NA,7000,NA,NA,NA,"DS",NA,NA,NA,NA,NA,NA,91.4,"KHOB 272338Z 07020KT 3SM DS BKN070CB 33/17 A3002 RMK CB E VIS E 1 SLPNO"
"3454","HOB","2001-07-27 23:50:00",-103.217,32.6875,86,62.6,45.61,60,20,NA,30.03,NA,3,NA,"BKN","   ","   ",NA,7000,NA,NA,NA,"DS",NA,NA,NA,NA,NA,NA,86.72,"KHOB 272350Z 06020KT 3SM DS BKN070CB 30/17 A3003 RMK VIS E 1 CB E SLPNO 10 384"
"4736","HOB","2001-10-11 01:40:00",-103.217,32.6875,71.6,37.4,28.68,330,40,NA,30.09,NA,3,NA,"OVC","   ","   ",NA,15000,NA,NA,NA,"BLDU",NA,NA,NA,NA,NA,NA,69.81,"KHOB 110140Z 33040KT 3SM BLDU OVC150 22/03 A3009 RMK SLPNO LTG DSNT NW"
"4737","HOB","2001-10-11 01:50:00",-103.217,32.6875,62.6,44.6,51.72,350,25,NA,30.08,NA,6,35,"OVC","   ","   ",NA,15000,NA,NA,NA,"BLDU",NA,NA,NA,NA,NA,NA,62.6,"KHOB 110150Z 35025G35KT 6SM BLDU OVC150 17/07 A3008 RMK SLPNO LTG OVHD"
"4767","HOB","2001-10-12 21:35:00",-103.217,32.6875,68,39.2,34.8,320,28,NA,29.79,NA,3,42,"BKN","   ","   ",NA,3000,NA,NA,NA,"BLDU",NA,NA,NA,NA,NA,NA,68,"KHOB 122135Z 32028G42KT 3SM BLDU BKN030 20/04 A2979 RMK SLPNO"
"4768","HOB","2001-10-12 21:50:00",-103.217,32.6875,57.2,42.8,58.52,330,25,NA,29.82,NA,3,40,"OVC","   ","   ",NA,2000,NA,NA,NA,"RA BLDU",NA,NA,NA,NA,NA,NA,57.2,"KHOB 122150Z 33025G40KT 3SM RA BLDU OVC020 14/06 A2982 RMK SLPNO"
"4770","HOB","2001-10-12 22:50:00",-103.217,32.6875,57.2,46.4,67.12,340,24,NA,29.89,NA,4,32,"BKN","   ","   ",NA,3000,NA,NA,NA,"-RA BLDU",NA,NA,NA,NA,NA,NA,57.2,"KHOB 122250Z 34024G32KT 4SM -RA BLDU BKN030 14/08 A2989 RMK SLPNO"
"4814","HOB","2001-10-15 16:55:00",-103.217,32.6875,69.8,35.6,28.39,20,20,NA,30.23,NA,5,30,"CLR","   ","   ",NA,NA,NA,NA,NA,"BLDU",NA,NA,NA,NA,NA,NA,69.8,"KHOB 151655Z 02020G30KT 5SM BLDU SKC 21/02 A3023 RMK SLPNO"
"4815","HOB","2001-10-15 17:50:00",-103.217,32.6875,69.8,37.4,30.49,20,20,NA,30.26,NA,3,30,"CLR","   ","   ",NA,NA,NA,NA,NA,"BLDU",NA,NA,NA,NA,NA,NA,69.8,"KHOB 151750Z 02020G30KT 3SM BLDU SKC 21/03 A3026 RMK SLPNO 20087"
"4816","HOB","2001-10-15 18:50:00",-103.217,32.6875,69.8,39.2,32.72,10,20,NA,30.27,NA,3,30,"CLR","   ","   ",NA,NA,NA,NA,NA,"BLDU",NA,NA,NA,NA,NA,NA,69.8,"KHOB 151850Z 01020G30KT 3SM BLDU SKC 21/04 A3027 RMK SLPNO"
"4818","HOB","2001-10-15 20:50:00",-103.217,32.6875,69.8,39.2,32.72,20,20,NA,30.3,NA,3,30,"CLR","   ","   ",NA,NA,NA,NA,NA,"BLDU",NA,NA,NA,NA,NA,NA,69.8,"KHOB 152050Z 02020G30KT 3SM BLDU SKC 21/04 A3030 RMK SLPNO"
"4819","HOB","2001-10-15 21:50:00",-103.217,32.6875,66.2,37.4,34.51,30,20,NA,30.33,NA,3,30,"CLR","   ","   ",NA,NA,NA,NA,NA,"BLDU",NA,NA,NA,NA,NA,NA,66.2,"KHOB 152150Z 03020G30KT 3SM BLDU SKC 19/03 A3033 RMK SLPNO"
"5197","HOB","2001-11-08 14:55:00",-103.217,32.6875,50,26.6,39.95,20,20,NA,30.4,NA,5,30,"FEW","   ","   ",NA,10000,NA,NA,NA,"DU",NA,NA,NA,NA,NA,NA,43.05,"KHOB 081455Z 02020G30KT 5SM DU FEW100 10/M03 A3040 RMK SLPNO"
"5198","HOB","2001-11-08 15:50:00",-103.217,32.6875,51.8,28.4,40.25,20,25,NA,30.42,NA,5,NA,"FEW","   ","   ",NA,15000,NA,NA,NA,"BLDU",NA,NA,NA,NA,NA,NA,51.8,"KHOB 081550Z 02025KT 5SM BLDU FEW150 11/M02 A3042 RMK SLPNO"
"5199","HOB","2001-11-08 16:50:00",-103.217,32.6875,55.4,30.2,37.97,10,20,NA,30.47,NA,5,NA,"SCT","   ","   ",NA,15000,NA,NA,NA,"BLDU",NA,NA,NA,NA,NA,NA,55.4,"KHOB 081650Z 01020KT 5SM BLDU SCT150 13/M01 A3047 RMK SLPNO"
"5200","HOB","2001-11-08 17:55:00",-103.217,32.6875,57.2,33.8,41.13,10,20,NA,30.47,NA,5,NA,"FEW","   ","   ",NA,15000,NA,NA,NA,"BLDU",NA,NA,NA,NA,NA,NA,57.2,"KHOB 081755Z 01020KT 5SM BLDU FEW150 14/01 A3047 RMK SLPNO"
"5201","HOB","2001-11-08 18:50:00",-103.217,32.6875,59,35.6,41.42,20,15,NA,30.45,NA,5,24,"CLR","   ","   ",NA,NA,NA,NA,NA,"BLDU",NA,NA,NA,NA,NA,NA,59,"KHOB 081850Z 02015G24KT 5SM BLDU SKC 15/02 A3045 RMK SLPNO 20099"
"6432","HOB","2002-01-20 19:50:00",-103.217,32.6875,66.2,10.4,11.14,240,25,NA,29.79,NA,7,35,"CLR","   ","   ",NA,NA,NA,NA,NA,"BLDU",NA,NA,NA,NA,NA,NA,66.2,"KHOB 201950Z 24025G35KT 7SM BLDU SKC 19/M12 A2979 RMK SLPNO"
"6770","HOB","2002-02-10 02:50:00",-103.217,32.6875,42.8,19.4,38.75,10,16,NA,30.36,NA,8,25,"CLR","   ","   ",NA,NA,NA,NA,NA,"BLDU",NA,NA,NA,NA,NA,NA,34.5,"KHOB 100250Z 01016G25KT 8SM BLDU SKC 06/M07 A3036 RMK SLPNO"
"6771","HOB","2002-02-10 03:50:00",-103.217,32.6875,41,19.4,41.54,10,18,NA,30.41,NA,8,29,"CLR","   ","   ",NA,NA,NA,NA,NA,"BLDU",NA,NA,NA,NA,NA,NA,31.6,"KHOB 100350Z 01018G29KT 8SM BLDU SKC 05/M07 A3041 RMK SLPNO"
"6772","HOB","2002-02-10 04:47:00",-103.217,32.6875,41,21.2,44.85,10,18,NA,30.44,NA,7,32,"CLR","   ","   ",NA,NA,NA,NA,NA,"BLDU",NA,NA,NA,NA,NA,NA,31.6,"KHOB 100447Z 01018G32KT 7SM BLDU SKC 05/M06 A3044 RMK SLPNO 401402041 LAST"
"6810","HOB","2002-02-12 16:50:00",-103.217,32.6875,44.6,23,42.14,101,20,NA,30.17,NA,10,30,"CLR","   ","   ",NA,NA,NA,NA,NA,"BLDU",NA,NA,NA,NA,NA,NA,35.87,"KHOB 121650Z 10120G30KT 10SM BLDU SKC 07/M05 A3017 RMK SLPNO"
"6811","HOB","2002-02-12 17:50:00",-103.217,32.6875,48.2,23,36.78,10,15,NA,30.19,NA,6,25,"CLR","   ","   ",NA,NA,NA,NA,NA,"BLDU",NA,NA,NA,NA,NA,NA,41.78,"KHOB 121750Z 01015G25KT 6SM BLDU SKC 09/M05 A3019 RMK SLPNO"
"6812","HOB","2002-02-12 18:50:00",-103.217,32.6875,50,24.8,37.08,10,20,NA,30.19,NA,6,NA,"CLR","   ","   ",NA,NA,NA,NA,NA,"BLDU",NA,NA,NA,NA,NA,NA,43.05,"KHOB 121850Z 01020KT 6SM BLDU SKC 10/M04 A3019 RMK SLPNO 21033"
"6918","HOB","2002-02-19 01:50:00",-103.217,32.6875,64.4,26.6,23.77,270,15,NA,29.73,NA,6,NA,"BKN","   ","   ",NA,20000,NA,NA,NA,"BLDU",NA,NA,NA,NA,NA,NA,64.4,"KHOB 190150Z 27015KT 6SM BLDU BKN200 18/M03 A2973 RMK SLPNO"
"6954","HOB","2002-02-21 16:50:00",-103.217,32.6875,53.6,30.2,40.54,10,25,NA,30.35,NA,5,35,"SCT","   ","   ",NA,12000,NA,NA,NA,"BLDU",NA,NA,NA,NA,NA,NA,53.6,"KHOB 211650Z 01025G35KT 5SM BLDU SCT120 12/M01 A3035 RMK SLPNO"
"6955","HOB","2002-02-21 17:50:00",-103.217,32.6875,55.4,28.4,35.28,10,25,NA,30.39,NA,5,35,"BKN","   ","   ",NA,12000,NA,NA,NA,"BLDU",NA,NA,NA,NA,NA,NA,55.4,"KHOB 211750Z 01025G35KT 5SM BLDU BKN120 13/M02 A3039"
"6956","HOB","2002-02-21 18:50:00",-103.217,32.6875,57.2,28.4,33.05,20,25,NA,30.41,NA,6,35,"BKN","   ","   ",NA,12000,NA,NA,NA,"BLDU",NA,NA,NA,NA,NA,NA,57.2,"KHOB 211850Z 02025G35KT 6SM BLDU BKN120 14/M02 A3041 RMK SLPNO 20061"
"7029","HOB","2002-02-25 23:50:00",-103.217,32.6875,66.2,24.8,20.72,10,25,NA,30.09,NA,3,37,"CLR","   ","   ",NA,NA,NA,NA,NA,"BLDU",NA,NA,NA,NA,NA,NA,66.2,"KHOB 252350Z 01025G37KT 03SM BLDU SKC 19/M04 A3009 RMK SLPNO 10244"
"7030","HOB","2002-02-26 00:50:00",-103.217,32.6875,48.2,21.2,34.09,20,21,NA,30.18,NA,3,35,"CLR","   ","   ",NA,NA,NA,NA,NA,"BLDU",NA,NA,NA,NA,NA,NA,40.46,"KHOB 260050Z 02021G35KT 3SM BLDU SKC 09/M06 A3018 RMK SLPNO"
"7031","HOB","2002-02-26 01:50:00",-103.217,32.6875,35.6,19.4,51.33,30,17,NA,30.26,NA,6,27,"CLR","   ","   ",NA,NA,NA,NA,NA,"BLDU",NA,NA,NA,NA,NA,NA,24.79,"KHOB 260150Z 03017G27KT 6SM BLDU SKC 02/M07 A3026 RMK SLPNO"
"7097","HOB","2002-03-01 23:50:00",-103.217,32.6875,69.8,12.2,10.66,250,27.21,NA,29.57,NA,6,46.65,"CLR","   ","   ",NA,NA,NA,NA,NA,"BLDU",NA,NA,NA,NA,NA,NA,69.8,"KHOB 012350Z 25014G24 6SM BLDU SKC 21/M11 A2957 RMK SLPNO 10240"
"7098","HOB","2002-03-02 00:50:00",-103.217,32.6875,66.2,12.2,12.06,220,14,NA,29.58,NA,5,NA,"CLR","   ","   ",NA,NA,NA,NA,NA,"BLDU",NA,NA,NA,NA,NA,NA,66.2,"KHOB 020050Z 22014KT 5SM BLDU SKC 19/M11 A2958 RMK SLPNO"
"7099","HOB","2002-03-02 01:50:00",-103.217,32.6875,60.8,14,15.78,240,10,NA,29.61,NA,5,NA,"CLR","   ","   ",NA,NA,NA,NA,NA,"DU",NA,NA,NA,NA,NA,NA,60.8,"KHOB 020150Z 24010KT 5SM DU SKC 16/M10 A2961 RMK SLPNO"
"7100","HOB","2002-03-02 02:34:00",-103.217,32.6875,55.4,12.2,17.7,10,25,NA,29.69,NA,0.5,40,"VV ","   ","   ",NA,100,NA,NA,NA,"BLDU",NA,NA,NA,NA,NA,NA,55.4,"KHOB 020234Z 01025G40KT 1/2SM BLDU VV001 13/M11 A2969 RMK WNDSHFT FROPA"
"7101","HOB","2002-03-02 02:50:00",-103.217,32.6875,39.2,12.2,32.58,10,25,NA,29.72,NA,1,35,"CLR","   ","   ",NA,NA,NA,NA,NA,"BLDU",NA,NA,NA,NA,NA,NA,27.56,"KHOB 020250Z 01025G35KT 1SM BLDU SKC 04/M11 A2972 RMK SLPNO"
"7102","HOB","2002-03-02 03:50:00",-103.217,32.6875,30.2,8.6,39.7,20,20,NA,29.77,NA,3,34,"CLR","   ","   ",NA,NA,NA,NA,NA,"BLDU",NA,NA,NA,NA,NA,NA,16.75,"KHOB 020350Z 02020G34KT 3SM BLDU SKC M01/M13 A2977 RMK SLPNO"
"7209","HOB","2002-03-08 19:50:00",-103.217,32.6875,77,15.8,9.79,240,25,NA,29.74,NA,5,35,"CLR","   ","   ",NA,NA,NA,NA,NA,"BLDU",NA,NA,NA,NA,NA,NA,74.86,"KHOB 081950Z 24025G35KT 5SM BLDU SKC 25/M09 A2974 RMK SLPNO"
"7210","HOB","2002-03-08 20:50:00",-103.217,32.6875,77,17.6,10.59,240,30,NA,29.71,NA,5,40,"CLR","   ","   ",NA,NA,NA,NA,NA,"BLDU",NA,NA,NA,NA,NA,NA,74.9,"KHOB 082050Z 24030G40KT 5SM BLDU SKC 25/M08 A2971 RMK SLPNO"
"7211","HOB","2002-03-08 21:50:00",-103.217,32.6875,77,15.8,9.79,230,25,NA,29.71,NA,5,35,"CLR","   ","   ",NA,NA,NA,NA,NA,"BLDU",NA,NA,NA,NA,NA,NA,74.86,"KHOB 082150Z 23025G35KT 5SM BLDU SKC 25/M09 A2971 RMK SLPNO"
"7212","HOB","2002-03-08 22:50:00",-103.217,32.6875,77,15.8,9.79,240,25,NA,29.73,NA,5,35,"CLR","   ","   ",NA,NA,NA,NA,NA,"BLDU",NA,NA,NA,NA,NA,NA,74.86,"KHOB 082250Z 24025G35KT 5SM BLDU SKC 25/M09 A2973 RMK SLPNO"
"7213","HOB","2002-03-08 23:50:00",-103.217,32.6875,75.2,15.8,10.4,240,20,NA,29.75,NA,3,30,"CLR","   ","   ",NA,NA,NA,NA,NA,"BLDU",NA,NA,NA,NA,NA,NA,72.91,"KHOB 082350Z 24020G30KT 3SM BLDU SKC 24/M09 A2975 RMK SLPNO 10257"
"7214","HOB","2002-03-09 00:50:00",-103.217,32.6875,71.6,17.6,12.69,250,15,NA,29.8,NA,3,25,"FEW","   ","   ",NA,20000,NA,NA,NA,"BLDU",NA,NA,NA,NA,NA,NA,69.06,"KHOB 090050Z 25015G25KT 3SM BLDU FEW200 22/M08 A2980 RMK SLPNO"
"7257","HOB","2002-03-11 17:50:00",-103.217,32.6875,71.6,21.2,14.8,300,25,NA,29.92,NA,6,45,"CLR","   ","   ",NA,NA,NA,NA,NA,"BLDU",NA,NA,NA,NA,NA,NA,69.16,"KHOB 111750Z 30025G45KT 6SM BLDU SKC 22/M06 A2992 RMK SLPNO 20026"
"7259","HOB","2002-03-11 19:50:00",-103.217,32.6875,73.4,24.8,16.2,300,30,NA,29.92,NA,5,45,"FEW","   ","   ",NA,10000,NA,NA,NA,"BLDU",NA,NA,NA,NA,NA,NA,71.2,"KHOB 111950Z 30030G45KT 5SM BLDU FEW100 23/M04 A2992 RMK SLPNO"
"7260","HOB","2002-03-11 20:50:00",-103.217,32.6875,75.2,26.6,16.43,320,27,NA,29.92,NA,7,42,"FEW","   ","   ",NA,18000,NA,NA,NA,"BLDU",NA,NA,NA,NA,NA,NA,73.19,"KHOB 112050Z 32027G42KT 7SM BLDU FEW180 24/M03 A2992 RMK SLPNO"
"7261","HOB","2002-03-11 21:50:00",-103.217,32.6875,73.4,24.8,16.2,340,22,NA,29.96,NA,7,33,"CLR","   ","   ",NA,NA,NA,NA,NA,"BLDU",NA,NA,NA,NA,NA,NA,71.2,"KHOB 112150Z 34022G33KT 7SM BLDU SKC 23/M04 A2996 RMK SLPNO"
"7313","HOB","2002-03-14 23:50:00",-103.217,32.6875,78.8,32,18.18,230,14,NA,29.63,NA,5,24,"SCT","   ","   ",NA,20000,NA,NA,NA,"BLDU",NA,NA,NA,NA,NA,NA,77.23,"KHOB 142350Z 23014G24KT 5SM BLDU SCT200 26/00 A2963 RMK SLPNO 10276"
"7485","HOB","2002-03-24 23:50:00",-103.217,32.6875,73.4,32,21.76,260,16,NA,29.69,NA,5,NA,"CLR","   ","   ",NA,NA,NA,NA,NA,"BLDU",NA,NA,NA,NA,NA,NA,71.46,"KHOB 242350Z 26016KT 5SM BLDU SKC 23/M00 A2969 RMK SLPNO 10248"
"7486","HOB","2002-03-25 00:50:00",-103.217,32.6875,71.6,30.2,21.5,250,15,NA,29.69,NA,5,NA,"CLR","   ","   ",NA,NA,NA,NA,NA,"BLDU",NA,NA,NA,NA,NA,NA,69.47,"KHOB 250050Z 25015KT 5SM BLDU SKC 22/M01 A2969 RMK SLPNO"
"7487","HOB","2002-03-25 01:50:00",-103.217,32.6875,68,24.8,19.47,250,12,NA,29.71,NA,6,NA,"CLR","   ","   ",NA,NA,NA,NA,NA,"DU",NA,NA,NA,NA,NA,NA,68,"KHOB 250150Z 25012KT 6SM DU SKC 20/M04 A2971 RMK SLPNO"
"7569","HOB","2002-03-30 00:50:00",-103.217,32.6875,68,42.8,40,90,20,NA,29.71,NA,6,30,"BKN","   ","   ",NA,7000,NA,NA,NA,"BLDU",NA,NA,NA,NA,NA,NA,68,"KHOB 300050Z 09020G30KT 6SM BLDU BKN070 20/06 A2971 RMK SLPNO"
"7627","HOB","2002-04-02 14:50:00",-103.217,32.6875,57.2,39.2,50.91,20,20,NA,29.93,NA,5,30,"SCT","   ","   ",NA,10000,NA,NA,NA,"BLDU",NA,NA,NA,NA,NA,NA,57.2,"KHOB 021450Z 02020G30KT 5SM BLDU SCT100 14/04 A2993 RMK PRESRR SLPNO"
"7631","HOB","2002-04-02 19:50:00",-103.217,32.6875,59,37.4,44.47,30,20,NA,30.04,NA,6,NA,"CLR","   ","   ",NA,NA,NA,NA,NA,"BLDU",NA,NA,NA,NA,NA,NA,59,"KHOB 021950Z 03020KT 6SM BLDU SKC 15/03 A3004 RMK SLPNO"
"7632","HOB","2002-04-02 20:50:00",-103.217,32.6875,59,35.6,41.42,30,20,NA,30.04,NA,6,NA,"CLR","   ","   ",NA,NA,NA,NA,NA,"BLDU",NA,NA,NA,NA,NA,NA,59,"KHOB 022050Z 03020KT 6SM BLDU SKC 15/02 A3004 RMK SLPNO"
"7633","HOB","2002-04-02 21:50:00",-103.217,32.6875,60.8,35.6,38.85,20,15,NA,30.04,NA,6,NA,"FEW","   ","   ",NA,15000,NA,NA,NA,"BLDU",NA,NA,NA,NA,NA,NA,60.8,"KHOB 022150Z 02015KT 6SM BLDU FEW150 16/02 A3004 RMK SLPNO"
"8009","HOB","2002-04-24 23:50:00",-103.217,32.6875,91.4,44.6,19.89,100,10,NA,30.05,NA,3,NA,"BKN","   ","   ",NA,15000,NA,NA,NA,"DU",NA,NA,NA,NA,NA,NA,87.68,"KHOB 242350Z 10010KT 3SM DU BKN150 33/07 A3005 RMK SLPNO 10358"
"8840","HOB","2002-06-13 23:35:00",-103.217,32.6875,91.4,68,46.41,80,20,NA,29.9,NA,3,30,"SCT","   ","   ",NA,7000,NA,NA,NA,"BLDU",NA,NA,NA,NA,NA,NA,95.55,"KHOB 132335Z 08020G30KT 3SM BLDU SCT070 33/20 A2990"
"8841","HOB","2002-06-13 23:50:00",-103.217,32.6875,84.2,64.4,51.47,80,16,NA,29.92,NA,5,26,"BKN","   ","   ",NA,8000,NA,NA,NA,"BLDU",NA,NA,NA,NA,NA,NA,85.71,"KHOB 132350Z 08016G26KT 5SM BLDU BKN080 29/18 A2992 RMK SLPNO 10393"
"10675","HOB","2002-10-02 00:25:00",-103.217,32.6875,87.8,59,37.9,150,20,NA,29.86,NA,3,30,"SCT","   ","   ",NA,5000,NA,NA,NA,"BLDU",NA,NA,NA,NA,NA,NA,87.8,"KHOB 020025Z 15020G30KT 3SM BLDU SCT050 31/15 A2986 RMK OCNL LTG DSNT E TS E MOVG NE"
"10676","HOB","2002-10-02 00:50:00",-103.217,32.6875,77,62.6,61.13,140,16,NA,29.88,NA,5,NA,"BKN","   ","   ",NA,3000,NA,NA,NA,"DU",NA,NA,NA,NA,NA,NA,77,"KHOB 020050Z 14016KT 5SM DU BKN030 25/17 A2988 RMK FREQ LTGICCG S-NE TS S NE MOVG NE"
"11960","HOB","2002-12-17 20:50:00",-103.217,32.6875,73.4,24.8,16.2,240,30,NA,29.55,NA,5,40,"BKN","   ","   ",NA,20000,NA,NA,NA,"BLDU",NA,NA,NA,NA,NA,NA,71.2,"KHOB 172050Z 24030G40KT 5SM BLDU BKN200 23/M04 A2955 RMK SLPNO"
"11961","HOB","2002-12-17 21:50:00",-103.217,32.6875,71.6,21.2,14.8,240,25,NA,29.55,NA,3,35,"BKN","   ","   ",NA,20000,NA,NA,NA,"BLDU",NA,NA,NA,NA,NA,NA,69.16,"KHOB 172150Z 24025G35KT 3SM BLDU BKN200 22/M06 A2955 RMK SLPNO"
"11962","HOB","2002-12-17 22:50:00",-103.217,32.6875,71.6,23,15.97,230,20,NA,29.55,NA,5,30,"BKN","   ","   ",NA,20000,NA,NA,NA,"BLDU",NA,NA,NA,NA,NA,NA,69.21,"KHOB 172250Z 23020G30KT 5SM BLDU BKN200 22/M05 A2955 RMK SLPNO"
"11963","HOB","2002-12-17 23:50:00",-103.217,32.6875,69.8,21.2,15.73,240,15,NA,29.56,NA,4,25,"BKN","   ","   ",NA,20000,NA,NA,NA,"BLDU",NA,NA,NA,NA,NA,NA,69.8,"KHOB 172350Z 24015G25KT 4SM BLDU BKN200 21/M06 A2956 RMK SLPNO 10240"
"11964","HOB","2002-12-18 00:50:00",-103.217,32.6875,66.2,21.2,17.81,250,14,NA,29.59,NA,4,24,"BKN","   ","   ",NA,20000,NA,NA,NA,"BLDU",NA,NA,NA,NA,NA,NA,66.2,"KHOB 180050Z 25014G24KT 4SM BLDU BKN200 19/M06 A2959 RMK SLPNO"
"11965","HOB","2002-12-18 01:50:00",-103.217,32.6875,62.6,24.8,23.5,250,12,NA,29.6,NA,6,NA,"BKN","   ","   ",NA,20000,NA,NA,NA,"DU",NA,NA,NA,NA,NA,NA,62.6,"KHOB 180150Z 250012KT 6SM DU BKN200 17/M04 A2960 RMK SLPNO"
"11967","HOB","2002-12-18 03:50:00",-103.217,32.6875,60.8,33.8,36.16,270,20,NA,29.64,NA,7,NA,"BKN","   ","   ",NA,15000,NA,NA,NA,"BLDU",NA,NA,NA,NA,NA,NA,60.8,"KHOB 180350Z 27020KT 7SM BLDU BKN150 16/01 A2964 RMK SLPNO"
"12752","HOB","2003-02-02 22:50:00",-103.217,32.6875,77,35.6,22.28,240,20,NA,29.66,NA,5,30,"BKN","   ","   ",NA,20000,NA,NA,NA,"BLDU",NA,NA,NA,NA,NA,NA,75.45,"KHOB 022250Z 24020G30KT 5SM BLDU BKN200 25/02 A2966 RMK SLPNO"
"12753","HOB","2003-02-02 23:50:00",-103.217,32.6875,75.2,35.6,23.66,230,12,NA,29.65,NA,5,NA,"BKN","   ","   ",NA,20000,NA,NA,NA,"DU",NA,NA,NA,NA,NA,NA,73.53,"KHOB 022350Z 23012KT 5SM DU BKN200 24/02 A2965 RMK SLPNO 10279"
"12754","HOB","2003-02-03 00:50:00",-103.217,32.6875,73.4,37.4,26.98,220,12,NA,29.64,NA,7,22,"BKN","   ","   ",NA,20000,NA,NA,NA,"BLDU",NA,NA,NA,NA,NA,NA,71.71,"KHOB 030050Z 22012G22KT 7SM BLDU BKN200 23/03 A2964 RMK SLPNO"
"12755","HOB","2003-02-03 01:50:00",-103.217,32.6875,71.6,37.4,28.68,220,15,NA,29.65,NA,8,NA,"BKN","   ","   ",NA,20000,NA,NA,NA,"DU",NA,NA,NA,NA,NA,NA,69.81,"KHOB 030150Z 22015KT 8SM DU BKN200 22/03 A2965 RMK SLPNO"
"12756","HOB","2003-02-03 02:50:00",-103.217,32.6875,66.2,37.4,34.51,200,10,NA,29.68,NA,8,NA,"BKN","   ","   ",NA,20000,NA,NA,NA,"DU",NA,NA,NA,NA,NA,NA,66.2,"KHOB 030250Z 20010KT 8SM DU BKN200 19/03 A2968 RMK SLPNO"
"13022","HOB","2003-02-19 00:50:00",-103.217,32.6875,69.8,30.2,22.86,240,20,NA,29.9,NA,6,30,"BKN","   ","   ",NA,15000,NA,NA,NA,"BLDU",NA,NA,NA,NA,NA,NA,69.8,"KHOB 190050Z 24020G30KT 6SM BLDU BKN150 21/M01 A2990"
"13023","HOB","2003-02-19 01:50:00",-103.217,32.6875,68,30.2,24.32,230,15,NA,29.93,NA,6,25,"BKN","   ","   ",NA,15000,NA,NA,NA,"BLDU",NA,NA,NA,NA,NA,NA,68,"KHOB 190150Z 23015G25KT 6SM BLDU BKN150 20/M01 A2993 RMK SLPNO"
"13829","HOB","2003-04-08 03:50:00",-103.217,32.6875,50,33.8,53.54,30,18,NA,30.27,NA,6,28,"CLR","   ","   ",NA,NA,NA,NA,NA,"BLDU",NA,NA,NA,NA,NA,NA,43.44,"KHOB 080350Z 03018G28KT 6SM BLDU SKC 10/01 A3027 RMK SLPNO 402262033 LAST"
"13943","HOB","2003-04-15 19:50:00",-103.217,32.6875,82.4,51.8,34.69,190,22,NA,29.7,NA,6,32,"BKN","   ","   ",NA,5000,NA,NA,NA,"-RA BLDU",NA,NA,NA,NA,NA,NA,81.2,"KHOB 151950Z 19022G32KT 6SM -RA BLDU BKN050 28/11 A2970 RMK SLPNO"
"13944","HOB","2003-04-15 20:50:00",-103.217,32.6875,86,50,28.9,210,30,NA,29.64,NA,3,45,"BKN","   ","   ",NA,5000,NA,NA,NA,"BLDU",NA,NA,NA,NA,NA,NA,83.62,"KHOB 152050Z 21030G45KT 3SM BLDU BKN050 30/10 A2964 RMK SLPNO"
"13945","HOB","2003-04-15 21:26:00",-103.217,32.6875,87.8,37.4,16.86,220,40,NA,29.62,NA,1,50,"BKN","   ","   ",NA,5000,NA,NA,NA,"BLDU",NA,NA,NA,NA,NA,NA,84.16,"KHOB 152126Z 22040G50KT 1SM BLDU BKN050 31/03 A2962"
"13946","HOB","2003-04-15 21:50:00",-103.217,32.6875,87.8,35.6,15.7,230,35,NA,29.63,NA,1,50,"VV ","   ","   ",NA,400,NA,NA,NA,"BLDU",NA,NA,NA,NA,NA,NA,84.12,"KHOB 152150Z 23035G50KT 1SM BLDU VV004 31/02 A2963 RMK SLPNO"
"13947","HOB","2003-04-15 22:30:00",-103.217,32.6875,80.6,32,17.14,240,32,NA,29.68,NA,0.62,45,"VV ","   ","   ",NA,400,NA,NA,NA,"DS",NA,NA,NA,NA,NA,NA,78.82,"KHOB 152230Z 24032G45KT 5/8SM DS VV004 27/M00 A2968"
"13948","HOB","2003-04-15 22:50:00",-103.217,32.6875,80.6,30.2,15.94,250,35,NA,29.69,NA,0.62,50,"VV ","   ","   ",NA,400,NA,NA,NA,"DS",NA,NA,NA,NA,NA,NA,78.77,"KHOB 152250Z 25035G50KT 5/8SM DS VV004 27/M01 A2969 RMK SLPNO"
"13949","HOB","2003-04-15 23:32:00",-103.217,32.6875,75.2,28.4,17.7,250,35,NA,29.72,NA,1,52,"VV ","   ","   ",NA,800,NA,NA,NA,"BLDU",NA,NA,NA,NA,NA,NA,73.25,"KHOB 152332Z 25035G52KT 1SM BLDU VV008 24/M02 A2972"
"13951","HOB","2003-04-16 00:32:00",-103.217,32.6875,69.8,23,16.98,250,28,NA,29.78,NA,3,40,"CLR","   ","   ",NA,NA,NA,NA,NA,"BLDU",NA,NA,NA,NA,NA,NA,69.8,"KHOB 160032Z 25028G40KT 3SM BLDU SKC 21/M05 A2978"
"13952","HOB","2003-04-16 00:50:00",-103.217,32.6875,68,21.2,16.74,250,25,NA,29.79,NA,3,40,"CLR","   ","   ",NA,NA,NA,NA,NA,"BLDU",NA,NA,NA,NA,NA,NA,68,"KHOB 160050Z 25025G40KT 3SM BLDU SKC 20/M06 A2979"
"13953","HOB","2003-04-16 01:50:00",-103.217,32.6875,64.4,19.4,17.56,240,25,NA,29.81,NA,6,35,"CLR","   ","   ",NA,NA,NA,NA,NA,"BLDU",NA,NA,NA,NA,NA,NA,64.4,"KHOB 160150Z 24025G35KT 6SM BLDU SKC 18/M07 A2981 RMK SLPNO"
"14083","HOB","2003-04-23 22:50:00",-103.217,32.6875,77,24.8,14.37,240,25,NA,29.7,NA,10,35,"CLR","   ","   ",NA,NA,NA,NA,NA,"BLDU",NA,NA,NA,NA,NA,NA,75.08,"KHOB 232250Z 24025G35KT 10SM BLDU SKC 25/M04 A2970 RMK SLPNO"
"14085","HOB","2003-04-24 00:50:00",-103.217,32.6875,73.4,21.2,13.93,250,30,NA,29.69,NA,10,40,"CLR","   ","   ",NA,NA,NA,NA,NA,"BLDU",NA,NA,NA,NA,NA,NA,71.09,"KHOB 240050Z 25030G40KT 10SM BLDU SKC 23/M06 A2969 RMK SLPNO"
"14168","HOB","2003-04-29 01:50:00",-103.217,32.6875,73.4,50,43.69,110,18,NA,29.89,NA,4,30,"SCT","   ","   ",NA,7000,NA,NA,NA,"BLDU",NA,NA,NA,NA,NA,NA,73.4,"KHOB 290150Z 11018G30KT 4SM BLDU SCT070 23/10 A2989 RMK SLPNO"
"14259","HOB","2003-05-04 19:50:00",-103.217,32.6875,86,35.6,16.63,240,25,NA,29.75,NA,6,40,"BKN","   ","   ",NA,20000,NA,NA,NA,"BLDU",NA,NA,NA,NA,NA,NA,82.69,"KHOB 041950Z 24025G40KT 6SM BLDU BKN200 30/02 A2975 RMK SLPNO"
"14260","HOB","2003-05-04 20:50:00",-103.217,32.6875,86,35.6,16.63,240,20,NA,29.72,NA,5,35,"BKN","   ","   ",NA,20000,NA,NA,NA,"BLDU",NA,NA,NA,NA,NA,NA,82.69,"KHOB 042050Z 24020G35KT 5SM BLDU BKN200 30/02 A2972 RMK SLPNO"
"14263","HOB","2003-05-04 23:50:00",-103.217,32.6875,82.4,32,16.17,240,18,NA,29.69,NA,6,28,"BKN","   ","   ",NA,20000,NA,NA,NA,"BLDU",NA,NA,NA,NA,NA,NA,80,"KHOB 042350Z 24018G28KT 6SM BLDU BKN200 28/00 A2969 RMK SLPNO 10307"
"14444","HOB","2003-05-15 21:45:00",-103.217,32.6875,100.4,32,9.21,220,35,NA,29.68,NA,5,45,"BKN","   ","   ",NA,15000,NA,NA,NA,"BLDU",NA,NA,NA,NA,NA,NA,94.21,"KHOB 152145Z 22035G45KT 5SM BLDU BKN150 38/00 A2968 RMK SLPNO"
"14445","HOB","2003-05-15 22:50:00",-103.217,32.6875,98.6,30.2,9.04,230,30,NA,29.66,NA,5,40,"SCT","   ","   ",NA,15000,NA,NA,NA,"BLDU",NA,NA,NA,NA,NA,NA,92.46,"KHOB 152250Z 23030G40KT 5SM BLDU SCT150 37/M01 A2966 RMK SLPNO"
"14446","HOB","2003-05-15 23:50:00",-103.217,32.6875,96.8,28.4,8.87,220,25,NA,29.65,NA,6,35,"SCT","   ","   ",NA,15000,NA,NA,NA,"BLDU",NA,NA,NA,NA,NA,NA,90.75,"KHOB 152350Z 22025G35KT 6SM BLDU SCT150 36/M02 A2965 RMK SLPNO 10388"
"14447","HOB","2003-05-16 00:50:00",-103.217,32.6875,95,19.4,6.43,240,25,NA,29.65,NA,7,35,"SCT","   ","   ",NA,15000,NA,NA,NA,"BLDU",NA,NA,NA,NA,NA,NA,88.5,"KHOB 160050Z 24025G35KT 7SM BLDU SCT150 35/M07 A2965"
"14512","HOB","2003-05-20 00:50:00",-103.217,32.6875,82.4,53.6,37.07,40,20,NA,30.02,NA,3,32,"CLR","   ","   ",NA,NA,NA,NA,NA,"BLDU",NA,NA,NA,NA,NA,NA,82.4,"KHOB 200050Z 04020G32KT 3SM BLDU SKC 28/12 A3002 RMK SLPNO"
"14513","HOB","2003-05-20 01:50:00",-103.217,32.6875,77,53.6,44.25,30,18,NA,30.06,NA,3,30,"CLR","   ","   ",NA,NA,NA,NA,NA,"BLDU",NA,NA,NA,NA,NA,NA,77,"KHOB 200150Z 03018G30KT 3SM BLDU SKC 25/12 A3006 RMK SLPNO"
"14514","HOB","2003-05-20 02:50:00",-103.217,32.6875,73.4,53.6,49.9,40,25,NA,30.1,NA,4,40,"CLR","   ","   ",NA,NA,NA,NA,NA,"BLDU",NA,NA,NA,NA,NA,NA,73.4,"KHOB 200250Z 04025G40KT 4SM BLDU SKC 23/12 A3010 RMK SLPNO"
"14721","HOB","2003-06-02 02:38:00",-103.217,32.6875,75.2,NA,NA,350,30,NA,29.87,NA,1,50,"SCT","BKN","   ",NA,5000,10000,NA,NA,"BLDU",NA,NA,NA,NA,NA,NA,NA,"KHOB 020238Z 35030G50KT 1SM BLDU SCT050 BKN100 24/ A2987 RMK SLPNO"
"14722","HOB","2003-06-02 03:00:00",-103.217,32.6875,69.8,NA,NA,340,25,NA,29.93,NA,3,45,"SCT","BKN","   ",NA,5000,10000,NA,NA,"BLDU",NA,NA,NA,NA,NA,NA,NA,"KHOB 020300Z 34025G45KT 3SM BLDU SCT050 BKN100 21/ A2993 RMK SLPNO"
"14815","HOB","2003-06-08 03:50:00",-103.217,32.6875,71.6,59,64.48,30,25,NA,29.96,NA,8,NA,"CLR","   ","   ",NA,NA,NA,NA,NA,"DU",NA,NA,NA,NA,NA,NA,71.6,"KHOB 080350Z 03025KT 8SM DU SKC 22/15 A2996 RMK SLPNO 403592157 LAST"
"14845","HOB","2003-06-10 02:03:00",-103.217,32.6875,84.2,57.2,39.86,240,25,NA,29.95,NA,2,40,"BKN","   ","   ",NA,6000,NA,NA,NA,"TS BLDU",NA,NA,NA,NA,NA,NA,84.2,"KHOB 100203Z 24025G40KT 2SM TS BLDU BKN060 29/14 A2995 RMK OCNL LTGCG OVHD TS OVHD MOVG NE"
"14912","HOB","2003-06-13 23:50:00",-103.217,32.6875,82.4,64.4,54.55,100,15,NA,29.83,NA,8,25,"FEW","SCT","   ",NA,3000,5000,NA,NA,"BLDU",NA,NA,NA,NA,NA,NA,83.98,"KHOB 132350Z 10015G25KT 8SM BLDU FEW030 SCT050 28/18 A2983 RMK SLPNO 10358"
"14913","HOB","2003-06-14 00:50:00",-103.217,32.6875,82.4,64.4,54.55,120,15,NA,29.84,NA,8,NA,"SCT","   ","   ",NA,5000,NA,NA,NA,"BLDU",NA,NA,NA,NA,NA,NA,83.98,"KHOB 140050Z 12015KT 8SM BLDU SCT050 28/18 A2984 RMK SLPNO"
"15077","HOB","2003-06-23 22:50:00",-103.217,32.6875,93.2,59,31.99,200,25,NA,29.78,NA,6,35,"BKN","   ","   ",NA,6000,NA,NA,NA,"BLDU",NA,NA,NA,NA,NA,NA,93.2,"KHOB 232250Z 20025G35KT 6SM BLDU BKN060 34/15 A2978 RMK FQT LTG DSNT SW TS DSNT SW SLPNO"
"15182","HOB","2003-06-29 23:43:00",-103.217,32.6875,82.4,57.2,42.25,40,20,NA,30.06,NA,2,35,"BKN","   ","   ",NA,5000,NA,NA,NA,"BLDU",NA,NA,NA,NA,NA,NA,82.08,"KHOB 292343Z 04020G35KT 2SM BLDU BKN050 28/14 A3006"
"15183","HOB","2003-06-29 23:50:00",-103.217,32.6875,78.8,59,50.69,50,20,NA,30.07,NA,3,32,"BKN","   ","   ",NA,5000,NA,NA,NA,"BLDU",NA,NA,NA,NA,NA,NA,78.8,"KHOB 292350Z 05020G32KT 3SM BLDU BKN050 26/15 A3007 RMK SLPNO 10351"
"16523","HOB","2003-09-18 15:50:00",-103.217,32.6875,69.8,51.8,52.77,20,20,NA,30.08,NA,5,30,"SCT","   ","   ",NA,4000,NA,NA,NA,"BLDU",NA,NA,NA,NA,NA,NA,69.8,"KHOB 181550Z 02020G30KT 5SM BLDU SCT040 21/11 A3008"
"16524","HOB","2003-09-18 16:50:00",-103.217,32.6875,68,46.4,45.88,10,20,NA,30.12,NA,6,30,"BKN","   ","   ",NA,4000,NA,NA,NA,"BLDU",NA,NA,NA,NA,NA,NA,68,"KHOB 181650Z 01020G30KT 6SM BLDU BKN040 20/08 A3012 RMK SLPNO"
"16525","HOB","2003-09-18 17:50:00",-103.217,32.6875,68,48.2,49.1,20,15,NA,30.13,NA,5,25,"OVC","   ","   ",NA,4000,NA,NA,NA,"BLDU",NA,NA,NA,NA,NA,NA,68,"KHOB 181750Z 02015G25KT 5SM BLDU OVC040 20/09 A3013 RMK SLPNO"
"16526","HOB","2003-09-18 18:50:00",-103.217,32.6875,69.8,48.2,46.16,20,29.16,NA,30.14,NA,6,48.6,"OVC","   ","   ",NA,2500,NA,NA,NA,"BLDU",NA,NA,NA,NA,NA,NA,69.8,"KHOB 181850Z 02015G25 6SM BLDU OVC025 21/09 A3014"
"16527","HOB","2003-09-18 19:50:00",-103.217,32.6875,71.6,46.4,40.57,20,20,NA,30.14,NA,7,NA,"BKN","   ","   ",NA,3000,NA,NA,NA,"BLDU",NA,NA,NA,NA,NA,NA,70.37,"KHOB 181950Z 02020KT 7SM BLDU BKN030 22/08 A3014 RMK SLPNO"
"16528","HOB","2003-09-18 20:50:00",-103.217,32.6875,71.6,46.4,40.57,30,25,NA,30.14,NA,7,NA,"BKN","   ","   ",NA,3000,NA,NA,NA,"BLDU",NA,NA,NA,NA,NA,NA,70.37,"KHOB 182050Z 03025KT 7SM BLDU BKN030 22/08 A3014 RMK SLPNO"
"16529","HOB","2003-09-18 21:50:00",-103.217,32.6875,69.8,44.6,40.29,40,20,NA,30.13,NA,8,NA,"BKN","   ","   ",NA,3000,NA,NA,NA,"BLDU",NA,NA,NA,NA,NA,NA,69.8,"KHOB 182150Z 04020KT 8SM BLDU BKN030 21/07 A3013 RMK SLPNO"
"17128","HOB","2003-10-24 22:50:00",-103.217,32.6875,82.4,35.6,18.67,10,12,NA,29.92,NA,8,NA,"CLR","   ","   ",NA,NA,NA,NA,NA,"BLDU",NA,NA,NA,NA,NA,NA,80.08,"KHOB 242250Z 01012KT 8SM BLDU SKC 28/02 A2992 RMKS SLPNO"
"17129","HOB","2003-10-24 23:50:00",-103.217,32.6875,77,39.2,25.67,20,12,NA,29.94,NA,8,NA,"CLR","   ","   ",NA,NA,NA,NA,NA,"BLDU",NA,NA,NA,NA,NA,NA,75.61,"KHOB 242350Z 02012KT 8SM BLDU SKC 25/04 A2994 RMK SLPNO 10312"
"17140","HOB","2003-10-25 17:50:00",-103.217,32.6875,60.8,23,23.23,30,20,NA,30.29,NA,4,30,"SCT","   ","   ",NA,15000,NA,NA,NA,"BLDU",NA,NA,NA,NA,NA,NA,60.8,"KHOB 251750Z 03020G30KT 4SM BLDU SCT150 16/M05 A3029 RMK SLPNO 20084"
"17141","HOB","2003-10-25 18:50:00",-103.217,32.6875,62.6,23,21.79,30,15,NA,30.27,NA,4,25,"SCT","   ","   ",NA,15000,NA,NA,NA,"BLDU",NA,NA,NA,NA,NA,NA,62.6,"KHOB 251850Z 03015G25KT 4SM BLDU SCT150 17/M05 A3027 RMK SLPNO"
"17144","HOB","2003-10-25 21:50:00",-103.217,32.6875,60.8,23,23.23,50,20,NA,30.27,NA,8,NA,"SCT","   ","   ",NA,15000,NA,NA,NA,"BLDU",NA,NA,NA,NA,NA,NA,60.8,"KHOB 252150Z 05020KT 8SM BLDU SCT150 16/M05 A3027 RMK SLPNO"
"17146","HOB","2003-10-25 23:50:00",-103.217,32.6875,55.4,21.2,26.13,30,25,NA,30.3,NA,8,NA,"BKN","   ","   ",NA,15000,NA,NA,NA,"BLDU",NA,NA,NA,NA,NA,NA,55.4,"KHOB 252350Z 03025KT 8SM BLDU BKN150 13/M06 A3030 RMK SLPNO 10173"
"17232","HOB","2003-10-31 02:50:00",-103.217,32.6875,66.2,32,27.83,210,20,NA,29.89,NA,5,NA,"BKN","   ","   ",NA,15000,NA,NA,NA,"BLDU",NA,NA,NA,NA,NA,NA,66.2,"KHOB 310250Z 21020KT 5SM BLDU BKN150 19/00 A2989 RMK SLPNO"
"17233","HOB","2003-10-31 04:50:00",-103.217,32.6875,64.4,32,29.63,210,15,NA,29.93,NA,10,NA,"BKN","   ","   ",NA,15000,NA,NA,NA,"BLDU",NA,NA,NA,NA,NA,NA,64.4,"KHOB 310450Z 21015KT 10SM BLDU BKN150 18/M00 A2993 RMK SLPNO 402692122 LAST"
"17625","HOB","2003-11-22 22:50:00",-103.217,32.6875,75.2,15.8,10.4,210,20,NA,29.6,NA,6,30,"SCT","   ","   ",NA,15000,NA,NA,NA,"BLDU",NA,NA,NA,NA,NA,NA,72.91,"KHOB 222250Z 21020G30KT 6SM BLDU SCT150 24/M09 A2960 RMK SLPNO"
"17626","HOB","2003-11-22 23:50:00",-103.217,32.6875,71.6,14,10.85,220,14,NA,29.6,NA,3,24,"SCT","   ","   ",NA,15000,NA,NA,NA,"BLDU",NA,NA,NA,NA,NA,NA,68.97,"KHOB 222350Z 22014G24KT 3SM BLDU SCT150 22/M10 A2960 RMK SLPNO 10255"
"17627","HOB","2003-11-23 00:50:00",-103.217,32.6875,68,12.2,11.34,230,12,NA,29.63,NA,6,NA,"SCT","   ","   ",NA,15000,NA,NA,NA,"DU",NA,NA,NA,NA,NA,NA,68,"KHOB 230050Z 23012KT 6SM DU SCT150 20/M11 A2963 RMK SLPNO"
"17629","HOB","2003-11-23 03:50:00",-103.217,32.6875,68,17.6,14.35,250,15,NA,29.72,NA,3,25,"CLR","   ","   ",NA,NA,NA,NA,NA,"BLDU",NA,NA,NA,NA,NA,NA,68,"KHOB 230350Z 25015G25KT 3SM BLDU SKC 20/M08 A2972 RMK SLPNO"
"18008","HOB","2003-12-15 17:50:00",-103.217,32.6875,60.8,10.4,13.46,250,30,NA,29.76,NA,3,40,"FEW","SCT","   ",NA,6000,15000,NA,NA,"BLDU",NA,NA,NA,NA,NA,NA,60.8,"KHOB 151750Z 25030G40KT 3SM BLDU FEW060 SCT150 16/M12 A2976 RMK SLPNO"
"18009","HOB","2003-12-15 18:55:00",-103.217,32.6875,60.8,8.6,12.42,290,30,NA,29.75,NA,2,40,"CLR","   ","   ",NA,NA,NA,NA,NA,"BLDU",NA,NA,NA,NA,NA,NA,60.8,"KHOB 151855Z 29030G40KT 2SM BLDU SKC 16/M13 A2975 RMK SLPNO 20084"
"18010","HOB","2003-12-15 19:55:00",-103.217,32.6875,60.8,-5.8,6.35,270,25,NA,29.77,NA,3,35,"CLR","   ","   ",NA,NA,NA,NA,NA,"BLDU",NA,NA,NA,NA,NA,NA,60.8,"KHOB 151955Z 27025G35KT 3SM BLDU SKC 16/M21 A2977 RMK SLPNO"
"18011","HOB","2003-12-15 20:50:00",-103.217,32.6875,57.2,-7.6,6.62,280,20,NA,29.79,NA,3,30,"CLR","   ","   ",NA,NA,NA,NA,NA,"BLDU",NA,NA,NA,NA,NA,NA,57.2,"KHOB 152050Z 28020G30KT 3SM BLDU SKC 14/M22 A2979 RMK SLPNO"
"18012","HOB","2003-12-15 21:50:00",-103.217,32.6875,55.4,-9.4,6.47,280,25,NA,29.84,NA,4,35,"CLR","   ","   ",NA,NA,NA,NA,NA,"BLDU",NA,NA,NA,NA,NA,NA,55.4,"KHOB 152150Z 28025G35KT 4SM BLDU SKC 13/M23 A2984 RMK SLPNO"
"18013","HOB","2003-12-15 22:50:00",-103.217,32.6875,51.8,-5.8,8.79,300,24,NA,29.9,NA,3,34,"CLR","   ","   ",NA,NA,NA,NA,NA,"BLDU",NA,NA,NA,NA,NA,NA,51.8,"KHOB 152250Z 30024G34KT 3SM BLDU SKC 11/M21 A2990 RMK SLPNO"
"18014","HOB","2003-12-15 23:50:00",-103.217,32.6875,48.2,-0.4,13,310,15,NA,29.96,NA,6,25,"FEW","   ","   ",NA,10000,NA,NA,NA,"DU",NA,NA,NA,NA,NA,NA,41.78,"KHOB 152350Z 31015G25KT 6SM DU FEW100 09/M18 A2996 RMK SLPNO 10168"
"18129","HOB","2003-12-22 20:50:00",-103.217,32.6875,53.6,32,43.61,350,14,NA,30.07,NA,6,24,"FEW","   ","   ",NA,3000,NA,NA,NA,"BLDU",NA,NA,NA,NA,NA,NA,53.6,"KHOB 222050Z 35014G24KT 6SM BLDU FEW030 12/M00 A3007 RMK SLPNO"
"19119","HOB","2004-02-19 17:50:00",-103.217,32.6875,73.4,21.2,13.93,230,25,NA,29.75,NA,7,35,"SCT","   ","   ",NA,15000,NA,NA,NA,"BLDU",NA,NA,NA,NA,NA,NA,71.09,"KHOB 191750Z 23025G35KT 7SM BLDU SCT150 23/M06 A2975 RMK SLPNO"
"19120","HOB","2004-02-19 18:50:00",-103.217,32.6875,71.6,12.2,10.02,240,30,NA,29.74,NA,2,40,"SCT","   ","   ",NA,15000,NA,NA,NA,"BLDU",NA,NA,NA,NA,NA,NA,68.93,"KHOB 191850Z 24030G40KT 2SM BLDU SCT150 22/M11 A2974 RMK SLPNO 20069"
"19121","HOB","2004-02-19 19:50:00",-103.217,32.6875,71.6,15.8,11.74,240,30,NA,29.73,NA,2,40,"SCT","   ","   ",NA,15000,NA,NA,NA,"BLDU",NA,NA,NA,NA,NA,NA,69.01,"KHOB 191950Z 24030G40KT 2SM BLDU SCT150 22/M09 A2973 RMK SLPNO"
"19122","HOB","2004-02-19 20:50:00",-103.217,32.6875,71.6,14,10.85,240,25,NA,29.71,NA,4,35,"BKN","   ","   ",NA,15000,NA,NA,NA,"BLDU",NA,NA,NA,NA,NA,NA,68.97,"KHOB 192050Z 24025G35KT 4SM BLDU BKN150 22/M10 A2971 RMK SLPNO"
"19124","HOB","2004-02-19 22:50:00",-103.217,32.6875,71.6,14,10.85,240,25,NA,29.72,NA,6,NA,"SCT","   ","   ",NA,15000,NA,NA,NA,"BLDU",NA,NA,NA,NA,NA,NA,68.97,"KHOB 192250Z 24025KT 6SM BLDU SCT150 22/M10 A2972 RMK SLPNO"
"19125","HOB","2004-02-19 23:50:00",-103.217,32.6875,68,14,12.27,230,20,NA,29.74,NA,4,NA,"SCT","   ","   ",NA,15000,NA,NA,NA,"BLDU",NA,NA,NA,NA,NA,NA,68,"KHOB 192350Z 23020KT 4SM BLDU SCT150 20/M10 A2974 RMK SLPNO"
"19126","HOB","2004-02-20 00:50:00",-103.217,32.6875,62.6,14,14.81,240,10,NA,29.76,NA,7,NA,"FEW","   ","   ",NA,15000,NA,NA,NA,"BLDU",NA,NA,NA,NA,NA,NA,62.6,"KHOB 200050Z 24010KT 7SM BLDU FEW150 17/M10 A2976 RMK SLPNO 10235"
"19364","HOB","2004-03-04 22:50:00",-103.217,32.6875,57.2,32,38.26,220,25,NA,29.61,NA,10,35,"SCT","   ","   ",NA,2000,NA,NA,NA,"BLDU",NA,NA,NA,NA,NA,NA,57.2,"KHOB 042250Z 22025G35KT 10SM BLDU SCT020 14/00 A2961 RMK SLPNO"
"19365","HOB","2004-03-04 23:50:00",-103.217,32.6875,53.6,33.8,46.88,230,25,NA,29.64,NA,10,35,"FEW","SCT","   ",NA,2000,8000,NA,NA,"BLDU",NA,NA,NA,NA,NA,NA,53.6,"KHOB 042350Z 23025G35KT 10SM BLDU FEW020 SCT080 12/01 A2964 RMK SLPNO"
"19644","HOB","2004-03-21 00:50:00",-103.217,32.6875,75.2,51.8,43.97,20,20,NA,30.27,NA,10,NA,"FEW","   ","   ",NA,15000,NA,NA,NA,"BLDU",NA,NA,NA,NA,NA,NA,75.2,"KHOB 210050Z 02020KT 10SM BLDU FEW150 24/11 A3027 RMK SLPNO 10306"
"20236","HOB","2004-04-23 22:50:00",-103.217,32.6875,75.2,50,41.14,360,15,NA,29.9,NA,10,NA,"SCT","   ","   ",NA,15000,NA,NA,NA,"BLDU",NA,NA,NA,NA,NA,NA,75.2,"KHOB 232250Z 36015KT 10SM BLDU SCT150 24/10 A2990 RMK SLPNO"
"20356","HOB","2004-05-01 00:00:00",-103.217,32.6875,66.2,44.6,45.6,330,25,NA,29.95,NA,5,35,"BKN","   ","   ",NA,10000,NA,NA,NA,"BLDU",NA,NA,NA,NA,NA,NA,66.2,"KHOB 010000Z 33025G35KT 5SM BLDU BKN100 19/07 A2995 RMK SLPNO"
"20357","HOB","2004-05-01 00:20:00",-103.217,32.6875,60.8,42.8,51.45,330,25,NA,29.98,NA,15,35,"BKN","   ","   ",NA,10000,NA,NA,NA,"BLDU",NA,NA,NA,NA,NA,NA,60.8,"KHOB 010020Z 33025G35KT 15SM BLDU BKN100 16/06 A2998 RMK SLPNO VSBY E 5"
"27954","HOB","2005-09-28 21:50:00",-103.217,32.6875,96.8,50,20.62,30,15,NA,30.01,NA,4,22,"SCT","   ","   ",NA,12000,NA,NA,NA,"BLDU",NA,NA,NA,NA,NA,NA,93.71,"KHOB 282150Z 03015G22KT 4SM BLDU SCT120 36/10 A3001 RMK PEAK WIND 03027/48"
"27955","HOB","2005-09-28 22:50:00",-103.217,32.6875,89.6,53.6,29.45,20,18,NA,30.02,NA,4,25,"SCT","   ","   ",NA,8000,NA,NA,NA,"BLDU",NA,NA,NA,NA,NA,NA,87.36,"KHOB 282250Z 02018G25KT 4SM BLDU SCT080 32/12 A3002 RMK PK WND 010030/45"
"28556","HOB","2005-11-15 14:50:00",-103.217,32.6875,44.6,30.2,56.74,20,15,NA,30.19,NA,8,25,"CLR","   ","   ",NA,NA,NA,NA,NA,"BLDU",NA,NA,NA,NA,NA,NA,37.11,"KHOB 151450Z 02015G25KT 8SM BLDU SKC 07/M01 A3019"
"28557","HOB","2005-11-15 15:50:00",-103.217,32.6875,46.4,28.4,49.24,20,20,NA,30.26,NA,6,30,"CLR","   ","   ",NA,NA,NA,NA,NA,"BLDU",NA,NA,NA,NA,NA,NA,38.26,"KHOB 151550Z 02020G30KT 6SM BLDU SKC 08/M02 A3026"
"28558","HOB","2005-11-15 16:50:00",-103.217,32.6875,48.2,24.8,39.66,20,18,NA,30.29,NA,6,28,"CLR","   ","   ",NA,NA,NA,NA,NA,"BLDU",NA,NA,NA,NA,NA,NA,41.07,"KHOB 151650Z 02018G28KT 6SM BLDU SKC 09/M04 A3029"
"28559","HOB","2005-11-15 17:50:00",-103.217,32.6875,50,21.2,31.87,20,15,NA,30.31,NA,6,25,"CLR","   ","   ",NA,NA,NA,NA,NA,"BLDU",NA,NA,NA,NA,NA,NA,44.12,"KHOB 151750Z 02015G25KT 6SM BLDU SKC 10/M06 A3031"
"28560","HOB","2005-11-15 18:50:00",-103.217,32.6875,51.8,19.4,27.62,10,16,NA,30.31,NA,6,26,"CLR","   ","   ",NA,NA,NA,NA,NA,"BLDU",NA,NA,NA,NA,NA,NA,51.8,"KHOB 151850Z 01016G26KT 6SM BLDU SKC 11/M07 A3031 RMK 20057"
"28561","HOB","2005-11-15 19:50:00",-103.217,32.6875,51.8,15.8,23.65,10,15,NA,30.31,NA,6,25,"CLR","   ","   ",NA,NA,NA,NA,NA,"BLDU",NA,NA,NA,NA,NA,NA,51.8,"KHOB 151950Z 01015G25KT 6SM BLDU SKC 11/M09 A3031"
"28606","HOB","2005-11-19 16:50:00",-103.217,32.6875,55.4,33.8,43.9,20,15,NA,30.2,NA,6,25,"CLR","   ","   ",NA,NA,NA,NA,NA,"BLDU",NA,NA,NA,NA,NA,NA,55.4,"KHOB 191650Z 02015G25KT 6SM BLDU SKC 13/01 A3020"
"28713","HOB","2005-11-27 17:50:00",-103.217,32.6875,53.6,14,20.46,270,30,NA,29.6,NA,5,40,"SCT","   ","   ",NA,12000,NA,NA,NA,"BLDU",NA,NA,NA,NA,NA,NA,53.6,"KHOB 271750Z 27030G40KT 5SM BLDU SCT120 12/M10 A2960"
"28714","HOB","2005-11-27 18:50:00",-103.217,32.6875,53.6,3.2,12.59,240,30,NA,29.58,NA,5,42,"FEW","   ","   ",NA,12000,NA,NA,NA,"BLDU",NA,NA,NA,NA,NA,NA,53.6,"KHOB 271850Z 24030G42KT 5SM BLDU FEW120 12/M16 A2958 RMK 20081"
"28770","HOB","2005-12-02 17:50:00",-103.217,32.6875,73.4,21.2,13.93,240,17,NA,29.91,NA,8,28,"SCT","   ","   ",NA,25000,NA,NA,NA,"BLDU",NA,NA,NA,NA,NA,NA,71.09,"KHOB 021750Z 24017G28KT 8SM BLDU SCT250 23/M06 A2991"
"28771","HOB","2005-12-02 18:50:00",-103.217,32.6875,77,19.4,11.44,230,18,NA,29.87,NA,8,28,"SCT","   ","   ",NA,25000,NA,NA,NA,"BLDU",NA,NA,NA,NA,NA,NA,74.94,"KHOB 021850Z 23018G28KT 8SM BLDU SCT250 25/M07 A2987 RMK 21002"
"28772","HOB","2005-12-02 19:50:00",-103.217,32.6875,80.6,19.4,10.16,240,20,NA,29.84,NA,8,33,"SCT","   ","   ",NA,25000,NA,NA,NA,"BLDU",NA,NA,NA,NA,NA,NA,78.56,"KHOB 021950Z 24020G33KT 8SM BLDU SCT250 27/M07 A2984"
"28773","HOB","2005-12-02 20:50:00",-103.217,32.6875,78.8,19.4,10.78,230,19,NA,29.82,NA,8,28,"SCT","   ","   ",NA,20000,NA,NA,NA,"BLDU",NA,NA,NA,NA,NA,NA,76.89,"KHOB 022050Z 23019G28KT 8SM BLDU SCT200 26/M07 A2982"
"29145","HOB","2006-01-01 18:50:00",-103.217,32.6875,71.6,14,10.85,240,28,NA,29.68,NA,6,38,"CLR","   ","   ",NA,NA,NA,NA,NA,"BLDU",NA,NA,NA,NA,NA,NA,68.97,"KHOB 011850Z 24028G38KT 6SM BLDU SKC 22/M10 A2968 RMK 20141"
"29146","HOB","2006-01-01 19:50:00",-103.217,32.6875,73.4,5,6.82,240,35,NA,29.66,NA,4,45,"CLR","   ","   ",NA,NA,NA,NA,NA,"BLDU",NA,NA,NA,NA,NA,NA,70.76,"KHOB 011950Z 24035G45KT 4SM BLDU SKC 23/M15 A2966"
"29147","HOB","2006-01-01 21:50:00",-103.217,32.6875,71.6,1.4,6.14,250,30,NA,29.69,NA,5,40,"CLR","   ","   ",NA,NA,NA,NA,NA,"BLDU",NA,NA,NA,NA,NA,NA,68.75,"KHOB 012150Z 25030G40KT 5SM BLDU SKC 22/M17 A2969"
"29148","HOB","2006-01-01 22:50:00",-103.217,32.6875,69.8,1.4,6.53,240,30,NA,29.7,NA,5,40,"CLR","   ","   ",NA,NA,NA,NA,NA,"BLDU",NA,NA,NA,NA,NA,NA,69.8,"KHOB 012250Z 24030G40KT 5SM BLDU SKC 21/M17 A2970"
"29685","HOB","2006-02-15 16:50:00",-103.217,32.6875,69.8,21.2,15.73,240,20,NA,29.93,NA,8,33,"CLR","   ","   ",NA,NA,NA,NA,NA,"BLDU",NA,NA,NA,NA,NA,NA,69.8,"KHOB 151650Z 24020G33KT 8SM BLDU SKC 21/M06 A2993"
"29686","HOB","2006-02-15 17:50:00",-103.217,32.6875,71.6,19.4,13.71,230,18,NA,29.92,NA,8,28,"CLR","   ","   ",NA,NA,NA,NA,NA,"BLDU",NA,NA,NA,NA,NA,NA,69.1,"KHOB 151750Z 23018G28KT 8SM BLDU SKC 22/M07 A2992"
"29687","HOB","2006-02-15 18:50:00",-103.217,32.6875,73.4,17.6,11.94,230,18,NA,29.9,NA,8,28,"CLR","   ","   ",NA,NA,NA,NA,NA,"BLDU",NA,NA,NA,NA,NA,NA,71,"KHOB 151850Z 23018G28KT 8SM BLDU SKC 23/M08 A2990 RMK 20078"
"29699","HOB","2006-02-16 17:50:00",-103.217,32.6875,71.6,15.8,11.74,230,20,NA,29.91,NA,10,38,"SCT","   ","   ",NA,20000,NA,NA,NA,"BLDU",NA,NA,NA,NA,NA,NA,69.01,"KHOB 161750Z 23020G38KT 10SM BLDU SCT200 22/M09 A2991"
"29700","HOB","2006-02-16 18:50:00",-103.217,32.6875,73.4,15.8,11.05,240,18,NA,29.91,NA,10,34,"BKN","   ","   ",NA,20000,NA,NA,NA,"BLDU",NA,NA,NA,NA,NA,NA,70.96,"KHOB 161850Z 24018G34KT 10SM BLDU BKN200 23/M09 A2991 RMK 20090"
"29701","HOB","2006-02-16 19:51:00",-103.217,32.6875,73.4,12.2,9.43,230,18,NA,29.9,NA,10,32,"BKN","   ","   ",NA,20000,NA,NA,NA,"BLDU",NA,NA,NA,NA,NA,NA,70.88,"KHOB 161951Z 230018G32KT 10SM BLDU BKN200 23/M11 A2990"
"29954","HOB","2006-03-08 17:50:00",-103.217,32.6875,68,30.2,24.32,240,19,NA,29.74,NA,8,33,"BKN","BKN","   ",NA,12000,20000,NA,NA,"BLDU",NA,NA,NA,NA,NA,NA,68,"KHOB 081750Z 24019G33KT 8SM BLDU BKN120 BKN200 20/M01 A2974"
"30006","HOB","2006-03-12 20:50:00",-103.217,32.6875,75.2,14,9.61,240,18,NA,29.75,NA,6,28,"FEW","   ","   ",NA,25000,NA,NA,NA,"BLDU",NA,NA,NA,NA,NA,NA,72.87,"KHOB 122050Z 24018G28KT 6SM BLDU FEW250 24/M10 A2975"
"30007","HOB","2006-03-12 21:50:00",-103.217,32.6875,75.2,10.4,8.2,230,20,NA,29.74,NA,6,30,"CLR","   ","   ",NA,NA,NA,NA,NA,"BLDU",NA,NA,NA,NA,NA,NA,72.81,"KHOB 122150Z 23020G30KT 6SM BLDU SKC 24/M12 A2974"
"30008","HOB","2006-03-12 22:50:00",-103.217,32.6875,69.8,23,16.98,240,22,NA,29.77,NA,4,32,"CLR","   ","   ",NA,NA,NA,NA,NA,"BLDU",NA,NA,NA,NA,NA,NA,69.8,"KHOB 122250Z 24022G32KT 4SM BLDU SKC 21/M05 A2977"
"30009","HOB","2006-03-12 23:50:00",-103.217,32.6875,66.2,24.8,20.72,240,25,NA,29.79,NA,6,35,"FEW","   ","   ",NA,25000,NA,NA,NA,"BLDU",NA,NA,NA,NA,NA,NA,66.2,"KHOB 122350Z 24025G35KT 6SM BLDU FEW250 19/M04 A2979"
"30053","HOB","2006-03-16 16:50:00",-103.217,32.6875,60.8,15.8,17.07,40,15,NA,30.26,NA,6,NA,"CLR","   ","   ",NA,NA,NA,NA,NA,"BLDU",NA,NA,NA,NA,NA,NA,60.8,"KHOB 161650Z 04015KT 6SM BLDU SKC 16/M09 A3026"
"30054","HOB","2006-03-16 17:50:00",-103.217,32.6875,62.6,15.8,16.02,40,15,NA,30.25,NA,6,NA,"CLR","   ","   ",NA,NA,NA,NA,NA,"BLDU",NA,NA,NA,NA,NA,NA,62.6,"KHOB 161750Z 04015KT 6SM BLDU SKC 17/M09 A3025"
"30109","HOB","2006-03-20 20:50:00",-103.217,32.6875,60.8,23,23.23,270,20,NA,29.71,NA,7,30,"SCT","   ","   ",NA,8000,NA,NA,NA,"BLDU",NA,NA,NA,NA,NA,NA,60.8,"KHOB 202050Z 27020G30KT 7SM BLDU SCT080 16/M05 A2971"
"30311","HOB","2006-04-05 22:50:00",-103.217,32.6875,86,33.8,15.48,220,14,NA,29.78,NA,10,30,"BKN","BKN","   ",NA,6000,15000,NA,NA,"BLDU",NA,NA,NA,NA,NA,NA,82.66,"KHOB 052250Z 22014G30KT 10SM BLDU BKN060 BKN150 30/01 A2978"
"30312","HOB","2006-04-05 23:05:00",-103.217,32.6875,86,33.8,15.48,220,23.33,NA,29.78,NA,10,50.54,"BKN","OVC","   ",NA,6000,15000,NA,NA,"-SHRA BLDU",NA,NA,NA,NA,NA,NA,82.66,"KHOB 052305Z 22012G26 10SM -SHRA BLDU BKN060 OVC150 30/01 A2978"
"30313","HOB","2006-04-05 23:50:00",-103.217,32.6875,84.2,32,15.25,210,10,NA,29.77,NA,10,20,"BKN","BKN","   ",NA,6000,15000,NA,NA,"BLDU",NA,NA,NA,NA,NA,NA,81.28,"KHOB 052350Z 21010G20KT 10SM BLDU BKN060 BKN150 29/M00 A2977 RMK 403312128 7//// LAST"
"30320","HOB","2006-04-06 18:50:00",-103.217,32.6875,71.6,5,7.25,260,20,NA,29.77,NA,8,35,"CLR","   ","   ",NA,NA,NA,NA,NA,"BLDU",NA,NA,NA,NA,NA,NA,68.8,"KHOB 061850Z 26020G35KT 8SM BLDU SKC 22/M15 A2977"
"30321","HOB","2006-04-06 19:50:00",-103.217,32.6875,71.6,5,7.25,250,20,NA,29.75,NA,8,35,"CLR","   ","   ",NA,NA,NA,NA,NA,"BLDU",NA,NA,NA,NA,NA,NA,68.8,"KHOB 061950Z 25020G35KT 8SM BLDU SKC 22/M15 A2975"
"30323","HOB","2006-04-06 21:50:00",-103.217,32.6875,75.2,5,6.42,260,15,NA,29.73,NA,10,26,"CLR","   ","   ",NA,NA,NA,NA,NA,"BLDU",NA,NA,NA,NA,NA,NA,72.72,"KHOB 062150Z 26015G26KT 10SM BLDU SKC 24/M15 A2973"
"30329","HOB","2006-04-07 15:50:00",-103.217,32.6875,66.2,24.8,20.72,290,20,NA,29.89,NA,8,32,"CLR","   ","   ",NA,NA,NA,NA,NA,"BLDU",NA,NA,NA,NA,NA,NA,66.2,"KHOB 071550Z 29020G32KT 8SM BLDU SKC 19/M04 A2989"
"30330","HOB","2006-04-07 16:50:00",-103.217,32.6875,68,21.2,16.74,280,15,NA,29.9,NA,10,26,"CLR","   ","   ",NA,NA,NA,NA,NA,"BLDU",NA,NA,NA,NA,NA,NA,68,"KHOB 071650Z 28015G26KT 10SM BLDU SKC 20/M06 A2990"
"30425","HOB","2006-04-15 18:50:00",-103.217,32.6875,87.8,23,9.39,240,20,NA,29.79,NA,10,31,"BKN","   ","   ",NA,15000,NA,NA,NA,"BLDU",NA,NA,NA,NA,NA,NA,83.43,"KHOB 151850Z 24020G31KT 10SM BLDU BKN150 31/M05 A2979"
"30426","HOB","2006-04-15 19:50:00",-103.217,32.6875,87.8,14,6.38,230,20,NA,29.78,NA,10,32,"SCT","   ","   ",NA,15000,NA,NA,NA,"BLDU",NA,NA,NA,NA,NA,NA,83,"KHOB 151950Z 23020G32KT 10SM BLDU SCT150 31/M10 A2978"
"31253","HOB","2006-06-22 23:50:00",-103.217,32.6875,95,57.2,28.37,80,25,NA,30.08,NA,0.25,35,"BKN","BKN","   ",NA,8000,25000,NA,NA,"BLDU",NA,NA,NA,NA,NA,NA,93.82,"KHOB 222350Z 08025G35KT 1/4SM BLDU BKN080 BKN250 35/14 A3008 RMK 403652227 LAST"
"31339","HOB","2006-06-29 23:50:00",-103.217,32.6875,71.6,60.8,68.75,100,25,NA,30.16,NA,6,35,"BKN","   ","   ",NA,7000,NA,NA,NA,"TS BLDU",NA,NA,NA,NA,NA,NA,71.6,"KHOB 292350Z 10025G35KT 6SM TS BLDU BKN070 22/16 A3016 RMK FQT LTGICCG OVHD TS"
"32409","HOB","2006-09-22 16:50:00",-103.217,32.6875,80.6,50,34.41,230,17,NA,29.75,NA,8,28,"FEW","   ","   ",NA,15000,NA,NA,NA,"BLDU",NA,NA,NA,NA,NA,NA,80.6,"KHOB 221650Z 23017G28KT 08SM BLDU FEW150 27/10 A2975"
"34386","HOB","2007-02-24 14:55:00",-103.217,32.6875,41,14,32.88,240,32,NA,29.69,NA,6,42,"CLR","   ","   ",NA,NA,NA,NA,NA,"BLDU",NA,NA,NA,NA,NA,NA,28.74,"KHOB 241455Z 24032G42KT 6SM BLDU SKC 05/M10 A2969"
"34387","HOB","2007-02-24 15:50:00",-103.217,32.6875,44.6,12.2,26.45,240,35,NA,29.7,NA,3,47,"CLR","   ","   ",NA,NA,NA,NA,NA,"BLDU",NA,NA,NA,NA,NA,NA,33.29,"KHOB 241550Z 24035G47KT 3SM BLDU SKC 07/M11 A2970"
"34388","HOB","2007-02-24 16:50:00",-103.217,32.6875,50,6.8,16.95,260,34,NA,29.76,NA,3,46,"CLR","   ","   ",NA,NA,NA,NA,NA,"BLDU",NA,NA,NA,NA,NA,NA,40.94,"KHOB 241650Z 26034G46KT 3SM BLDU SKC 10/M14 A2976"
"39016","HOB","2008-04-10 18:50:00",-103.217,32.6875,68,6.8,8.9,240,29,NA,29.63,NA,8,45,"FEW","   ","   ",NA,7000,NA,NA,NA,"BLDU",NA,NA,NA,NA,NA,NA,68,"KHOB 101850Z 24029G45KT 8SM BLDU FEW070 20/M14 A2963"
"39017","HOB","2008-04-10 19:50:00",-103.217,32.6875,68,6.8,8.9,240,33,NA,29.62,NA,6,48,"FEW","   ","   ",NA,8000,NA,NA,NA,"BLDU",NA,NA,NA,NA,NA,NA,68,"KHOB 101950Z 24033G48KT 6SM BLDU FEW080 20/M14 A2962"
"39018","HOB","2008-04-10 20:50:00",-103.217,32.6875,68,5,8.2,230,37,NA,29.61,NA,5,48,"FEW","   ","   ",NA,8000,NA,NA,NA,"BLDU",NA,NA,NA,NA,NA,NA,68,"KHOB 102050Z 23037G48KT 5SM BLDU FEW080 20/M15 A2961"
"39019","HOB","2008-04-10 21:50:00",-103.217,32.6875,68,5,8.2,250,28,NA,29.63,NA,7,41,"FEW","   ","   ",NA,10000,NA,NA,NA,"BLDU",NA,NA,NA,NA,NA,NA,68,"KHOB 102150Z 25028G41KT 7SM BLDU FEW100 20/M15 A2963"
"39020","HOB","2008-04-10 22:50:00",-103.217,32.6875,66.2,5,8.73,270,29,NA,29.68,NA,7,37,"CLR","   ","   ",NA,NA,NA,NA,NA,"BLDU",NA,NA,NA,NA,NA,NA,66.2,"KHOB 102250Z 27029G37KT 7SM BLDU SKC 19/M15 A2968"
"39021","HOB","2008-04-10 23:50:00",-103.217,32.6875,64.4,-7.6,5.12,270,32,NA,29.72,NA,8,40,"CLR","   ","   ",NA,NA,NA,NA,NA,"BLDU",NA,NA,NA,NA,NA,NA,64.4,"KHOB 102350Z 27032G40KT 8SM BLDU SKC 18/M22 A2972"
"39097","HOB","2008-04-17 21:50:00",-103.217,32.6875,64.4,23,20.46,310,28,NA,29.94,NA,1.5,36,"SCT","   ","   ",NA,10000,NA,NA,NA,"BLDU",NA,NA,NA,NA,NA,NA,64.4,"KHOB 172150Z 31028G36KT 11/2SM BLDU SCT100 18/M05 A2994"
"39098","HOB","2008-04-17 22:05:00",-103.217,32.6875,60.8,32,33.64,320,30,NA,29.96,NA,4,36,"SCT","   ","   ",NA,10000,NA,NA,NA,"BLDU",NA,NA,NA,NA,NA,NA,60.8,"KHOB 172205Z 32030G36KT 4SM BLDU SCT100 16/00 A2996"
"39322","HOB","2008-05-07 18:50:00",-103.217,32.6875,78.8,41,25.95,270,29,NA,29.71,NA,7,38,"SCT","   ","   ",NA,9000,NA,NA,NA,"BLDU",NA,NA,NA,NA,NA,NA,77.6,"KHOB 071850Z 27029G38KT 7SM BLDU SCT090 26/05 A2971"
"45103","HOB","2009-09-28 16:50:00",-103.217,32.6875,69.8,41,35.09,50,20,NA,30.22,NA,6,28,"CLR","   ","   ",NA,NA,NA,NA,NA,"BLDU",NA,NA,NA,NA,NA,NA,69.8,"KHOB 281650Z 05020G28KT 6SM BLDU SKC 21/05 A3022"
"45104","HOB","2009-09-28 17:50:00",-103.217,32.6875,71.6,39.2,30.77,40,15,NA,30.23,NA,6,25,"CLR","   ","   ",NA,NA,NA,NA,NA,"BLDU",NA,NA,NA,NA,NA,NA,69.91,"KHOB 281750Z 04015G25KT 6SM BLDU SKC 22/04 A3023"
"45934","HOB","2009-12-08 19:50:00",-103.217,32.6875,62.6,33.8,33.93,230,41,NA,29.52,NA,5,53,"SCT","   ","   ",NA,7500,NA,NA,NA,"BLDU",NA,NA,NA,NA,NA,NA,62.6,"KHOB 081950Z 23041G53KT 5SM BLDU SCT075 17/01 A2952"
"45935","HOB","2009-12-08 20:50:00",-103.217,32.6875,62.6,33.8,33.93,250,44,NA,29.58,NA,5,55,"FEW","   ","   ",NA,6500,NA,NA,NA,"BLDU",NA,NA,NA,NA,NA,NA,62.6,"KHOB 082050Z 25044G55KT 5SM BLDU FEW065 17/01 A2958"
"46450","HOB","2010-01-20 20:50:00",-103.217,32.6875,59,19.4,21.26,230,29,NA,29.58,NA,8,40,"CLR","   ","   ",NA,NA,NA,NA,NA,"BLDU",NA,NA,NA,NA,NA,NA,59,"KHOB 202050Z 23029G40KT 8SM BLDU SKC 15/M07 A2958"
"50763","HOB","2011-02-27 21:50:00",-103.217,32.6875,64.4,23,20.46,240,33,NA,29.62,NA,5,42,"CLR","   ","   ",NA,NA,NA,NA,NA,"BLDU",NA,NA,NA,NA,NA,NA,64.4,"KHOB 272150Z 24033G42KT 5SM BLDU SKC 18/M05 A2962"
"51500","HOB","2011-05-01 13:50:00",-103.217,32.6875,50,24.8,37.08,30,25,NA,30,NA,6,35,"BKN","   ","   ",NA,3800,NA,NA,NA,"BLDU",NA,NA,NA,NA,NA,NA,42.18,"KHOB 011350Z 03025G35KT 6SM BLDU BKN038 10/M04 A3000"
"53804","HOB","2011-11-05 21:50:00",-103.217,32.6875,73.4,33.8,23.39,250,19,NA,29.72,NA,5,28,"CLR","   ","   ",NA,NA,NA,NA,NA,"BLDU",NA,NA,NA,NA,NA,NA,71.54,"KHOB 052150Z 25019G28KT 5SM BLDU SKC 23/01 A2972"
"55200","HOB","2012-02-23 23:50:00",-103.217,32.6875,71.6,28.4,19.98,30,23,0,29.68,NA,6,35,"CLR",NA,NA,NA,NA,NA,NA,NA,"BLDU",NA,NA,NA,NA,NA,NA,69.4,"KHOB 232350Z 03023G35KT 6SM BLDU SKC 22/M02 A2968"
"55262","HOB","2012-02-28 18:50:00",-103.217,32.6875,73.4,21.2,13.93,220,35,0,29.88,NA,5,44,"CLR",NA,NA,NA,NA,NA,NA,NA,"BLDU",NA,NA,NA,NA,NA,NA,71.09,"KHOB 281850Z 22035G44KT 5SM BLDU SKC 23/M06 A2988"
"55263","HOB","2012-02-28 19:50:00",-103.217,32.6875,73.4,21.2,13.93,220,29,0,29.87,NA,6,46,"CLR",NA,NA,NA,NA,NA,NA,NA,"BLDU",NA,NA,NA,NA,NA,NA,71.09,"KHOB 281950Z 22029G46KT 6SM BLDU SKC 23/M06 A2987"
"55266","HOB","2012-02-28 22:50:00",-103.217,32.6875,73.4,12.2,9.43,240,27,0,29.87,NA,8,35,"CLR",NA,NA,NA,NA,NA,NA,NA,"BLDU",NA,NA,NA,NA,NA,NA,70.88,"KHOB 282250Z 24027G35KT 8SM BLDU SKC 23/M11 A2987"
"55267","HOB","2012-02-28 23:50:00",-103.217,32.6875,71.6,6.8,7.87,240,23,0,29.89,NA,3,37,"CLR",NA,NA,NA,NA,NA,NA,NA,"BLDU",NA,NA,NA,NA,NA,NA,68.83,"KHOB 282350Z 24023G37KT 3SM BLDU SKC 22/M14 A2989"
"55306","HOB","2012-03-02 23:50:00",-103.217,32.6875,64.4,17.6,16.26,330,34,0,29.78,NA,4,40,"CLR",NA,NA,NA,NA,NA,NA,NA,"BLDU",NA,NA,NA,NA,NA,NA,64.4,"KHOB 022350Z 33034G40KT 4SM BLDU SKC 18/M08 A2978"
"55372","HOB","2012-03-08 13:20:00",-103.217,32.6875,41,28.4,60.54,10,26,0,30.04,NA,3,36,"BKN",NA,NA,NA,1600,NA,NA,NA,"BLDU",NA,NA,NA,NA,NA,NA,29.8,"KHOB 081320Z 01026G36KT 3SM BLDU BKN016 05/M02 A3004"
"55373","HOB","2012-03-08 13:50:00",-103.217,32.6875,41,28.4,60.54,10,31,0,30.06,NA,3,38,"OVC",NA,NA,NA,1800,NA,NA,NA,"BLDU",NA,NA,NA,NA,NA,NA,28.91,"KHOB 081350Z 01031G38KT 3SM BLDU OVC018 05/M02 A3006"
"55374","HOB","2012-03-08 14:50:00",-103.217,32.6875,39.2,32,75.16,10,26,0,30.13,NA,3,36,"OVC",NA,NA,NA,1800,NA,NA,NA,"BLDU",NA,NA,NA,NA,NA,NA,27.36,"KHOB 081450Z 01026G36KT 3SM BLDU OVC018 04/00 A3013"
"55375","HOB","2012-03-08 15:39:00",-103.217,32.6875,39.2,28.4,64.93,20,32,0,30.17,NA,2.5,42,"OVC",NA,NA,NA,1800,NA,NA,NA,"BLDU",NA,NA,NA,NA,NA,NA,26.25,"KHOB 081539Z 02032G42KT 2 1/2SM BLDU OVC018 04/M02 A3017"
"55376","HOB","2012-03-08 15:50:00",-103.217,32.6875,39.2,28.4,64.93,20,31,0,30.18,NA,2.5,42,"OVC",NA,NA,NA,2000,NA,NA,NA,"BLDU",NA,NA,NA,NA,NA,NA,26.42,"KHOB 081550Z 02031G42KT 2 1/2SM BLDU OVC020 04/M02 A3018"
"55377","HOB","2012-03-08 16:50:00",-103.217,32.6875,41,24.8,52.17,10,32,0,30.21,NA,2,40,"OVC",NA,NA,NA,2600,NA,NA,NA,"BLDU",NA,NA,NA,NA,NA,NA,28.74,"KHOB 081650Z 01032G40KT 2SM BLDU OVC026 05/M04 A3021"
"55378","HOB","2012-03-08 17:50:00",-103.217,32.6875,42.8,23,45.14,10,28,0,30.24,NA,2.5,36,"OVC",NA,NA,NA,2800,NA,NA,NA,"BLDU",NA,NA,NA,NA,NA,NA,31.89,"KHOB 081750Z 01028G36KT 2 1/2SM BLDU OVC028 06/M05 A3024"
"55379","HOB","2012-03-08 18:50:00",-103.217,32.6875,41,19.4,41.54,10,24,0,30.27,NA,2,32,"OVC",NA,NA,NA,3200,NA,NA,NA,"BLDU",NA,NA,NA,NA,NA,NA,30.2,"KHOB 081850Z 01024G32KT 2SM BLDU OVC032 05/M07 A3027"
"55380","HOB","2012-03-08 19:50:00",-103.217,32.6875,42.8,19.4,38.75,20,21,0,30.27,NA,2.5,31,"OVC",NA,NA,NA,3600,NA,NA,NA,"BLDU",NA,NA,NA,NA,NA,NA,33.26,"KHOB 081950Z 02021G31KT 2 1/2SM BLDU OVC036 06/M07 A3027"
"55381","HOB","2012-03-08 20:50:00",-103.217,32.6875,42.8,19.4,38.75,30,22,0,30.28,NA,3,29,"OVC",NA,NA,NA,3600,NA,NA,NA,"BLDU",NA,NA,NA,NA,NA,NA,33.04,"KHOB 082050Z 03022G29KT 3SM BLDU OVC036 06/M07 A3028"
"55382","HOB","2012-03-08 21:20:00",-103.217,32.6875,42.8,19.4,38.75,30,23,0,30.28,NA,2.5,30,"OVC",NA,NA,NA,3400,NA,NA,NA,"PL BLDU",NA,NA,NA,NA,NA,NA,32.83,"KHOB 082120Z 03023G30KT 2 1/2SM PL BLDU OVC034 06/M07 A3028"
"55383","HOB","2012-03-08 21:50:00",-103.217,32.6875,41,23,48.39,30,17,0,30.3,NA,4,32,"BKN","BKN",NA,NA,3600,4700,NA,NA,"BLDU",NA,NA,NA,NA,NA,NA,31.87,"KHOB 082150Z 03017G32KT 4SM BLDU BKN036 BKN047 05/M05 A3030"
"55384","HOB","2012-03-08 22:50:00",-103.217,32.6875,41,23,48.39,40,20,0,30.34,NA,6,25,"BKN","OVC",NA,NA,4000,4700,NA,NA,"BLDU",NA,NA,NA,NA,NA,NA,31.09,"KHOB 082250Z 04020G25KT 6SM BLDU BKN040 OVC047 05/M05 A3034"
"55715","HOB","2012-04-02 20:20:00",-103.217,32.6875,68,6.8,8.9,230,28,0,29.65,NA,5,47,"CLR",NA,NA,NA,NA,NA,NA,NA,"BLDU",NA,NA,NA,NA,NA,NA,68,"KHOB 022020Z 23028G47KT 5SM BLDU SKC 20/M14 A2965"
"55774","HOB","2012-04-07 17:50:00",-103.217,32.6875,71.6,28.4,19.98,360,24,0,30.18,NA,4,30,"CLR",NA,NA,NA,NA,NA,NA,NA,"BLDU",NA,NA,NA,NA,NA,NA,69.4,"KHOB 071750Z 36024G30KT 4SM BLDU SKC 22/M02 A3018"
"55775","HOB","2012-04-07 18:50:00",-103.217,32.6875,69.8,37.4,30.49,10,20,0,30.2,NA,4,25,"CLR",NA,NA,NA,NA,NA,NA,NA,"BLDU",NA,NA,NA,NA,NA,NA,69.8,"KHOB 071850Z 01020G25KT 4SM BLDU SKC 21/03 A3020"
"55776","HOB","2012-04-07 19:50:00",-103.217,32.6875,71.6,42.8,35.37,10,18,0,30.19,NA,5,25,"CLR",NA,NA,NA,NA,NA,NA,NA,"BLDU",NA,NA,NA,NA,NA,NA,70.12,"KHOB 071950Z 01018G25KT 5SM BLDU SKC 22/06 A3019"
"55777","HOB","2012-04-07 20:50:00",-103.217,32.6875,71.6,41,33,10,15,0,30.19,NA,5,20,"CLR",NA,NA,NA,NA,NA,NA,NA,"BLDU",NA,NA,NA,NA,NA,NA,70.01,"KHOB 072050Z 01015G20KT 5SM BLDU SKC 22/05 A3019"
"62472","HOB","2012-10-04 12:50:00",-103.217,32.6875,53.6,39.2,58.02,350,24,0,30.14,NA,6,31,"CLR",NA,NA,NA,NA,NA,NA,NA,"BLDU",NA,NA,NA,NA,NA,NA,53.6,"KHOB 041250Z 35024G31KT 6SM BLDU SKC 12/04 A3014"
"62473","HOB","2012-10-04 13:50:00",-103.217,32.6875,53.6,37.4,54.07,350,27,0,30.17,NA,6,32,"CLR",NA,NA,NA,NA,NA,NA,NA,"BLDU",NA,NA,NA,NA,NA,NA,53.6,"KHOB 041350Z 35027G32KT 6SM BLDU SKC 12/03 A3017"
"65895","HOB","2012-12-19 18:25:00",-103.217,32.6875,64.4,24.8,22.06,220,34,0,29.68,NA,2,43,"CLR",NA,NA,NA,NA,NA,NA,NA,"BLDU",NA,NA,NA,NA,NA,NA,64.4,"KHOB 191825Z 22034G43KT 2SM BLDU SKC 18/M04 A2968"
"65896","HOB","2012-12-19 18:50:00",-103.217,32.6875,62.6,30.2,29.35,220,38,0,29.66,NA,2,55,"CLR",NA,NA,NA,NA,NA,NA,NA,"BLDU",NA,NA,NA,NA,NA,NA,62.6,"KHOB 191850Z 22038G55KT 2SM BLDU CLR 17/M01 A2966"
"65897","HOB","2012-12-19 19:50:00",-103.217,32.6875,62.6,28.4,27.27,230,38,0,29.68,NA,6,44,"FEW",NA,NA,NA,7000,NA,NA,NA,"BLDU",NA,NA,NA,NA,NA,NA,62.6,"KHOB 191950Z 23038G44KT 6SM BLDU FEW070 17/M02 A2968"
"65898","HOB","2012-12-19 20:08:00",-103.217,32.6875,62.6,28.4,27.27,240,37,0,29.67,NA,2,50,"FEW","SCT",NA,NA,7000,8500,NA,NA,"BLDU",NA,NA,NA,NA,NA,NA,62.6,"KHOB 192008Z 24037G50KT 2SM BLDU FEW070 SCT085 17/M02 A2967"
"65899","HOB","2012-12-19 20:50:00",-103.217,32.6875,59,28.4,30.98,230,38,0,29.7,NA,3,48,"FEW",NA,NA,NA,7000,NA,NA,NA,"BLDU",NA,NA,NA,NA,NA,NA,59,"KHOB 192050Z 23038G48KT 3SM BLDU FEW070 15/M02 A2970"
"65900","HOB","2012-12-19 21:50:00",-103.217,32.6875,57.2,26.6,30.69,230,35,0,29.74,NA,4,47,"FEW",NA,NA,NA,7000,NA,NA,NA,"BLDU",NA,NA,NA,NA,NA,NA,57.2,"KHOB 192150Z 23035G47KT 4SM BLDU FEW070 14/M03 A2974"
"65901","HOB","2012-12-19 22:50:00",-103.217,32.6875,55.4,15.8,20.73,240,27,0,29.78,NA,4,34,"CLR",NA,NA,NA,NA,NA,NA,NA,"BLDU",NA,NA,NA,NA,NA,NA,55.4,"KHOB 192250Z 24027G34KT 4SM BLDU SKC 13/M09 A2978"
"65902","HOB","2012-12-19 23:50:00",-103.217,32.6875,50,6.8,16.95,290,24,0,29.85,NA,6,30,"CLR",NA,NA,NA,NA,NA,NA,NA,"BLDU",NA,NA,NA,NA,NA,NA,42.34,"KHOB 192350Z 29024G30KT 6SM BLDU SKC 10/M14 A2985"
"70494","HOB","2013-03-31 12:31:00",-103.217,32.6875,57.2,32,38.26,350,22,0,30.02,NA,4,27,"SCT",NA,NA,NA,12000,NA,NA,NA,"BLDU",NA,NA,NA,NA,NA,NA,57.2,"KHOB 311231Z 35022G27KT 4SM BLDU SCT120 14/00 A3002"
"70495","HOB","2013-03-31 12:50:00",-103.217,32.6875,55.4,35.6,47.16,340,23,0,30.04,NA,3,31,"FEW",NA,NA,NA,12000,NA,NA,NA,"BLDU",NA,NA,NA,NA,NA,NA,55.4,"KHOB 311250Z 34023G31KT 3SM BLDU FEW120 13/02 A3004"
"70496","HOB","2013-03-31 13:50:00",-103.217,32.6875,53.6,42.8,66.7,10,21,0,30.09,NA,6,29,"SCT",NA,NA,NA,12000,NA,NA,NA,"BLDU",NA,NA,NA,NA,NA,NA,53.6,"KHOB 311350Z 01021G29KT 6SM BLDU SCT120 12/06 A3009"
"70586","HOB","2013-04-02 11:50:00",-103.217,32.6875,46.4,41,81.34,10,16,0,29.98,NA,5,21,"OVC",NA,NA,NA,500,NA,NA,NA,"BLDU",NA,NA,NA,NA,NA,NA,39.19,"KHOB 021150Z 01016G21KT 5SM BLDU OVC005 08/05 A2998"
"70918","HOB","2013-04-09 15:50:00",-103.217,32.6875,71.6,28.4,19.98,250,18,0,29.64,NA,5,27,"CLR",NA,NA,NA,NA,NA,NA,NA,"BLDU",NA,NA,NA,NA,NA,NA,69.4,"KHOB 091550Z 25018G27KT 5SM BLDU SKC 22/M02 A2964"
"70919","HOB","2013-04-09 16:10:00",-103.217,32.6875,71.6,26.6,18.55,230,18,0,29.65,NA,2,22,"CLR",NA,NA,NA,NA,NA,NA,NA,"BLDU",NA,NA,NA,NA,NA,NA,69.33,"KHOB 091610Z 23018G22KT 2SM BLDU SKC 22/M03 A2965"
"70920","HOB","2013-04-09 16:50:00",-103.217,32.6875,71.6,24.8,17.22,240,15,0,29.66,NA,2,21,"CLR",NA,NA,NA,NA,NA,NA,NA,"BLDU",NA,NA,NA,NA,NA,NA,69.27,"KHOB 091650Z 24015G21KT 2SM BLDU SKC 22/M04 A2966"
"70921","HOB","2013-04-09 17:50:00",-103.217,32.6875,73.4,24.8,16.2,240,17,0,29.66,NA,3,22,"CLR",NA,NA,NA,NA,NA,NA,NA,"BLDU",NA,NA,NA,NA,NA,NA,71.2,"KHOB 091750Z 24017G22KT 3SM BLDU SKC 23/M04 A2966"
"70922","HOB","2013-04-09 18:50:00",-103.217,32.6875,73.4,26.6,17.46,250,17,0,29.66,NA,5,27,"CLR",NA,NA,NA,NA,NA,NA,NA,"BLDU",NA,NA,NA,NA,NA,NA,71.26,"KHOB 091850Z 25017G27KT 5SM BLDU SKC 23/M03 A2966"
"70923","HOB","2013-04-09 19:50:00",-103.217,32.6875,73.4,30.2,20.23,250,20,0,29.66,NA,6,28,"CLR",NA,NA,NA,NA,NA,NA,NA,"BLDU",NA,NA,NA,NA,NA,NA,71.39,"KHOB 091950Z 25020G28KT 6SM BLDU SKC 23/M01 A2966"
"70924","HOB","2013-04-09 20:50:00",-103.217,32.6875,69.8,28.4,21.24,270,23,0,29.67,NA,8,31,"CLR",NA,NA,NA,NA,NA,NA,NA,"BLDU",NA,NA,NA,NA,NA,NA,69.8,"KHOB 092050Z 27023G31KT 8SM BLDU SKC 21/M02 A2967"
"70925","HOB","2013-04-09 21:50:00",-103.217,32.6875,66.2,28.4,24.04,270,22,0,29.68,NA,8,28,"CLR",NA,NA,NA,NA,NA,NA,NA,"BLDU",NA,NA,NA,NA,NA,NA,66.2,"KHOB 092150Z 27022G28KT 8SM BLDU SKC 19/M02 A2968"
"70926","HOB","2013-04-09 22:50:00",-103.217,32.6875,66.2,26.6,22.33,270,20,0,29.68,NA,10,28,"CLR",NA,NA,NA,NA,NA,NA,NA,"BLDU",NA,NA,NA,NA,NA,NA,66.2,"KHOB 092250Z 27020G28KT 10SM BLDU SKC 19/M03 A2968"
"71918","HOB","2013-05-01 17:50:00",-103.217,32.6875,78.8,33.8,19.55,10,16,0,29.96,NA,5,23,"CLR",NA,NA,NA,NA,NA,NA,NA,"BLDU",NA,NA,NA,NA,NA,NA,77.3,"KHOB 011750Z 01016G23KT 5SM BLDU SKC 26/01 A2996"
"71919","HOB","2013-05-01 18:50:00",-103.217,32.6875,82.4,32,16.17,360,17,0,29.96,NA,5,23,"CLR",NA,NA,NA,NA,NA,NA,NA,"BLDU",NA,NA,NA,NA,NA,NA,80,"KHOB 011850Z 36017G23KT 5SM BLDU SKC 28/00 A2996"
"71920","HOB","2013-05-01 19:50:00",-103.217,32.6875,80.6,32,17.14,20,12,0,29.98,NA,5,22,"CLR",NA,NA,NA,NA,NA,NA,NA,"BLDU",NA,NA,NA,NA,NA,NA,78.82,"KHOB 011950Z 02012G22KT 5SM BLDU SKC 27/00 A2998"
"71921","HOB","2013-05-01 20:45:00",-103.217,32.6875,82.4,32,16.17,10,15,0,29.98,NA,5,21,"CLR",NA,NA,NA,NA,NA,NA,NA,"BLDU",NA,NA,NA,NA,NA,NA,80,"KHOB 012045Z 01015G21KT 5SM BLDU SKC 28/00 A2998"
"71922","HOB","2013-05-01 21:50:00",-103.217,32.6875,82.4,35.6,18.67,30,16,0,29.98,NA,5,22,"CLR",NA,NA,NA,NA,NA,NA,NA,"BLDU",NA,NA,NA,NA,NA,NA,80.08,"KHOB 012150Z 03016G22KT 5SM BLDU SKC 28/02 A2998"
"73292","HOB","2013-06-01 15:50:00",-103.217,32.6875,78.8,41,25.95,40,17,0,30.03,NA,10,25,"CLR",NA,NA,NA,NA,NA,NA,NA,"BLDU",NA,NA,NA,NA,NA,NA,77.6,"KHOB 011550Z 04017G25KT 10SM BLDU SKC 26/05 A3003"
"73294","HOB","2013-06-01 17:50:00",-103.217,32.6875,82.4,39.2,21.51,30,12,0,30.05,NA,10,21,"CLR",NA,NA,NA,NA,NA,NA,NA,"BLDU",NA,NA,NA,NA,NA,NA,80.21,"KHOB 011750Z 03012G21KT 10SM BLDU SKC 28/04 A3005"
"74552","HOB","2013-06-29 17:50:00",-103.217,32.6875,91.4,55.4,29.72,90,17,0,30.11,NA,6,25,"FEW",NA,NA,NA,11000,NA,NA,NA,"BLDU",NA,NA,NA,NA,NA,NA,89.53,"KHOB 291750Z 09017G25KT 6SM BLDU FEW110 33/13 A3011"
"74553","HOB","2013-06-29 18:50:00",-103.217,32.6875,93.2,55.4,28.1,90,14,0,30.07,NA,4,21,"CLR",NA,NA,NA,NA,NA,NA,NA,"BLDU",NA,NA,NA,NA,NA,NA,91.35,"KHOB 291850Z 09014G21KT 4SM BLDU SKC 34/13 A3007"
"74554","HOB","2013-06-29 19:50:00",-103.217,32.6875,96.8,53.6,23.55,120,12,0,30.04,NA,5,15,"CLR",NA,NA,NA,NA,NA,NA,NA,"BLDU",NA,NA,NA,NA,NA,NA,94.59,"KHOB 291950Z 12012G15KT 5SM BLDU SKC 36/12 A3004"
"74555","HOB","2013-06-29 20:50:00",-103.217,32.6875,98.6,50,19.52,150,10,0,30.01,NA,5,16,"CLR",NA,NA,NA,NA,NA,NA,NA,"BLDU",NA,NA,NA,NA,NA,NA,95.56,"KHOB 292050Z 15010G16KT 5SM BLDU SKC 37/10 A3001"
"76344","HOB","2013-08-07 20:50:00",-103.217,32.6875,91.4,59,33.84,190,26,0,30.01,NA,4,32,"BKN","BKN",NA,NA,9000,11000,NA,NA,"BLDU TS",NA,NA,NA,NA,NA,NA,91.4,"KHOB 072050Z 19026G32KT 4SM BLDU TS BKN090 BKN110 33/15 A3001"
"79606","HOB","2013-10-18 22:50:00",-103.217,32.6875,57.2,35.6,44.19,360,23,0,30.05,NA,9,30,"CLR",NA,NA,NA,NA,NA,NA,NA,"BLDU",NA,NA,NA,NA,NA,NA,57.2,"KHOB 182250Z 36023G30KT 9SM BLDU SKC 14/02 A3005"
"79607","HOB","2013-10-18 23:45:00",-103.217,32.6875,50,35.6,57.52,10,21,0,30.08,NA,9,27,"CLR",NA,NA,NA,NA,NA,NA,NA,"BLDU",NA,NA,NA,NA,NA,NA,42.86,"KHOB 182345Z 01021G27KT 9SM BLDU SKC 10/02 A3008"
"81131","HOB","2013-11-21 23:50:00",-103.217,32.6875,59,35.6,41.42,10,20,0,30.07,NA,4,25,"CLR",NA,NA,NA,NA,NA,NA,NA,"BLDU",NA,NA,NA,NA,NA,NA,59,"KHOB 212350Z 01020G25KT 4SM BLDU SKC 15/02 A3007"
"85308","HOB","2014-02-20 17:50:00",-103.217,32.6875,59,6.8,12.21,320,24,0,30.07,NA,7,31,"CLR",NA,NA,NA,NA,NA,NA,NA,"BLDU",NA,NA,NA,NA,NA,NA,59,"KHOB 201750Z 32024G31KT 7SM BLDU SKC 15/M14 A3007"
"85312","HOB","2014-02-20 21:50:00",-103.217,32.6875,60.8,-7.6,5.82,330,22,0,30.02,NA,7,31,"CLR",NA,NA,NA,NA,NA,NA,NA,"BLDU",NA,NA,NA,NA,NA,NA,60.8,"KHOB 202150Z 33022G31KT 7SM BLDU SKC 16/M22 A3002"
"85313","HOB","2014-02-20 22:50:00",-103.217,32.6875,60.8,-11.2,4.87,320,26,0,30.02,NA,8,33,"CLR",NA,NA,NA,NA,NA,NA,NA,"BLDU",NA,NA,NA,NA,NA,NA,60.8,"KHOB 202250Z 32026G33KT 8SM BLDU SKC 16/M24 A3002"
"85314","HOB","2014-02-20 23:50:00",-103.217,32.6875,57.2,-11.2,5.54,310,18,0,30.03,NA,8,25,"CLR",NA,NA,NA,NA,NA,NA,NA,"BLDU",NA,NA,NA,NA,NA,NA,57.2,"KHOB 202350Z 31018G25KT 8SM BLDU SKC 14/M24 A3003"
"85907","HOB","2014-03-05 15:50:00",-103.217,32.6875,50,32,49.81,350,27,0,29.99,NA,5,33,"CLR",NA,NA,NA,NA,NA,NA,NA,"BLDU",NA,NA,NA,NA,NA,NA,41.88,"KHOB 051550Z 35027G33KT 5SM BLDU SKC 10/00 A2999"
"85908","HOB","2014-03-05 16:50:00",-103.217,32.6875,51.8,32,46.59,360,25,0,NA,NA,4,31,"CLR",NA,NA,NA,NA,NA,NA,NA,"BLDU",NA,NA,NA,NA,NA,NA,51.8,"KHOB 051650Z 36025G31KT 4SM BLDU SKC 11/M00"
"85909","HOB","2014-03-05 17:50:00",-103.217,32.6875,55.4,32,40.84,360,22,0,30.04,NA,4,28,"CLR",NA,NA,NA,NA,NA,NA,NA,"BLDU",NA,NA,NA,NA,NA,NA,55.4,"KHOB 051750Z 36022G28KT 4SM BLDU SKC 13/00 A3004"
"85910","HOB","2014-03-05 18:50:00",-103.217,32.6875,57.2,32,38.26,360,22,0,30.05,NA,5,28,"CLR",NA,NA,NA,NA,NA,NA,NA,"BLDU",NA,NA,NA,NA,NA,NA,57.2,"KHOB 051850Z 36022G28KT 5SM BLDU SKC 14/00 A3005"
"85911","HOB","2014-03-05 19:50:00",-103.217,32.6875,59,32,35.87,10,18,0,30.05,NA,6,25,"CLR",NA,NA,NA,NA,NA,NA,NA,"BLDU",NA,NA,NA,NA,NA,NA,59,"KHOB 051950Z 01018G25KT 6SM BLDU SKC 15/00 A3005"
"85912","HOB","2014-03-05 20:50:00",-103.217,32.6875,59,32,35.87,10,18,0,30.06,NA,6,24,"FEW",NA,NA,NA,5000,NA,NA,NA,"BLDU",NA,NA,NA,NA,NA,NA,59,"KHOB 052050Z 01018G24KT 6SM BLDU FEW050 15/00 A3006"
"85913","HOB","2014-03-05 21:50:00",-103.217,32.6875,59,32,35.87,20,18,0,30.09,NA,6,25,"FEW",NA,NA,NA,6000,NA,NA,NA,"BLDU",NA,NA,NA,NA,NA,NA,59,"KHOB 052150Z 02018G25KT 6SM BLDU FEW060 15/00 A3009"
"86371","HOB","2014-03-15 21:50:00",-103.217,32.6875,71.6,15.8,11.74,270,23,0,29.73,NA,8,30,"SCT",NA,NA,NA,12000,NA,NA,NA,"BLDU",NA,NA,NA,NA,NA,NA,69.01,"KHOB 152150Z 27023G30KT 8SM BLDU SCT120 22/M09 A2973"
"87237","HOB","2014-04-03 17:50:00",-103.217,32.6875,68,17.6,14.35,240,26,0,29.87,NA,7,37,"CLR",NA,NA,NA,NA,NA,NA,NA,"BLDU",NA,NA,NA,NA,NA,NA,68,"KHOB 031750Z 24026G37KT 7SM BLDU SKC 20/M08 A2987"
"87238","HOB","2014-04-03 18:50:00",-103.217,32.6875,68,14,12.27,240,36,0,29.86,NA,6,42,"CLR",NA,NA,NA,NA,NA,NA,NA,"BLDU",NA,NA,NA,NA,NA,NA,68,"KHOB 031850Z 24036G42KT 6SM BLDU SKC 20/M10 A2986"
"87239","HOB","2014-04-03 19:50:00",-103.217,32.6875,69.8,1.4,6.53,240,36,0,29.84,NA,4,44,"CLR",NA,NA,NA,NA,NA,NA,NA,"BLDU",NA,NA,NA,NA,NA,NA,69.8,"KHOB 031950Z 24036G44KT 4SM BLDU SKC 21/M17 A2984"
"87379","HOB","2014-04-06 21:27:00",-103.217,32.6875,62.6,24.8,23.5,240,31,0,29.77,NA,3,38,"SCT","BKN",NA,NA,3500,11000,NA,NA,"BLDU",NA,NA,NA,NA,NA,NA,62.6,"KHOB 062127Z 24031G38KT 3SM BLDU SCT035 BKN110 17/M04 A2977"
"87380","HOB","2014-04-06 21:50:00",-103.217,32.6875,62.6,24.8,23.5,230,27,0,29.77,NA,6,33,"FEW","BKN",NA,NA,3700,11000,NA,NA,"BLDU",NA,NA,NA,NA,NA,NA,62.6,"KHOB 062150Z 23027G33KT 6SM BLDU FEW037 BKN110 17/M04 A2977"
"88206","HOB","2014-04-24 14:07:00",-103.217,32.6875,59,23,24.76,340,21,0,30.06,NA,3,26,"CLR",NA,NA,NA,NA,NA,NA,NA,"BLDU",NA,NA,NA,NA,NA,NA,59,"KHOB 241407Z 34021G26KT 3SM BLDU SKC 15/M05 A3006"
"88207","HOB","2014-04-24 14:50:00",-103.217,32.6875,57.2,32,38.26,360,18,0,30.09,NA,4,23,"CLR",NA,NA,NA,NA,NA,NA,NA,"BLDU",NA,NA,NA,NA,NA,NA,57.2,"KHOB 241450Z 36018G23KT 4SM BLDU SKC 14/00 A3009"
"91324","HOB","2014-07-01 13:50:00",-103.217,32.6875,75.2,57.2,53.55,80,29,0,29.96,NA,5,35,"BKN",NA,NA,NA,15000,NA,NA,NA,"BLDU",NA,NA,NA,NA,NA,NA,75.2,"KHOB 011350Z 08029G35KT 5SM BLDU BKN150 24/14 A2996"
"91325","HOB","2014-07-01 14:50:00",-103.217,32.6875,75.2,62.6,64.91,100,25,0,29.95,NA,5,30,"SCT",NA,NA,NA,12000,NA,NA,NA,"BLDU",NA,NA,NA,NA,NA,NA,75.2,"KHOB 011450Z 10025G30KT 5SM BLDU SCT120 24/17 A2995"
"97955","HOB","2014-11-23 18:50:00",-103.217,32.6875,64.4,23,20.46,280,31,0,29.69,NA,7,40,"FEW",NA,NA,NA,9000,NA,NA,NA,"BLDU",NA,NA,NA,NA,NA,NA,64.4,"KHOB 231850Z 28031G40KT 7SM BLDU FEW090 18/M05 A2969"
"101352","HOB","2015-02-04 22:50:00",-103.217,32.6875,55.4,32,40.84,10,26,0,30.06,NA,6,34,"CLR",NA,NA,NA,NA,NA,NA,NA,"BLDU",NA,NA,NA,NA,NA,NA,55.4,"KHOB 042250Z 01026G34KT 6SM BLDU SKC 13/00 A3006"
"101353","HOB","2015-02-04 23:50:00",-103.217,32.6875,41,28.4,60.54,10,25,0,30.12,NA,6,32,"CLR",NA,NA,NA,NA,NA,NA,NA,"BLDU",NA,NA,NA,NA,NA,NA,30,"KHOB 042350Z 01025G32KT 6SM BLDU SKC 05/M02 A3012"
"101668","HOB","2015-02-11 17:50:00",-103.217,32.6875,50,39.2,66.27,20,21,0,30.17,NA,6,26,"OVC",NA,NA,NA,2400,NA,NA,NA,"BLDU",NA,NA,NA,NA,NA,NA,42.86,"KHOB 111750Z 02021G26KT 6SM BLDU OVC024 10/04 A3017"
"101669","HOB","2015-02-11 18:50:00",-103.217,32.6875,48.2,39.2,70.88,20,25,0,30.19,NA,6,29,"OVC",NA,NA,NA,2400,NA,NA,NA,"BLDU",NA,NA,NA,NA,NA,NA,39.75,"KHOB 111850Z 02025G29KT 6SM BLDU OVC024 09/04 A3019"
"101670","HOB","2015-02-11 19:50:00",-103.217,32.6875,48.2,37.4,66.05,10,23,0,30.2,NA,5,27,"OVC",NA,NA,NA,2400,NA,NA,NA,"BLDU",NA,NA,NA,NA,NA,NA,40.09,"KHOB 111950Z 01023G27KT 5SM BLDU OVC024 09/03 A3020"
"104050","HOB","2015-04-03 11:50:00",-103.217,32.6875,44.6,32,61.03,360,22,0,30.1,NA,5,27,"CLR",NA,NA,NA,NA,NA,NA,NA,"BLDU",NA,NA,NA,NA,NA,NA,35.45,"KHOB 031150Z 36022G27KT 5SM BLDU SKC 07/00 A3010"
"104051","HOB","2015-04-03 12:50:00",-103.217,32.6875,41,32,70.08,360,19,0,30.13,NA,5,24,"CLR",NA,NA,NA,NA,NA,NA,NA,"BLDU",NA,NA,NA,NA,NA,NA,31.34,"KHOB 031250Z 36019G24KT 5SM BLDU SKC 05/00 A3013"
"104052","HOB","2015-04-03 13:50:00",-103.217,32.6875,42.8,32,65.38,360,21,0,30.17,NA,6,28,"CLR",NA,NA,NA,NA,NA,NA,NA,"BLDU",NA,NA,NA,NA,NA,NA,33.26,"KHOB 031350Z 36021G28KT 6SM BLDU SKC 06/00 A3017"
"118608","HOB","2016-02-01 20:50:00",-103.217,32.6875,60.8,28.4,29.06,250,32,0,29.55,NA,6,40,"SCT",NA,NA,NA,11000,NA,NA,NA,"BLDU",NA,NA,NA,NA,NA,NA,60.8,"KHOB 012050Z 25032G40KT 6SM BLDU SCT110 16/M02 A2955"
"121048","HOB","2016-03-23 19:50:00",-103.217,32.6875,71.6,23,15.97,240,35,0,29.75,NA,6,42,"CLR",NA,NA,NA,NA,NA,NA,NA,"BLDU",NA,NA,NA,NA,NA,NA,69.21,"KHOB 231950Z 24035G42KT 6SM BLDU SKC 22/M05 A2975"
"133983","HOB","2016-12-17 18:50:00",-103.217,32.6875,71.6,30.2,21.5,230,39,0,29.64,NA,5,48,"FEW",NA,NA,NA,9000,NA,NA,NA,"BLDU",NA,NA,NA,NA,NA,NA,69.47,"KHOB 171850Z 23039G48KT 5SM BLDU FEW090 22/M01 A2964"
"133984","HOB","2016-12-17 19:50:00",-103.217,32.6875,53.6,24.8,32.46,330,33,0,29.75,NA,3,49,"SCT",NA,NA,NA,4000,NA,NA,NA,"BLDU",NA,NA,NA,NA,NA,NA,53.6,"KHOB 171950Z 33033G49KT 3SM BLDU SCT040 12/M04 A2975"
"133985","HOB","2016-12-17 20:50:00",-103.217,32.6875,33.8,14,43.65,350,23,0,29.83,NA,3,31,"SCT",NA,NA,NA,5000,NA,NA,NA,"BLDU",NA,NA,NA,NA,NA,NA,20.73,"KHOB 172050Z 35023G31KT 3SM BLDU SCT050 01/M10 A2983"
