"","station","valid","lon","lat","tmpf","dwpf","relh","drct","sknt","p01i","alti","mslp","vsby","gust","skyc1","skyc2","skyc3","skyc4","skyl1","skyl2","skyl3","skyl4","wxcodes","ice_accretion_1hr","ice_accretion_3hr","ice_accretion_6hr","peak_wind_gust","peak_wind_drct","peak_wind_time","feel","metar"
"2640","AMA","2001-04-20 22:53:00",-101.7059,35.2194,84.92,32,14.9,250,31,NA,29.7,1000.8,9,36,"CLR","   ","   ",NA,NA,NA,NA,NA,"BLDU",NA,NA,NA,36,250,"2001-04-20 22:53",81.81,"METAR KAMA 202253Z 25031G36KT 9SM BLDU CLR 29/00 A2970 RMK AO2 PK WND 25036/2253 SLP008 T02940000"
"9704","AMA","2002-02-09 21:53:00",-101.7059,35.2194,42.08,21.02,42.69,350,29,NA,30.14,1020.6,3,42,"FEW","   ","   ",NA,5000,NA,NA,NA,"BLDU",NA,NA,NA,46,340,"2002-02-09 20:55",30.73,"METAR KAMA 092153Z 35029G42KT 3SM BLDU FEW050 06/M06 A3014 RMK AO2 PK WND 34046/2055 SLP206 T00561061"
"9705","AMA","2002-02-09 22:53:00",-101.7059,35.2194,37.94,21.92,52.09,350,32,NA,30.19,1022.9,3,40,"SCT","BKN","   ",NA,3700,4600,NA,NA,"BLDU",NA,NA,NA,41,360,"2002-02-09 22:24",24.51,"METAR KAMA 092253Z 35032G40KT 3SM BLDU SCT037 BKN046 03/M06 A3019 RMK AO2 PK WND 36041/2224 SLP229 T00331056"
"9706","AMA","2002-02-09 23:53:00",-101.7059,35.2194,37.04,21.92,53.97,340,33,NA,30.22,1024,3,37,"FEW","OVC","   ",NA,1800,4400,NA,NA,"BLDU",NA,NA,NA,40,350,"2002-02-09 23:27",23.09,"METAR KAMA 092353Z 34033G37KT 3SM BLDU FEW018 OVC044 03/M06 A3022 RMK AO2 PK WND 35040/2327 SLP240 T00281056 10078 20028 51039"
"9707","AMA","2002-02-10 00:53:00",-101.7059,35.2194,35.06,23,61.08,350,27,NA,30.27,1026,3,35,"BKN","OVC","   ",NA,3900,7000,NA,NA,"BLDU",NA,NA,NA,41,350,"2002-02-09 23:55",21.52,"METAR KAMA 100053Z 35027G35KT 3SM BLDU BKN039 OVC070 02/M05 A3027 RMK AO2 PK WND 35041/2355 SLP260 T00171050"
"10358","AMA","2002-03-09 03:53:00",-101.7059,35.2194,33.08,23,66.11,10,24,NA,29.94,1012.4,6,32,"BKN","   ","   ",NA,1200,NA,NA,NA,"BLDU",NA,NA,NA,42,350,"2002-03-09 03:30",19.52,"METAR KAMA 090353Z 01024G32KT 6SM BLDU BKN012 01/M05 A2994 RMK AO2 PK WND 35042/0330 WSHFT 0324 SLP124 T00061050"
"17291","AMA","2002-12-23 13:53:00",-101.7059,35.2194,28.04,26.96,95.65,40,7,0.07,30,1017.4,0.75,NA,"BKN","BKN","OVC",NA,700,1400,2800,NA,"-TSSN BR",NA,NA,NA,NA,NA,NA,19.95,"METAR KAMA 231353Z 04007KT 3/4SM -TSSN BR BKN007 BKN014 OVC028 M02/M03 A3000 RMK AO2 TSB30 SLP174 TS OVHD MVG UKN P0007 T10221028"
"25822","AMA","2003-12-15 16:53:00",-101.7059,35.2194,50,15.98,25.48,270,33,NA,29.55,998.6,4,40,"CLR","   ","   ",NA,NA,NA,NA,NA,"BLDU",NA,NA,NA,NA,NA,NA,41.06,"METAR KAMA 151653Z 27033G40KT 4SM BLDU CLR 10/M09 A2955 RMK AO2 PK WND 27044/1631 SLP986 T01001089"
"25823","AMA","2003-12-15 17:53:00",-101.7059,35.2194,50,15.98,25.48,270,31,NA,29.57,999.2,5,40,"CLR","   ","   ",NA,NA,NA,NA,NA,"BLDU",NA,NA,NA,NA,NA,NA,41.32,"METAR KAMA 151753Z 27031G40KT 5SM BLDU CLR 10/M09 A2957 RMK AO2 PK WND 26042/1719 SLP992 T01001089 10106 20028 55002"
"25824","AMA","2003-12-15 18:53:00",-101.7059,35.2194,51.08,14,22.45,270,29,NA,29.56,999.4,5,40,"CLR","   ","   ",NA,NA,NA,NA,NA,"BLDU",NA,NA,NA,NA,NA,NA,51.08,"METAR KAMA 151853Z 27029G40KT 5SM BLDU CLR 11/M10 A2956 RMK AO2 PK WND 27044/1813 SLP994 T01061100"
"25825","AMA","2003-12-15 19:53:00",-101.7059,35.2194,48.92,33.08,54.15,290,31,NA,29.56,999.9,8,39,"   ","   ","   ",NA,NA,NA,NA,NA,"BLDU",NA,NA,NA,NA,NA,NA,39.83,"METAR KAMA 151953Z 29031G39KT 8SM BLDU 09/01 A2956 RMK AO2 PK WND 28041/1935 SLP999 T00940006 $"
"25826","AMA","2003-12-15 20:53:00",-101.7059,35.2194,37.04,33.08,85.43,340,28,NA,29.7,1004.5,2.5,37,"BKN","OVC","   ",NA,2800,3800,NA,NA,"-SN BR BLDU",NA,NA,NA,NA,NA,NA,24.01,"METAR KAMA 152053Z 34028G37KT 2 1/2SM -SN BR BLDU BKN028 OVC038 03/01 A2970 RMK AO2 PK WND 31040/2001 SFC VIS 3 RAB42E46SNB46 PRESRR SLP045 P0000 60000 T00280006 53039"
"25827","AMA","2003-12-15 21:53:00",-101.7059,35.2194,35.06,30.02,81.65,350,31,NA,29.76,1007.2,8,41,"BKN","OVC","   ",NA,1900,2800,NA,NA,"-SN BLDU",NA,NA,NA,NA,NA,NA,20.71,"METAR KAMA 152153Z 35031G41KT 8SM -SN BLDU BKN019 OVC028 02/M01 A2976 RMK AO2 PK WND 33041/2146 PRESRR SLP072 P0000 T00171011"
"25828","AMA","2003-12-15 22:53:00",-101.7059,35.2194,33.98,32,92.36,350,21,NA,29.84,1010.4,5,30,"SCT","BKN","OVC",NA,2100,2700,5000,NA,"-SN BR BLDU",NA,NA,NA,NA,NA,NA,21.49,"METAR KAMA 152253Z 35021G30KT 5SM -SN BR BLDU SCT021 BKN027 OVC050 01/00 A2984 RMK AO2 PK WND 34042/2205 SLP104 P0000 T00110000"
"25829","AMA","2003-12-15 23:53:00",-101.7059,35.2194,33.08,30.02,88.37,350,24,NA,29.91,1013,10,33,"SCT","BKN","OVC",NA,2400,3100,7500,NA,"BLDU",NA,NA,NA,NA,NA,NA,19.52,"METAR KAMA 152353Z 35024G33KT 10SM BLDU SCT024 BKN031 OVC075 01/M01 A2991 RMK AO2 PK WND 35036/2329 SNE44 PRESRR SLP130 P0000 60000 T00061011 10111 20006 53065"
"25830","AMA","2003-12-16 00:53:00",-101.7059,35.2194,33.08,28.04,81.5,350,26,NA,29.96,1014.9,10,32,"SCT","BKN","OVC",NA,2800,5000,6500,NA,"BLDU",NA,NA,NA,NA,NA,NA,19.04,"METAR KAMA 160053Z 35026G32KT 10SM BLDU SCT028 BKN050 OVC065 01/M02 A2996 RMK AO2 PK WND 34038/0032 SNB11E34 SLP149 P0000 T00061022"
"25831","AMA","2003-12-16 01:53:00",-101.7059,35.2194,33.08,26.06,75.11,340,19,NA,30.01,1016.4,10,26,"FEW","OVC","   ",NA,2500,6500,NA,NA,"BLDU",NA,NA,NA,NA,NA,NA,20.87,"METAR KAMA 160153Z 34019G26KT 10SM BLDU FEW025 OVC065 01/M03 A3001 RMK AO2 PK WND 33034/0121 SLP164 T00061033"
"25832","AMA","2003-12-16 02:53:00",-101.7059,35.2194,33.08,24.98,71.82,330,23,NA,30.05,1017.8,10,28,"BKN","OVC","   ",NA,7500,9500,NA,NA,"BLDU",NA,NA,NA,NA,NA,NA,19.77,"METAR KAMA 160253Z 33023G28KT 10SM BLDU BKN075 OVC095 01/M04 A3005 RMK AO2 PK WND 33030/0217 SLP178 60000 T00061039 51043"
"25833","AMA","2003-12-16 03:53:00",-101.7059,35.2194,33.98,21.92,60.93,330,21,NA,30.09,1018.5,10,NA,"BKN","OVC","   ",NA,7500,9500,NA,NA,"BLDU",NA,NA,NA,NA,NA,NA,21.49,"METAR KAMA 160353Z 33021KT 10SM BLDU BKN075 OVC095 01/M06 A3009 RMK AO2 PK WND 33027/0300 SLP185 T00111056"
"25834","AMA","2003-12-16 04:53:00",-101.7059,35.2194,33.98,17.06,49.51,350,19,NA,30.11,1019.2,10,26,"OVC","   ","   ",NA,8000,NA,NA,NA,"BLDU",NA,NA,NA,NA,NA,NA,22.06,"METAR KAMA 160453Z 35019G26KT 10SM BLDU OVC080 01/M08 A3011 RMK AO2 PK WND 35028/0440 SLP192 T00111083 PWINO FZRANO $"
"27401","AMA","2004-02-19 18:53:00",-101.7059,35.2194,69.98,12.02,10.51,250,33,NA,29.53,996,3,40,"BKN","   ","   ",NA,900,NA,NA,NA,"BLDU",NA,NA,NA,40,250,"2004-02-19 18:52",69.98,"METAR KAMA 191853Z 25033G40KT 3SM BLDU BKN009 21/M11 A2953 RMK AO2 PK WND 25040/1852 SLP960 T02111111 $"
"27402","AMA","2004-02-19 19:53:00",-101.7059,35.2194,66.92,12.92,12.15,250,26,NA,29.49,995.2,6,34,"CLR","   ","   ",NA,NA,NA,NA,NA,"BLDU",NA,NA,NA,43,250,"2004-02-19 19:16",66.92,"METAR KAMA 191953Z 25026G34KT 6SM BLDU CLR 19/M11 A2949 RMK AO2 PK WND 25043/1916 SLP952 T01941106 $"
"38640","AMA","2005-06-03 09:53:00",-101.7059,35.2194,69.98,44.96,40.59,230,23,NA,29.69,999.4,8,38,"OVC","   ","   ",NA,15000,NA,NA,NA,"BLDU",NA,NA,NA,38,240,"2005-06-03 09:47",69.98,"METAR KAMA 030953Z 23023G38KT 8SM BLDU OVC150 21/07 A2969 RMK AO2 PK WND 24038/0947 SLP994 SHRA DSNT S-W T02110072"
"38641","AMA","2005-06-03 10:53:00",-101.7059,35.2194,71.96,44.06,36.67,200,27,NA,29.67,998.3,9,44,"BKN","OVC","   ",NA,10000,15000,NA,NA,"-RA BLDU",NA,NA,NA,44,190,"2005-06-03 10:50",70.58,"METAR KAMA 031053Z 20027G44KT 9SM -RA BLDU BKN100 OVC150 22/07 A2967 RMK AO2 PK WND 19044/1050 RAB49 SLP983 SHRA DSNT SE-S-W P0000 T02220067"
"43723","AMA","2006-01-01 16:53:00",-101.7059,35.2194,57.02,21.92,25.41,270,33,NA,29.44,994.6,2,43,"FEW","   ","   ",NA,20000,NA,NA,NA,"BLDU",NA,NA,NA,44,270,"2006-01-01 16:43",57.02,"METAR KAMA 011653Z 27033G43KT 2SM BLDU FEW200 14/M06 A2944 RMK AO2 PK WND 27044/1643 VIS 1 1/4V2 1/2 SLP946 T01391056"
"43724","AMA","2006-01-01 17:53:00",-101.7059,35.2194,57.92,19.04,21.76,280,29,NA,29.42,993.4,6,46,"FEW","   ","   ",NA,20000,NA,NA,NA,"BLDU",NA,NA,NA,46,280,"2006-01-01 17:53",57.92,"METAR KAMA 011753Z 28029G46KT 6SM BLDU FEW200 14/M07 A2942 RMK AO2 PK WND 28046/1753 SLP934 T01441072 10144 20094 58012"
"44562","AMA","2006-02-05 23:53:00",-101.7059,35.2194,48.02,17.96,29.88,360,26,NA,29.88,1010.9,5,31,"FEW","SCT","   ",NA,10000,25000,NA,NA,"BLDU",NA,NA,NA,NA,NA,NA,39.34,"METAR KAMA 052353Z COR 36026G31KT 5SM BLDU FEW100 SCT250 09/M08 A2988 RMK AO2 PK WND 01033/2339 SLP109 T00891078 10200 20089 53046"
"44563","AMA","2006-02-06 00:53:00",-101.7059,35.2194,44.06,19.04,36.36,10,21,NA,29.94,1013,6,28,"SCT","   ","   ",NA,20000,NA,NA,NA,"BLDU",NA,NA,NA,32,360,"2006-02-06 00:21",34.94,"METAR KAMA 060053Z 01021G28KT 6SM BLDU SCT200 07/M07 A2994 RMK AO2 PK WND 36032/0021 SLP130 T00671072"
"44564","AMA","2006-02-06 01:53:00",-101.7059,35.2194,41,21.92,46.23,10,20,NA,29.97,1014.1,6,26,"FEW","   ","   ",NA,25000,NA,NA,NA,"BLDU",NA,NA,NA,28,20,"2006-02-06 01:14",31.09,"METAR KAMA 060153Z 01020G26KT 6SM BLDU FEW250 05/M06 A2997 RMK AO2 PK WND 02028/0114 SLP141 T00501056"
"45384","AMA","2006-03-12 16:53:00",-101.7059,35.2194,62.96,10.04,12.27,230,35,NA,29.68,1002.4,4,44,"SCT","   ","   ",NA,20000,NA,NA,NA,"BLDU",NA,NA,NA,44,220,"2006-03-12 16:45",62.96,"METAR KAMA 121653Z 23035G44KT 4SM BLDU SCT200 17/M12 A2968 RMK AO2 PK WND 22044/1645 SLP024 VIS LWR W-N-E T01721122"
"45385","AMA","2006-03-12 17:53:00",-101.7059,35.2194,64.94,12.02,12.5,240,31,NA,29.67,1001.9,5,44,"FEW","BKN","   ",NA,20000,25000,NA,NA,"BLDU",NA,NA,NA,46,220,"2006-03-12 16:55",64.94,"METAR KAMA 121753Z 24031G44KT 5SM BLDU FEW200 BKN250 18/M11 A2967 RMK AO2 PK WND 22046/1655 SLP019 VIS LWR W-N-NE T01831111 10183 20006 58013"
"45386","AMA","2006-03-12 18:53:00",-101.7059,35.2194,66.92,14,12.74,240,31,NA,29.66,1001,4,40,"FEW","BKN","   ",NA,20000,25000,NA,NA,"BLDU",NA,NA,NA,46,220,"2006-03-12 18:13",66.92,"METAR KAMA 121853Z 24031G40KT 4SM BLDU FEW200 BKN250 19/M10 A2966 RMK AO2 PK WND 22046/1813 SLP010 VIS LWR W-N-NE T01941100"
"45387","AMA","2006-03-12 19:53:00",-101.7059,35.2194,68,14,12.27,220,33,NA,29.61,999.2,6,40,"FEW","BKN","   ",NA,20000,25000,NA,NA,"BLDU",NA,NA,NA,42,220,"2006-03-12 19:42",68,"METAR KAMA 121953Z 22033G40KT 6SM BLDU FEW200 BKN250 20/M10 A2961 RMK AO2 PK WND 22042/1942 SLP992 VIS LWR W-N-NE T02001100"
"45388","AMA","2006-03-12 20:53:00",-101.7059,35.2194,69.08,17.06,13.51,250,28,NA,29.61,999.7,5,36,"SCT","BKN","   ",NA,20000,25000,NA,NA,"BLDU",NA,NA,NA,42,240,"2006-03-12 20:37",69.08,"METAR KAMA 122053Z 25028G36KT 5SM BLDU SCT200 BKN250 21/M08 A2961 RMK AO2 PK WND 24042/2037 SLP997 VIS LWR W-N T02061083 56017"
"45389","AMA","2006-03-12 21:53:00",-101.7059,35.2194,62.06,23,22.21,260,31,NA,29.64,1001.1,6,39,"SCT","BKN","   ",NA,20000,25000,NA,NA,"BLDU",NA,NA,NA,40,280,"2006-03-12 21:23",62.06,"METAR KAMA 122153Z 26031G39KT 6SM BLDU SCT200 BKN250 17/M05 A2964 RMK AO2 PK WND 28040/2123 SLP011 VIS LWR W T01671050"
"45390","AMA","2006-03-12 22:53:00",-101.7059,35.2194,57.92,21.02,23.68,280,22,NA,29.66,1002.7,10,30,"SCT","   ","   ",NA,25000,NA,NA,NA,"BLDU",NA,NA,NA,39,260,"2006-03-12 21:54",57.92,"METAR KAMA 122253Z 28022G30KT 10SM BLDU SCT250 14/M06 A2966 RMK AO2 PK WND 26039/2154 SLP027 T01441061"
"45811","AMA","2006-03-30 16:53:00",-101.7059,35.2194,64.04,19.94,18.2,260,32,NA,29.77,1004.1,5,41,"FEW","SCT","   ",NA,400,25000,NA,NA,"BLDU",NA,NA,NA,41,260,"2006-03-30 16:52",64.04,"METAR KAMA 301653Z 26032G41KT 5SM BLDU FEW004 SCT250 18/M07 A2977 RMK AO2 PK WND 26041/1652 SLP041 FEW004 FU T01781067"
"45812","AMA","2006-03-30 17:53:00",-101.7059,35.2194,64.94,12.92,13.01,260,28,NA,29.77,1004.2,6,40,"FEW","SCT","   ",NA,400,25000,NA,NA,"BLDU",NA,NA,NA,47,260,"2006-03-30 17:01",64.94,"METAR KAMA 301753Z 26028G40KT 6SM BLDU FEW004 SCT250 18/M11 A2977 RMK AO2 PK WND 26047/1701 SLP042 FEW004 FU T01831106 10189 20106 58004"
"45978","AMA","2006-04-06 16:53:00",-101.7059,35.2194,60.08,17.96,19.23,240,30,NA,29.6,998.6,6,39,"FEW","   ","   ",NA,8500,NA,NA,NA,"BLDU",NA,NA,NA,NA,NA,NA,60.08,"METAR KAMA 061653Z 24030G39KT 6SM BLDU FEW085 16/M08 A2960 RMK AO2 PK WND 25039/1648 SLP986 T01561078"
"45979","AMA","2006-04-06 17:53:00",-101.7059,35.2194,60.08,12.02,14.84,250,35,NA,29.57,997.5,4,44,"FEW","   ","   ",NA,6500,NA,NA,NA,"BLDU",NA,NA,NA,NA,NA,NA,60.08,"METAR KAMA 061753Z 25035G44KT 4SM BLDU FEW065 16/M11 A2957 RMK AO2 PK WND 24045/1736 SLP975 T01561111 10161 20111 58016"
"45980","AMA","2006-04-06 18:53:00",-101.7059,35.2194,60.98,12.92,14.96,260,36,NA,29.53,996.2,3,42,"FEW","   ","   ",NA,6500,NA,NA,NA,"BLDU",NA,NA,NA,NA,NA,NA,60.98,"METAR KAMA 061853Z 26036G42KT 3SM BLDU FEW065 16/M11 A2953 RMK AO2 PK WND 27044/1839 SLP962 T01611106"
"45981","AMA","2006-04-06 19:53:00",-101.7059,35.2194,62.06,14,15.09,260,35,NA,29.53,996.4,4,40,"FEW","SCT","   ",NA,300,6500,NA,NA,"BLDU FU",NA,NA,NA,NA,NA,NA,62.06,"METAR KAMA 061953Z 26035G40KT 4SM BLDU FU FEW003 SCT065 17/M10 A2953 RMK AO2 PK WND 26050/1902 SLP964 VIS2V6 FU FEW003 T01671100"
"45982","AMA","2006-04-06 20:53:00",-101.7059,35.2194,64.04,8.96,11.26,280,33,NA,29.52,995.9,5,43,"FEW","SCT","   ",NA,300,6500,NA,NA,"BLDU FU",NA,NA,NA,NA,NA,NA,64.04,"METAR KAMA 062053Z 28033G43KT 5SM BLDU FU FEW003 SCT065 18/M13 A2952 RMK AO2 PK WND 27045/2000 SLP959 FU FEW003 T01781128 56014"
"45983","AMA","2006-04-06 21:53:00",-101.7059,35.2194,66.92,8.06,9.78,260,28,NA,29.51,995.1,6,39,"FEW","SCT","SCT",NA,300,6500,24000,NA,"BLDU FU",NA,NA,NA,NA,NA,NA,66.92,"METAR KAMA 062153Z 26028G39KT 6SM BLDU FU FEW003 SCT065 SCT240 19/M13 A2951 RMK AO2 PK WND 27043/2055 SLP951 FU FEW003 T01941133"
"46002","AMA","2006-04-07 16:53:00",-101.7059,35.2194,57.02,28.94,34.01,320,28,NA,29.79,1006.2,5,36,"OVC","   ","   ",NA,9000,NA,NA,NA,"BLDU",NA,NA,NA,36,330,"2006-04-07 16:53",57.02,"METAR KAMA 071653Z 32028G36KT 5SM BLDU OVC090 14/M02 A2979 RMK AO2 PK WND 33036/1653 SLP062 T01391017"
"46003","AMA","2006-04-07 17:53:00",-101.7059,35.2194,53.06,30.02,41.05,340,29,NA,29.85,1008.5,5,38,"BKN","OVC","   ",NA,6000,8000,NA,NA,"BLDU",NA,NA,NA,43,320,"2006-04-07 16:55",53.06,"METAR KAMA 071753Z 34029G38KT 5SM BLDU BKN060 OVC080 12/M01 A2985 RMK AO2 PK WND 32043/1655 SLP085 T01171011 10156 20067 53042"
"46004","AMA","2006-04-07 18:53:00",-101.7059,35.2194,50,30.92,47.68,340,25,NA,29.89,1010.2,6,34,"BKN","BKN","OVC",NA,4600,6500,20000,NA,"BLDU",NA,NA,NA,39,330,"2006-04-07 18:05",42.18,"METAR KAMA 071853Z 34025G34KT 6SM BLDU BKN046 BKN065 OVC200 10/M01 A2989 RMK AO2 PK WND 33039/1805 SLP102 T01001006"
"46006","AMA","2006-04-07 20:53:00",-101.7059,35.2194,46.94,30.92,53.47,340,30,NA,29.94,1012.1,5,38,"BKN","OVC","   ",NA,3500,5500,NA,NA,"BLDU",NA,NA,NA,42,330,"2006-04-07 20:08",37.24,"METAR KAMA 072053Z 34030G38KT 5SM BLDU BKN035 OVC055 08/M01 A2994 RMK AO2 PK WND 33042/2008 SLP121 VIS N-NE 2 60000 T00831006 51026"
"46007","AMA","2006-04-07 21:53:00",-101.7059,35.2194,46.04,30.02,53.33,330,29,NA,29.98,1013.6,6,33,"OVC","   ","   ",NA,3300,NA,NA,NA,"BLDU",NA,NA,NA,38,340,"2006-04-07 21:28",36.16,"METAR KAMA 072153Z 33029G33KT 6SM BLDU OVC033 08/M01 A2998 RMK AO2 PK WND 34038/2128 SLP136 T00781011"
"46194","AMA","2006-04-15 18:53:00",-101.7059,35.2194,80.06,8.06,6.29,250,25,NA,29.65,998.7,10,39,"FEW","   ","   ",NA,30000,NA,NA,NA,"BLDU",NA,NA,NA,39,260,"2006-04-15 18:46",77.48,"METAR KAMA 151853Z 25025G39KT 10SM BLDU FEW300 27/M13 A2965 RMK AO2 PK WND 26039/1846 SLP987 T02671133"
"46195","AMA","2006-04-15 19:53:00",-101.7059,35.2194,80.96,6.08,5.58,250,33,NA,29.63,997.9,10,38,"CLR","   ","   ",NA,NA,NA,NA,NA,"BLDU",NA,NA,NA,45,250,"2006-04-15 18:58",77.96,"METAR KAMA 151953Z 25033G38KT 10SM BLDU CLR 27/M14 A2963 RMK AO2 PK WND 25045/1858 SLP979 T02721144"
"46196","AMA","2006-04-15 20:53:00",-101.7059,35.2194,82.94,8.06,5.72,250,32,NA,29.6,996.6,10,38,"CLR","   ","   ",NA,NA,NA,NA,NA,"BLDU",NA,NA,NA,41,270,"2006-04-15 20:08",79.36,"METAR KAMA 152053Z 25032G38KT 10SM BLDU CLR 28/M13 A2960 RMK AO2 PK WND 27041/2008 SLP966 T02831133 56027"
"47189","AMA","2006-05-27 07:53:00",-101.7059,35.2194,77,39.02,25.49,190,41,NA,29.68,998.4,6,51,"FEW","BKN","   ",NA,12000,20000,NA,NA,"BLDU",NA,NA,NA,51,190,"2006-05-27 07:48",75.6,"METAR KAMA 270753Z 19041G51KT 6SM BLDU FEW120 BKN200 25/04 A2968 RMK AO2 PK WND 19051/0748 SLP984 T02500039"
"51287","AMA","2006-11-14 22:53:00",-101.7059,35.2194,68,24.98,19.62,290,33,NA,29.42,993.6,6,44,"FEW","SCT","   ",NA,10000,15000,NA,NA,"BLDU",NA,NA,NA,47,290,"2006-11-14 22:23",68,"METAR KAMA 142253Z 29033G44KT 6SM BLDU FEW100 SCT150 20/M04 A2942 RMK AO2 PK WND 29047/2223 SLP936 T02001039"
"51289","AMA","2006-11-15 00:53:00",-101.7059,35.2194,55.04,28.94,36.54,340,31,NA,29.6,1001.1,2.5,45,"SCT","OVC","   ",NA,2200,4300,NA,NA,"BLDU",NA,NA,NA,51,320,"2006-11-15 00:11",55.04,"METAR KAMA 150053Z 34031G45KT 2 1/2SM BLDU SCT022 OVC043 13/M02 A2960 RMK AO2 PK WND 32051/0011 WSHFT 0007 SFC VIS 4 RAB19E37 SLP011 VC SHRA ALQDS P0000 T01281017"
"51293","AMA","2006-11-15 04:53:00",-101.7059,35.2194,46.04,24.08,41.74,340,27,NA,29.83,1007.4,6,41,"OVC","   ","   ",NA,2200,NA,NA,NA,"BLDU",NA,NA,NA,44,330,"2006-11-15 04:21",36.48,"METAR KAMA 150453Z 34027G41KT 6SM BLDU OVC022 08/M04 A2983 RMK AO2 PK WND 33044/0421 SLP074 T00781044"
"51652","AMA","2006-11-30 04:53:00",-101.7059,35.2194,19.04,15.08,84.27,340,17,NA,30.11,1022.4,1.75,25,"BKN","OVC","   ",NA,2300,5500,NA,NA,"-TSSN BR",NA,NA,NA,NA,NA,NA,3.1,"METAR KAMA 300453Z 34017G25KT 1 3/4SM -TSSN BR BKN023CB OVC055 M07/M09 A3011 RMK AO2 TSB47 SLP224 OCNL LTGICCG TS SW-NW MOV NE P0000 T10721094 $"
"53725","AMA","2007-02-24 18:53:00",-101.7059,35.2194,39.02,24.98,56.77,320,27,NA,29.61,1001.3,2,43,"OVC","   ","   ",NA,3500,NA,NA,NA,"HZ BLDU",NA,NA,NA,NA,NA,NA,26.91,"METAR KAMA 241853Z 32027G43KT 2SM HZ BLDU OVC035 04/M04 A2961 RMK AO2 PK WND 31050/1826 SFC VIS 4 SLP013 T00391039"
"53726","AMA","2007-02-24 19:53:00",-101.7059,35.2194,39.92,24.08,52.79,330,30,NA,29.65,1002.7,1,44,"FEW","OVC","   ",NA,1300,4000,NA,NA,"HZ BLDU",NA,NA,NA,NA,NA,NA,27.59,"METAR KAMA 241953Z 33030G44KT 1SM HZ BLDU FEW013 OVC040 04/M04 A2965 RMK AO2 PK WND 33054/1933 SLP027 T00441044 $"
"53727","AMA","2007-02-24 20:53:00",-101.7059,35.2194,42.08,23,46.41,330,37,NA,29.68,1004.2,2,47,"BKN","OVC","   ",NA,4100,7500,NA,NA,"HZ BLDU",NA,NA,NA,NA,NA,NA,29.49,"METAR KAMA 242053Z 33037G47KT 2SM HZ BLDU BKN041 OVC075 06/M05 A2968 RMK AO2 PK WND 32056/2023 SFC VIS 3 SLP042 T00561050 51044 $"
"53728","AMA","2007-02-24 21:53:00",-101.7059,35.2194,42.08,23,46.41,330,37,NA,29.71,1005.3,2,49,"SCT","OVC","   ",NA,1600,4600,NA,NA,"HZ BLDU",NA,NA,NA,NA,NA,NA,29.49,"METAR KAMA 242153Z 33037G49KT 2SM HZ BLDU SCT016 OVC046 06/M05 A2971 RMK AO2 PK WND 32055/2137 SFC VIS 3 SLP053 T00561050 $"
"53729","AMA","2007-02-24 22:53:00",-101.7059,35.2194,41,24.98,52.56,330,33,NA,29.75,1007,2,43,"FEW","BKN","OVC",NA,3500,5500,7500,NA,"HZ BLDU",NA,NA,NA,NA,NA,NA,28.58,"METAR KAMA 242253Z 33033G43KT 2SM HZ BLDU FEW035 BKN055 OVC075 05/M04 A2975 RMK AO2 PK WND 33051/2157 SFC VIS 3 SLP070 T00501039"
"53730","AMA","2007-02-24 23:53:00",-101.7059,35.2194,41,19.94,42.51,330,27,NA,29.79,1008.2,7,38,"FEW","SCT","   ",NA,2000,3900,NA,NA,"BLDU",NA,NA,NA,NA,NA,NA,29.61,"METAR KAMA 242353Z COR 33027G38KT 7SM BLDU FEW020 SCT039 05/M07 A2979 RMK AO2 PK WND 32045/2255 SLP082 P0000 60000 T00501067 10067 20033 51023 $"
"61700","AMA","2008-01-28 17:53:00",-101.7059,35.2194,68,37.94,33.12,250,30,NA,29.67,1001.3,4,47,"FEW","SCT","SCT",NA,9000,15000,22000,NA,"HZ BLDU",NA,NA,NA,47,250,"2008-01-28 17:46",68,"METAR KAMA 281753Z 25030G47KT 4SM HZ BLDU FEW090 SCT150 SCT220 20/03 A2967 RMK AO2 PK WND 25047/1746 SLP013 T02000033 10206 20111 58001"
"61701","AMA","2008-01-28 20:53:00",-101.7059,35.2194,73.04,32,22.03,250,28,NA,29.58,998,6,39,"SCT","BKN","BKN",NA,8000,15000,22000,NA,"HZ BLDU",NA,NA,NA,44,250,"2008-01-28 20:02",71.08,"METAR KAMA 282053Z 25028G39KT 6SM HZ BLDU SCT080 BKN150 BKN220 23/00 A2958 RMK AO2 PK WND 25044/2002 SLP980 T02280000 56028"
"61702","AMA","2008-01-28 21:53:00",-101.7059,35.2194,69.98,28.04,20.8,240,30,NA,29.57,997.9,7,40,"FEW","SCT","BKN",NA,8000,14000,20000,NA,"BLDU",NA,NA,NA,46,250,"2008-01-28 21:11",69.98,"METAR KAMA 282153Z 24030G40KT 7SM BLDU FEW080 SCT140 BKN200 21/M02 A2957 RMK AO2 PK WND 25046/2111 SLP979 T02111022"
"61718","AMA","2008-01-29 13:53:00",-101.7059,35.2194,33.08,-7.06,17,340,27,NA,29.79,1007.7,4,51,"SCT","BKN","   ",NA,8000,14000,NA,NA,"BLDU",NA,NA,NA,51,310,"2008-01-29 13:48",18.82,"METAR KAMA 291353Z 34027G51KT 4SM BLDU SCT080 BKN140 01/M22 A2979 RMK AO2 PK WND 31051/1348 PRESRR SLP077 T00061217 $"
"62497","AMA","2008-03-03 02:53:00",-101.7059,35.2194,35.06,24.98,66.36,360,36,NA,29.86,1010.1,4,48,"OVC","   ","   ",NA,1900,NA,NA,NA,"BLDU",NA,NA,NA,NA,NA,NA,19.82,"METAR KAMA 030253Z 36036G48KT 4SM BLDU OVC019 02/M04 A2986 RMK AO2 PK WND 36048/0253 SLP101 T00171039 51043 $"
"63174","AMA","2008-03-31 16:53:00",-101.7059,35.2194,71.06,12.02,10.13,260,27,NA,29.82,1006.7,6,36,"FEW","   ","   ",NA,24000,NA,NA,NA,"BLDU",NA,NA,NA,39,270,"2008-03-31 16:24",68.34,"METAR KAMA 311653Z 26027G36KT 6SM BLDU FEW240 22/M11 A2982 RMK AO2 PK WND 27039/1624 SLP067 T02171111"
"63175","AMA","2008-03-31 17:53:00",-101.7059,35.2194,71.96,10.04,9,240,27,NA,29.81,1006.5,6,39,"FEW","   ","   ",NA,24000,NA,NA,NA,"BLDU",NA,NA,NA,40,240,"2008-03-31 17:21",69.28,"METAR KAMA 311753Z 24027G39KT 6SM BLDU FEW240 22/M12 A2981 RMK AO2 PK WND 24040/1721 SLP065 T02221122 10222 20067 58001"
"63406","AMA","2008-04-10 17:53:00",-101.7059,35.2194,60.08,19.04,20.14,240,35,NA,29.4,993,4,49,"FEW","   ","   ",NA,1700,NA,NA,NA,"BLDU",NA,NA,NA,NA,NA,NA,60.08,"METAR KAMA 101753Z 24035G49KT 4SM BLDU FEW017 16/M07 A2940 RMK AO2 PK WND 23049/1750 SLP930 T01561072 10156 20050 56002 $"
"63742","AMA","2008-04-25 08:53:00",-101.7059,35.2194,51.98,39.02,61.15,350,22,NA,29.88,1007.1,8,34,"CLR","   ","   ",NA,NA,NA,NA,NA,"BLDU",NA,NA,NA,34,340,"2008-04-25 08:48",51.98,"METAR KAMA 250853Z 35022G34KT 8SM BLDU CLR 11/04 A2988 RMK AO2 PK WND 34034/0848 SLP071 T01110039 53048"
"63743","AMA","2008-04-25 09:53:00",-101.7059,35.2194,48.92,39.92,70.95,340,17,NA,29.92,1008.6,10,24,"CLR","   ","   ",NA,NA,NA,NA,NA,"BLDU",NA,NA,NA,33,340,"2008-04-25 08:54",42.24,"METAR KAMA 250953Z 34017G24KT 10SM BLDU CLR 09/04 A2992 RMK AO2 PK WND 34033/0854 SLP086 T00940044"
"64556","AMA","2008-05-29 22:53:00",-101.7059,35.2194,87.08,46.94,24.9,170,24,NA,29.93,1007.8,5,38,"FEW","OVC","   ",NA,18000,25000,NA,NA,"BLDU",NA,NA,NA,38,160,"2008-05-29 22:46",84.14,"METAR KAMA 292253Z 17024G38KT 5SM BLDU FEW180 OVC250 31/08 A2993 RMK AO2 PK WND 16038/2246 SLP078 OCNL LTGICCG CB DSNT NW MOV NE T03060083"
"64700","AMA","2008-06-04 22:53:00",-101.7059,35.2194,98.06,14,4.64,200,29,NA,29.41,989.5,4,41,"CLR","   ","   ",NA,NA,NA,NA,NA,"BLDU",NA,NA,NA,49,220,"2008-06-04 22:17",90.74,"METAR KAMA 042253Z 20029G41KT 4SM BLDU CLR 37/M10 A2941 RMK AO2 PK WND 22049/2217 SLP895 T03671100"
"64701","AMA","2008-06-04 23:53:00",-101.7059,35.2194,96.08,12.02,4.51,200,32,NA,29.4,989.2,4,45,"FEW","   ","   ",NA,25000,NA,NA,NA,"BLDU",NA,NA,NA,46,190,"2008-06-04 23:17",89,"METAR KAMA 042353Z 20032G45KT 4SM BLDU FEW250 36/M11 A2940 RMK AO2 PK WND 19046/2317 SLP892 T03561111 10378 20350 56020"
"64702","AMA","2008-06-05 00:53:00",-101.7059,35.2194,93.92,14,5.27,200,32,NA,29.4,989.2,6,40,"FEW","SCT","   ",NA,100,25000,NA,NA,"BLDU",NA,NA,NA,NA,NA,NA,87.42,"METAR KAMA 050053Z 20032G40KT 6SM BLDU FEW001 SCT250 34/M10 A2940 RMK AO2 PK WND 20046/0007 SLP892 FU FEW001 E-SE-S T03441100"
"64771","AMA","2008-06-07 21:53:00",-101.7059,35.2194,96.08,51.08,21.94,190,27,NA,29.76,1001.2,10,37,"SCT","SCT","   ",NA,5000,9500,NA,NA,"DU",NA,NA,NA,38,180,"2008-06-07 21:38",93.21,"METAR KAMA 072153Z 19027G37KT 10SM DU SCT050 SCT095 36/11 A2976 RMK AO2 PK WND 18038/2138 SLP012 T03560106"
"64772","AMA","2008-06-07 22:53:00",-101.7059,35.2194,95,53.06,24.4,170,29,NA,29.75,1000.8,10,37,"SCT","SCT","   ",NA,8000,10000,NA,NA,"DU",NA,NA,NA,39,200,"2008-06-07 22:22",92.57,"METAR KAMA 072253Z 17029G37KT 10SM DU SCT080 SCT100 35/12 A2975 RMK AO2 PK WND 20039/2222 SLP008 T03500117"
"64773","AMA","2008-06-07 23:53:00",-101.7059,35.2194,93.92,55.04,27.12,180,27,NA,29.73,1000.2,10,35,"SCT","SCT","   ",NA,10000,12000,NA,NA,"DU",NA,NA,NA,37,170,"2008-06-07 23:32",91.99,"METAR KAMA 072353Z 18027G35KT 10SM DU SCT100 SCT120 34/13 A2973 RMK AO2 PK WND 17037/2332 SLP002 T03440128 10361 20311 56016"
"64774","AMA","2008-06-08 00:53:00",-101.7059,35.2194,91.04,55.94,30.65,170,29,NA,29.73,1000.3,9,39,"SCT","   ","   ",NA,12000,NA,NA,NA,"BLDU",NA,NA,NA,41,170,"2008-06-08 00:43",89.32,"METAR KAMA 080053Z 17029G39KT 9SM BLDU SCT120 33/13 A2973 RMK AO2 PK WND 17041/0043 SLP003 T03280133"
"64775","AMA","2008-06-08 01:53:00",-101.7059,35.2194,87.98,55.04,32.67,160,33,NA,29.74,1000.5,4,41,"SCT","BKN","   ",NA,15000,20000,NA,NA,"HZ BLDU",NA,NA,NA,41,160,"2008-06-08 01:52",86.19,"METAR KAMA 080153Z 16033G41KT 4SM HZ BLDU SCT150 BKN200 31/13 A2974 RMK AO2 PK WND 16041/0152 SLP005 T03110128"
"64776","AMA","2008-06-08 02:53:00",-101.7059,35.2194,86,55.94,35.95,170,28,NA,29.77,1001.7,6,44,"BKN","BKN","   ",NA,14000,19000,NA,NA,"HZ BLDU",NA,NA,NA,44,170,"2008-06-08 02:44",84.67,"METAR KAMA 080253Z 17028G44KT 6SM HZ BLDU BKN140 BKN190 30/13 A2977 RMK AO2 PK WND 17044/0244 SLP017 T03000133 53014"
"64777","AMA","2008-06-08 03:53:00",-101.7059,35.2194,82.94,57.02,41.25,170,28,NA,29.78,1002,7,35,"FEW","   ","   ",NA,20000,NA,NA,NA,"BLDU",NA,NA,NA,42,170,"2008-06-08 03:13",82.45,"METAR KAMA 080353Z 17028G35KT 7SM BLDU FEW200 28/14 A2978 RMK AO2 PK WND 17042/0313 SLP020 FRQ LTGICCC CB DSNT NW-N MOV NE T02830139 $"
"64778","AMA","2008-06-08 04:53:00",-101.7059,35.2194,82.04,57.92,43.87,160,27,NA,29.78,1001.9,7,39,"FEW","   ","   ",NA,20000,NA,NA,NA,"BLDU",NA,NA,NA,40,170,"2008-06-08 04:11",81.96,"METAR KAMA 080453Z 16027G39KT 7SM BLDU FEW200 28/14 A2978 RMK AO2 PK WND 17040/0411 SLP019 CB MOVD NE T02780144 $"
"64779","AMA","2008-06-08 05:53:00",-101.7059,35.2194,80.06,57.92,46.79,170,28,NA,29.8,1002.5,8,42,"CLR","   ","   ",NA,NA,NA,NA,NA,"BLDU",NA,NA,NA,42,170,"2008-06-08 05:48",80.56,"METAR KAMA 080553Z 17028G42KT 8SM BLDU CLR 27/14 A2980 RMK AO2 PK WND 17042/0548 SLP025 T02670144 10344 20267 403610211 53009 $"
"64780","AMA","2008-06-08 06:53:00",-101.7059,35.2194,78.08,57.92,49.94,180,24,NA,29.8,1002.4,7,31,"FEW","   ","   ",NA,18000,NA,NA,NA,"BLDU",NA,NA,NA,43,160,"2008-06-08 06:01",78.08,"METAR KAMA 080653Z 18024G31KT 7SM BLDU FEW180 26/14 A2980 RMK AO2 PK WND 16043/0601 SLP024 T02560144 $"
"64781","AMA","2008-06-08 07:53:00",-101.7059,35.2194,75.92,59,55.77,180,18,NA,29.78,1001.7,7,25,"FEW","   ","   ",NA,20000,NA,NA,NA,"BLDU",NA,NA,NA,32,170,"2008-06-08 07:11",75.92,"METAR KAMA 080753Z 18018G25KT 7SM BLDU FEW200 24/15 A2978 RMK AO2 PK WND 17032/0711 SLP017 T02440150 $"
"64782","AMA","2008-06-08 08:53:00",-101.7059,35.2194,75.02,59,57.47,180,23,NA,29.78,1001.7,7,29,"SCT","   ","   ",NA,20000,NA,NA,NA,"BLDU",NA,NA,NA,31,180,"2008-06-08 08:38",75.02,"METAR KAMA 080853Z 18023G29KT 7SM BLDU SCT200 24/15 A2978 RMK AO2 PK WND 18031/0838 SLP017 T02390150 58005 $"
"64783","AMA","2008-06-08 09:53:00",-101.7059,35.2194,73.94,59,59.58,190,19,NA,29.78,1001.8,6,26,"FEW","   ","   ",NA,18000,NA,NA,NA,"HZ BLDU",NA,NA,NA,30,180,"2008-06-08 08:54",73.94,"METAR KAMA 080953Z 19019G26KT 6SM HZ BLDU FEW180 23/15 A2978 RMK AO2 PK WND 18030/0854 SLP018 T02330150 $"
"64784","AMA","2008-06-08 10:53:00",-101.7059,35.2194,73.04,59,61.41,200,19,NA,29.79,1002.4,7,28,"FEW","   ","   ",NA,18000,NA,NA,NA,"BLDU",NA,NA,NA,28,200,"2008-06-08 10:47",73.04,"METAR KAMA 081053Z 20019G28KT 7SM BLDU FEW180 23/15 A2979 RMK AO2 PK WND 20028/1047 SLP024 T02280150 $"
"64865","AMA","2008-06-11 20:53:00",-101.7059,35.2194,100.94,33.98,9.81,220,26,NA,29.63,996.3,4,40,"FEW","   ","   ",NA,13000,NA,NA,NA,"BLDU",NA,NA,NA,40,220,"2008-06-11 20:45",94.96,"METAR KAMA 112053Z 22026G40KT 4SM BLDU FEW130 38/01 A2963 RMK AO2 PK WND 22040/2045 SLP963 T03830011 57027"
"64867","AMA","2008-06-11 22:53:00",-101.7059,35.2194,102.02,30.02,8.09,220,25,NA,29.6,995.4,6,40,"SCT","   ","   ",NA,13000,NA,NA,NA,"BLDU",NA,NA,NA,40,210,"2008-06-11 22:53",95.33,"METAR KAMA 112253Z 22025G40KT 6SM BLDU SCT130 39/M01 A2960 RMK AO2 PK WND 21040/2253 SLP954 VIS W-NW 1 T03891011"
"64868","AMA","2008-06-11 23:53:00",-101.7059,35.2194,100.04,28.94,8.22,230,24,NA,29.59,995.1,6,34,"BKN","   ","   ",NA,15000,NA,NA,NA,"BLDU",NA,NA,NA,35,230,"2008-06-11 23:00",93.52,"METAR KAMA 112353Z 23024G34KT 6SM BLDU BKN150 38/M02 A2959 RMK AO2 PK WND 23035/2300 SLP951 T03781017 10389 20344 56013"
"65176","AMA","2008-06-25 01:53:00",-101.7059,35.2194,71.6,51.8,49.64,280,33,NA,30.11,1014.8,6,46,"BKN","BKN","OVC",NA,7500,9500,18000,NA,"TSRA BLDU SQ",NA,NA,NA,46,280,"2008-06-25 00:56",71.6,"METAR KAMA 250153Z 28033G46KT 6SM TSRA BLDU SQ BKN075CB BKN095 OVC180 22/11 A3011 RMK PK WND 28046/0156 TSB41 SLP148 FRQ LTGICCG TS OHD MOV E"
"69237","AMA","2008-12-13 20:53:00",-101.7059,35.2194,66.92,21.02,17.24,230,20,NA,29.49,995.6,10,35,"FEW","   ","   ",NA,25000,NA,NA,NA,"BLDU",NA,NA,NA,37,220,"2008-12-13 20:42",66.92,"METAR KAMA 132053Z 23020G35KT 10SM BLDU FEW250 19/M06 A2949 RMK AO2 PK WND 22037/2042 SLP956 T01941061 56028"
"69258","AMA","2008-12-14 17:53:00",-101.7059,35.2194,62.06,28.94,28.41,250,19,NA,29.6,999.3,10,29,"FEW","   ","   ",NA,1000,NA,NA,NA,"BLDU",NA,NA,NA,35,240,"2008-12-14 17:19",62.06,"METAR KAMA 141753Z 25019G29KT 10SM BLDU FEW010 17/M02 A2960 RMK AO2 PK WND 24035/1719 SLP993 T01671017 10167 20072 51010 $"
"69359","AMA","2008-12-18 23:53:00",-101.7059,35.2194,57.02,35.96,45.11,260,26,NA,29.82,1007.6,10,38,"BKN","   ","   ",NA,8500,NA,NA,NA,"BLDU",NA,NA,NA,41,270,"2008-12-18 23:20",57.02,"METAR KAMA 182353Z 26026G38KT 10SM BLDU BKN085 14/02 A2982 RMK AO2 PK WND 27041/2320 WSHFT 2308 RAB23E29 SLP076 P0000 60000 T01390022 10189 20100 53018"
"69879","AMA","2009-01-09 22:53:00",-101.7059,35.2194,55.04,30.02,38.19,360,22,NA,29.91,1011.7,7,34,"CLR","   ","   ",NA,NA,NA,NA,NA,"BLDU",NA,NA,NA,NA,NA,NA,55.04,"METAR KAMA 092253Z 36022G34KT 7SM BLDU CLR 13/M01 A2991 RMK AO2 PK WND 35034/2250 SLP117 T01281011"
"69880","AMA","2009-01-09 23:53:00",-101.7059,35.2194,50,30.92,47.68,360,24,NA,29.96,1013.7,7,32,"FEW","   ","   ",NA,22000,NA,NA,NA,"BLDU",NA,NA,NA,NA,NA,NA,42.34,"METAR KAMA 092353Z 36024G32KT 7SM BLDU FEW220 10/M01 A2996 RMK AO2 PK WND 36035/2306 SLP137 T01001006 10194 20100 51051"
"71226","AMA","2009-03-07 18:53:00",-101.7059,35.2194,71.06,26.96,19.18,230,29,NA,29.78,1004.2,6,42,"FEW","BKN","BKN",NA,10000,15000,20000,NA,"BLDU",NA,NA,NA,42,230,"2009-03-07 18:51",68.77,"METAR KAMA 071853Z 23029G42KT 6SM BLDU FEW100 BKN150 BKN200 22/M03 A2978 RMK AO2 PK WND 23042/1851 SLP042 T02171028"
"71890","AMA","2009-04-04 15:53:00",-101.7059,35.2194,57.92,10.04,14.68,250,30,NA,29.6,998.8,9,41,"CLR","   ","   ",NA,NA,NA,NA,NA,"BLDU",NA,NA,NA,NA,NA,NA,57.92,"METAR KAMA 041553Z 25030G41KT 9SM BLDU CLR 14/M12 A2960 RMK AO2 PK WND 26045/1524 SLP988 T01441122"
"71891","AMA","2009-04-04 16:53:00",-101.7059,35.2194,59,8.06,12.92,250,39,NA,29.6,998.7,5,55,"SCT","   ","   ",NA,1200,NA,NA,NA,"HZ BLDU",NA,NA,NA,NA,NA,NA,59,"METAR KAMA 041653Z COR 25039G55KT 5SM HZ BLDU SCT012 15/M13 A2960 RMK AO2 PK WND 26055/1647 SLP987 SCT012 IS BLDU T01501133"
"71892","AMA","2009-04-04 17:53:00",-101.7059,35.2194,62.06,5,10.09,250,33,NA,29.6,998.5,3,47,"SCT","   ","   ",NA,1100,NA,NA,NA,"HZ BLDU",NA,NA,NA,NA,NA,NA,62.06,"METAR KAMA 041753Z COR 25033G47KT 3SM HZ BLDU SCT011 17/M15 A2960 RMK AO2 PK WND 25054/1715 SLP985 SCT011 IS BLDU T01671150 10167 20100 50000"
"71893","AMA","2009-04-04 18:53:00",-101.7059,35.2194,62.96,5,9.77,250,40,NA,29.6,998.6,5,51,"SCT","   ","   ",NA,1100,NA,NA,NA,"HZ BLDU",NA,NA,NA,NA,NA,NA,62.96,"METAR KAMA 041853Z 25040G51KT 5SM HZ BLDU SCT011 17/M15 A2960 RMK AO2 PK WND 25051/1847 SLP986 SCT011 IS BLDU T01721150 $"
"71894","AMA","2009-04-04 19:53:00",-101.7059,35.2194,64.04,5,9.41,250,37,NA,29.61,998.9,9,50,"SCT","   ","   ",NA,1100,NA,NA,NA,"BLDU",NA,NA,NA,NA,NA,NA,64.04,"METAR KAMA 041953Z 25037G50KT 9SM BLDU SCT011 18/M15 A2961 RMK AO2 PK WND 26056/1910 SLP989 T01781150 $"
"71895","AMA","2009-04-04 20:53:00",-101.7059,35.2194,64.94,3.92,8.68,250,36,NA,29.62,999.6,10,44,"SCT","SCT","   ",NA,10000,15000,NA,NA,"BLDU",NA,NA,NA,NA,NA,NA,64.94,"METAR KAMA 042053Z 25036G44KT 10SM BLDU SCT100 SCT150 18/M16 A2962 RMK AO2 PK WND 25055/2001 SLP996 T01831156 53008 $"
"72010","AMA","2009-04-09 17:53:00",-101.7059,35.2194,62.96,19.04,18.19,300,38,NA,29.55,997,5,52,"FEW","BKN","BKN",NA,4400,9500,15000,NA,"BLDU",NA,NA,NA,52,310,"2009-04-09 17:48",62.96,"METAR KAMA 091753Z 30038G52KT 5SM BLDU FEW044 BKN095 BKN150 17/M07 A2955 RMK AO2 PK WND 31052/1748 SLP970 VIRGA OHD T01721072 10194 20139 53016"
"73491","AMA","2009-06-10 22:53:00",-101.7059,35.2194,75.02,48.02,38.43,230,29,NA,29.82,1005.4,1,41,"FEW","SCT","BKN",NA,1300,2000,9500,NA,"-RA BLDU",NA,NA,NA,44,230,"2009-06-10 22:41",75.02,"METAR KAMA 102253Z 23029G41KT 1SM R22/P6000FT -RA BLDU FEW013 SCT020CB BKN095 24/09 A2982 RMK AO2 PK WND 23044/2241 RAB43 SLP054 CB OHD MOV NE P0000 T02390089 $"
"73564","AMA","2009-06-13 23:53:00",-101.7059,35.2194,84.02,62.96,49.22,130,30,NA,29.87,1006.1,8,42,"BKN","BKN","   ",NA,9000,14000,NA,NA,"BLDU",NA,NA,NA,42,130,"2009-06-13 23:50",84.99,"METAR KAMA 132353Z 13030G42KT 8SM BLDU BKN090CB BKN140 29/17 A2987 RMK AO2 PK WND 13042/2350 SLP061 CB OHD MOV NE CB DSNT E MOV NE T02890172 10317 20278 58037 $"
"73565","AMA","2009-06-14 00:53:00",-101.7059,35.2194,75.92,64.94,68.78,120,22,NA,29.94,1009.2,8,25,"FEW","SCT","SCT",NA,9000,18000,24000,NA,"DU",NA,NA,NA,41,140,"2009-06-13 23:59",75.92,"METAR KAMA 140053Z 12022G25KT 8SM DU FEW090 SCT180 SCT240 24/18 A2994 RMK AO2 PK WND 14041/2359 SLP092 CB DSNT N AND NE MOV NE T02440183 $"
"77789","AMA","2009-12-08 20:53:00",-101.7059,35.2194,48.02,17.96,29.88,260,39,NA,29.33,993.2,3,47,"FEW","   ","   ",NA,200,NA,NA,NA,"BLDU",NA,NA,NA,59,240,"2009-12-08 20:24",37.58,"METAR KAMA 082053Z 26039G47KT 3SM BLDU FEW002 09/M08 A2933 RMK AO2 PK WND 24059/2024 SLP932 60000 T00891078 55042"
"80789","AMA","2010-04-01 20:53:00",-101.7059,35.2194,82.94,15.98,8.13,200,37,NA,29.53,994.8,7,48,"FEW","   ","   ",NA,1300,NA,NA,NA,"BLDU",NA,NA,NA,48,180,"2010-04-01 20:44",79.65,"KAMA 012053Z 20037G48KT 7SM BLDU FEW013 28/M09 A2953 RMK AO2 PK WND 18048/2044 SLP948 BLDU T02831089 58028"
"81659","AMA","2010-04-30 00:53:00",-101.7059,35.2194,78.98,26.06,14.18,200,25,NA,29.27,986.2,10,34,"CLR","   ","   ",NA,NA,NA,NA,NA,"BLDU",NA,NA,NA,NA,NA,NA,77.24,"KAMA 300053Z 20025G34KT 10SM BLDU CLR 26/M03 A2927 RMK AO2 PK WND 21037/0019 SLP862 T02611033"
"81660","AMA","2010-04-30 01:53:00",-101.7059,35.2194,75.02,28.04,17.54,220,18,NA,29.29,987,10,24,"CLR","   ","   ",NA,NA,NA,NA,NA,"BLDU",NA,NA,NA,NA,NA,NA,73.05,"KAMA 300153Z 22018G24KT 10SM BLDU CLR 24/M02 A2929 RMK AO2 PK WND 20033/0115 SLP870 T02391022"
"81661","AMA","2010-04-30 02:53:00",-101.7059,35.2194,75.02,26.96,16.78,220,18,NA,29.32,987.5,5,23,"CLR","   ","   ",NA,NA,NA,NA,NA,"HZ BLDU",NA,NA,NA,NA,NA,NA,73.01,"KAMA 300253Z 22018G23KT 5SM HZ BLDU CLR 24/M03 A2932 RMK AO2 PK WND 21028/0207 SLP875 T02391028 53017"
"81662","AMA","2010-04-30 03:26:00",-101.7059,35.2194,69.8,30.2,22.86,300,22,NA,29.38,NA,9,34,"CLR","   ","   ",NA,NA,NA,NA,NA,"BLDU",NA,NA,NA,NA,NA,NA,69.8,"KAMA 300326Z 30022G34KT 9SM BLDU CLR 21/M01 A2938 RMK AO2 PK WND 29034/0317 WSHFT 0306 PRESRR"
"81663","AMA","2010-04-30 03:53:00",-101.7059,35.2194,66.92,30.02,25.06,300,19,NA,29.41,990.6,9,25,"CLR","   ","   ",NA,NA,NA,NA,NA,"BLDU",NA,NA,NA,NA,NA,NA,66.92,"KAMA 300353Z 30019G25KT 9SM BLDU CLR 19/M01 A2941 RMK AO2 PK WND 29034/0317 WSHFT 0306 SLP906 T01941011"
"81664","AMA","2010-04-30 04:53:00",-101.7059,35.2194,60.08,35.06,39.01,320,16,NA,29.44,991.9,9,21,"CLR","   ","   ",NA,NA,NA,NA,NA,"BLDU",NA,NA,NA,NA,NA,NA,60.08,"KAMA 300453Z 32016G21KT 9SM BLDU CLR 16/02 A2944 RMK AO2 PK WND 33028/0409 SLP919 T01560017"
"81665","AMA","2010-04-30 05:53:00",-101.7059,35.2194,55.94,37.04,48.95,320,6,NA,29.47,993,10,-99,"OVC","   ","   ",NA,9000,NA,NA,NA,"BLDU",NA,NA,NA,NA,NA,NA,55.94,"KAMA 300553Z AUTO 32006KT 10SM BLDU OVC090 13/03 A2947 RMK AO2 SLP930 T01330028 10283 20133 403060122 51046"
"81666","AMA","2010-04-30 06:53:00",-101.7059,35.2194,50,37.94,63.08,300,6,NA,29.53,995.6,10,-99,"CLR","   ","   ",NA,NA,NA,NA,NA,"BLDU",NA,NA,NA,NA,NA,NA,47.21,"KAMA 300653Z AUTO 30006KT 10SM BLDU CLR 10/03 A2953 RMK AO2 SLP956 T01000033"
"81667","AMA","2010-04-30 07:53:00",-101.7059,35.2194,51.98,39.02,61.15,190,3,NA,29.52,995,10,-99,"OVC","   ","   ",NA,8000,NA,NA,NA,"BLDU",NA,NA,NA,NA,NA,NA,51.98,"KAMA 300753Z AUTO 19003KT 10SM BLDU OVC080 11/04 A2952 RMK AO2 SLP950 T01110039"
"81668","AMA","2010-04-30 08:53:00",-101.7059,35.2194,55.94,30.92,38.34,250,9,NA,29.52,994.6,10,15,"BKN","OVC","   ",NA,7000,10000,NA,NA,"BLDU",NA,NA,NA,NA,NA,NA,55.94,"KAMA 300853Z AUTO 25009G15KT 10SM BLDU BKN070 OVC100 13/M01 A2952 RMK AO2 SLP946 T01331006 50017"
"81669","AMA","2010-04-30 09:53:00",-101.7059,35.2194,53.96,28.94,38.01,240,13,NA,29.56,995.8,10,27,"OVC","   ","   ",NA,6500,NA,NA,NA,"BLDU",NA,NA,NA,NA,NA,NA,53.96,"KAMA 300953Z AUTO 24013G27KT 10SM BLDU OVC065 12/M02 A2956 RMK AO2 PK WND 26033/0924 RAB03E19 SLP958 P0000 T01221017"
"81940","AMA","2010-05-10 17:53:00",-101.7059,35.2194,82.04,17.06,8.77,250,36,NA,29.65,999.4,4,50,"FEW","   ","   ",NA,2700,NA,NA,NA,"BLDU",NA,NA,NA,50,260,"2010-05-10 17:51",79.1,"KAMA 101753Z 25036G50KT 4SM BLDU FEW027 28/M08 A2965 RMK AO2 PK WND 26050/1751 SLP994 T02781083 10283 20133 57014"
"81941","AMA","2010-05-10 18:53:00",-101.7059,35.2194,80.96,21.02,10.76,250,37,NA,29.68,1000.5,5,52,"SCT","SCT","   ",NA,2700,4000,NA,NA,"BLDU",NA,NA,NA,52,270,"2010-05-10 18:48",78.6,"KAMA 101853Z 25037G52KT 5SM BLDU SCT027 SCT040 27/M06 A2968 RMK AO2 PK WND 27052/1848 SLP005 T02721061"
"81942","AMA","2010-05-10 19:53:00",-101.7059,35.2194,78.08,6.98,6.39,260,31,NA,29.71,1001.9,5,50,"FEW","SCT","   ",NA,2700,3500,NA,NA,"BLDU",NA,NA,NA,56,250,"2010-05-10 19:15",75.89,"KAMA 101953Z 26031G50KT 5SM BLDU FEW027 SCT035 26/M14 A2971 RMK AO2 PK WND 25056/1915 SLP019 T02561139"
"87092","AMA","2010-11-12 11:15:00",-101.7059,35.2194,32,30.2,92.97,350,18,0.03,30.2,NA,0.75,27,"VV ","   ","   ",NA,500,NA,NA,NA,"TSSN",NA,NA,NA,28,350,"2010-11-12 11:03",19.75,"KAMA 121115Z 35018G27KT 3/4SM R04/4000V5500FT TSSN VV005 00/M01 A3020 RMK AO2 PK WND 35028/1103 TSB1058E13B15RAE15SNB15 P0003"
"87093","AMA","2010-11-12 11:27:00",-101.7059,35.2194,32,32,100,340,15,0.07,30.23,NA,1,21,"VV ","   ","   ",NA,500,NA,NA,NA,"-TSSN",NA,NA,NA,28,350,"2010-11-12 11:03",20.78,"KAMA 121127Z 34015G21KT 1SM R04/6000VP6000FT -TSSN VV005 00/00 A3023 RMK AO2 PK WND 35028/1103 TSB1058E13B15RAE15SNB15 PRESRR OCNL LTGICCG NE AND SE P0007"
"87094","AMA","2010-11-12 11:37:00",-101.7059,35.2194,32,30.2,92.97,330,17,0.09,30.24,NA,1,23,"VV ","   ","   ",NA,600,NA,NA,NA,"-TSSN BR",NA,NA,NA,28,350,"2010-11-12 11:03",20.08,"KAMA 121137Z 33017G23KT 1SM R04/5000VP6000FT -TSSN BR VV006 00/M01 A3024 RMK AO2 PK WND 35028/1103 TSB1058E13B15RAE15SNB15 OCNL LTGICCG NE AND SE P0009"
"87095","AMA","2010-11-12 11:47:00",-101.7059,35.2194,32,30.2,92.97,330,18,0.1,30.23,NA,0.75,22,"VV ","   ","   ",NA,500,NA,NA,NA,"-TSSN BR",NA,NA,NA,28,350,"2010-11-12 11:03",19.75,"KAMA 121147Z 33018G22KT 3/4SM R04/4500V6000FT -TSSN BR VV005 00/M01 A3023 RMK AO2 PK WND 35028/1103 TSB1058E13B15RAE15SNB15 OCNL LTGICCG NE AND SE P0010"
"87096","AMA","2010-11-12 11:53:00",-101.7059,35.2194,32,30.92,95.73,320,17,0.11,30.23,1023,0.25,-99,"VV ","   ","   ",NA,600,NA,NA,NA,"-TSSN BR",NA,NA,NA,28,350,"2010-11-12 11:03",20.08,"KAMA 121153Z 32017KT 1/4SM R04/4000V5500FT -TSSN BR VV006 00/M01 A3023 RMK AO2 PK WND 35028/1103 SFC VIS 3/4 TSB1058E13B15RAE15SNB15 SLP230 OCNL LTGICCG NE AND SE P0011 60076 70236 T00001006 10067 20000 5102"
"87097","AMA","2010-11-12 12:11:00",-101.7059,35.2194,32,30.2,92.97,320,15,0.02,30.26,NA,0.25,24,"VV ","   ","   ",NA,500,NA,NA,NA,"+TSSN",NA,NA,NA,NA,NA,NA,20.78,"KAMA 121211Z 32015G24KT 1/4SM R04/4000V5500FT +TSSN VV005 00/M01 A3026 RMK AO2 PRESRR OCNL LTGICCG ALQDS P0002 $"
"87098","AMA","2010-11-12 12:22:00",-101.7059,35.2194,32,32,100,350,18,0.03,30.25,NA,0.25,22,"VV ","   ","   ",NA,600,NA,NA,NA,"TSSN",NA,NA,NA,NA,NA,NA,19.75,"KAMA 121222Z 35018G22KT 1/4SM R04/4000VP6000FT TSSN VV006 00/00 A3025 RMK AO2 SFC VIS 1/2 FRQ LTGICCG ALQDS P0003 $"
"87099","AMA","2010-11-12 12:32:00",-101.7059,35.2194,32,30.2,92.97,350,17,0.21,30.21,NA,2,27,"OVC","   ","   ",NA,1600,NA,NA,NA,"-TSSN BR",NA,NA,NA,27,10,"2010-11-12 12:25",20.08,"KAMA 121232Z 35017G27KT 2SM -TSSN BR OVC016 00/M01 A3021 RMK AO2 PK WND 01027/1225 FRQ LTGICCG ALQDS P0021 $"
"87100","AMA","2010-11-12 12:40:00",-101.7059,35.2194,32,30.2,92.97,340,19,0.27,30.21,NA,2,-99,"FEW","OVC","   ",NA,400,1600,NA,NA,"-TSSN BR",NA,NA,NA,27,10,"2010-11-12 12:25",19.44,"KAMA 121240Z 34019KT 2SM R04/6000VP6000FT -TSSN BR FEW004 OVC016 00/M01 A3021 RMK AO2 PK WND 01027/1225 FRQ LTGICCG E-SE P0027 $"
"87101","AMA","2010-11-12 12:43:00",-101.7059,35.2194,32,30.2,92.97,350,21,0.28,30.21,NA,0.5,26,"FEW","OVC","   ",NA,400,1400,NA,NA,"-TSSN BR",NA,NA,NA,27,10,"2010-11-12 12:25",18.85,"KAMA 121243Z 35021G26KT 1/2SM R04/5000VP6000FT -TSSN BR FEW004 OVC014 00/M01 A3021 RMK AO2 PK WND 01027/1225 SFC VIS 2 FRQ LTGICCG E-SE P0028 $"
"88901","AMA","2011-01-17 21:45:00",-101.7059,35.2194,66.2,30.2,25.88,10,30,NA,29.63,NA,4,35,"FEW","   ","   ",NA,700,NA,NA,NA,"BLDU",NA,NA,NA,35,10,"2011-01-17 21:43",66.2,"KAMA 172145Z 01030G35KT 4SM BLDU FEW007 19/M01 A2963 RMK AO2 PK WND 01035/2143"
"88902","AMA","2011-01-17 21:53:00",-101.7059,35.2194,62.06,32,32.17,20,27,NA,29.64,1002,3,36,"FEW","   ","   ",NA,1300,NA,NA,NA,"BLDU",NA,NA,NA,36,10,"2011-01-17 21:47",62.06,"KAMA 172153Z 02027G36KT 3SM BLDU FEW013 17/00 A2964 RMK AO2 PK WND 01036/2147 PRESRR SLP020 T01670000"
"90063","AMA","2011-02-27 18:58:00",-101.7059,35.2194,73.4,3.2,6.28,230,34,NA,29.49,NA,2.5,45,"CLR","   ","   ",NA,NA,NA,NA,NA,"BLDU",NA,NA,NA,45,220,"2011-02-27 18:54",70.74,"KAMA 271858Z 23034G45KT 2 1/2SM BLDU CLR 23/M16 A2949 RMK AO2 PK WND 22045/1854"
"90064","AMA","2011-02-27 19:06:00",-101.7059,35.2194,73.4,1.4,5.78,230,31,NA,29.48,NA,3,42,"CLR","   ","   ",NA,NA,NA,NA,NA,"BLDU",NA,NA,NA,45,220,"2011-02-27 18:54",70.71,"KAMA 271906Z 23031G42KT 3SM BLDU CLR 23/M17 A2948 RMK AO2 PK WND 22045/1854"
"90065","AMA","2011-02-27 19:38:00",-101.7059,35.2194,71.6,-0.4,5.64,230,41,NA,29.47,NA,1.5,60,"CLR","   ","   ",NA,NA,NA,NA,NA,"BLDU",NA,NA,NA,60,230,"2011-02-27 19:36",68.73,"KAMA 271938Z 23041G60KT 1 1/2SM BLDU CLR 22/M18 A2947 RMK AO2 PK WND 23060/1936"
"90066","AMA","2011-02-27 19:53:00",-101.7059,35.2194,71.06,-0.04,5.85,230,42,NA,29.46,994.6,1.5,59,"CLR","   ","   ",NA,NA,NA,NA,NA,"BLDU",NA,NA,NA,60,230,"2011-02-27 19:36",68.14,"KAMA 271953Z 23042G59KT 1 1/2SM BLDU CLR 22/M18 A2946 RMK AO2 PK WND 23060/1936 SLP946 T02171178"
"90067","AMA","2011-02-27 20:08:00",-101.7059,35.2194,69.8,1.4,6.53,220,35,NA,29.46,NA,3,51,"CLR","   ","   ",NA,NA,NA,NA,NA,"BLDU",NA,NA,NA,53,230,"2011-02-27 19:55",69.8,"KAMA 272008Z 22035G51KT 3SM BLDU CLR 21/M17 A2946 RMK AO2 PK WND 23053/1955"
"90068","AMA","2011-02-27 20:59:00",-101.7059,35.2194,69.8,6.8,8.37,240,34,NA,29.45,NA,1,50,"CLR","   ","   ",NA,NA,NA,NA,NA,"BLDU",NA,NA,NA,49,250,"2011-02-27 20:56",69.8,"KAMA 272059Z 24034G50KT 1SM R04/P6000FT BLDU CLR 21/M14 A2945 RMK AO2 PK WND 25049/2056"
"90069","AMA","2011-02-27 21:43:00",-101.7059,35.2194,66.2,8.6,10.27,240,31,NA,29.48,NA,4,47,"CLR","   ","   ",NA,NA,NA,NA,NA,"BLDU",NA,NA,NA,53,240,"2011-02-27 21:02",66.2,"KAMA 272143Z 24031G47KT 4SM BLDU CLR 19/M13 A2948 RMK AO2 PK WND 24053/2102"
"90070","AMA","2011-02-27 21:53:00",-101.7059,35.2194,66.92,10.04,10.69,240,36,NA,29.48,995.6,4,45,"CLR","   ","   ",NA,NA,NA,NA,NA,"BLDU",NA,NA,NA,53,240,"2011-02-27 21:02",66.92,"KAMA 272153Z 24036G45KT 4SM BLDU CLR 19/M12 A2948 RMK AO2 PK WND 24053/2102 SLP956 T01941122"
"90071","AMA","2011-02-27 22:32:00",-101.7059,35.2194,64.4,15.8,15.04,240,31,NA,29.5,NA,6,44,"FEW","   ","   ",NA,700,NA,NA,NA,"BLDU",NA,NA,NA,45,240,"2011-02-27 22:19",64.4,"KAMA 272232Z 24031G44KT 6SM BLDU FEW007 18/M09 A2950 RMK AO2 PK WND 24045/2219 FEW FU N"
"90072","AMA","2011-02-27 22:53:00",-101.7059,35.2194,64.04,17.06,16.09,230,30,NA,29.51,996.8,6,40,"FEW","   ","   ",NA,700,NA,NA,NA,"BLDU",NA,NA,NA,45,240,"2011-02-27 22:19",64.04,"KAMA 272253Z 23030G40KT 6SM BLDU FEW007 18/M08 A2951 RMK AO2 PK WND 24045/2219 SLP968 FEW FU N T01781083"
"90642","AMA","2011-03-22 15:53:00",-101.7059,35.2194,66.02,28.04,23.84,250,30,NA,29.75,1003.2,3,40,"SCT","   ","   ",NA,700,NA,NA,NA,"BLDU",NA,NA,NA,40,250,"2011-03-22 15:49",66.02,"KAMA 221553Z 25030G40KT 3SM BLDU SCT007 19/M02 A2975 RMK AO2 PK WND 25040/1549 SLP032 T01891022"
"90643","AMA","2011-03-22 16:07:00",-101.7059,35.2194,66.2,26.6,22.33,260,32,NA,29.75,NA,1.75,44,"SCT","   ","   ",NA,2100,NA,NA,NA,"BLDU",NA,NA,NA,44,260,"2011-03-22 16:05",66.2,"KAMA 221607Z 26032G44KT 1 3/4SM BLDU SCT021 19/M03 A2975 RMK AO2 PK WND 26044/1605 VIS 3/4V4"
"90644","AMA","2011-03-22 16:12:00",-101.7059,35.2194,66.2,26.6,22.33,260,35,NA,29.75,NA,2.5,44,"SCT","   ","   ",NA,2100,NA,NA,NA,"BLDU",NA,NA,NA,44,260,"2011-03-22 16:11",66.2,"KAMA 221612Z 26035G44KT 2 1/2SM BLDU SCT021 19/M03 A2975 RMK AO2 PK WND 26044/1611"
"90645","AMA","2011-03-22 16:27:00",-101.7059,35.2194,68,28.4,22.59,240,30,NA,29.75,NA,6,41,"SCT","   ","   ",NA,2100,NA,NA,NA,"BLDU",NA,NA,NA,45,260,"2011-03-22 16:14",68,"KAMA 221627Z 24030G41KT 6SM BLDU SCT021 20/M02 A2975 RMK AO2 PK WND 26045/1614"
"91020","AMA","2011-04-04 02:58:00",-101.7059,35.2194,64.4,30.2,27.55,360,38,NA,29.63,NA,4,46,"FEW","   ","   ",NA,2600,NA,NA,NA,"BLDU SQ",NA,NA,NA,46,360,"2011-04-04 02:58",64.4,"KAMA 040258Z 36038G46KT 4SM BLDU SQ FEW026 18/M01 A2963 RMK AO2 PK WND 36046/0258 PRESRR"
"91021","AMA","2011-04-04 03:05:00",-101.7059,35.2194,60.8,32,33.64,360,35,NA,29.65,NA,2,46,"BKN","   ","   ",NA,2200,NA,NA,NA,"BLDU",NA,NA,NA,46,360,"2011-04-04 03:00",60.8,"KAMA 040305Z 36035G46KT 2SM BLDU BKN022 16/00 A2965 RMK AO2 PK WND 36046/0300 PRESRR"
"91022","AMA","2011-04-04 03:13:00",-101.7059,35.2194,55.4,32,40.84,360,35,NA,29.67,NA,2,46,"BKN","   ","   ",NA,2000,NA,NA,NA,"BLDU",NA,NA,NA,46,360,"2011-04-04 03:07",55.4,"KAMA 040313Z 36035G46KT 2SM BLDU BKN020 13/00 A2967 RMK AO2 PK WND 36046/0307 WSHFT 0253 FROPA"
"91023","AMA","2011-04-04 03:26:00",-101.7059,35.2194,53.6,32,43.61,360,32,NA,29.7,NA,3,41,"OVC","   ","   ",NA,2400,NA,NA,NA,"BLDU",NA,NA,NA,46,360,"2011-04-04 03:07",53.6,"KAMA 040326Z 36032G41KT 3SM BLDU OVC024 12/00 A2970 RMK AO2 PK WND 36046/0307 WSHFT 0253 FROPA"
"91024","AMA","2011-04-04 03:53:00",-101.7059,35.2194,51.08,28.94,42.26,360,30,NA,29.73,1002.8,5,38,"OVC","   ","   ",NA,3400,NA,NA,NA,"BLDU",NA,NA,NA,46,360,"2011-04-04 03:07",51.08,"KAMA 040353Z 36030G38KT 5SM BLDU OVC034 11/M02 A2973 RMK AO2 PK WND 36046/0307 WSHFT 0253 SLP028 FROPA T01061017"
"91188","AMA","2011-04-10 17:00:00",-101.7059,35.2194,64.4,21.2,18.96,270,36,NA,29.79,NA,2.5,49,"FEW","   ","   ",NA,10000,NA,NA,NA,"HZ BLDU",NA,NA,NA,48,260,"2011-04-10 16:56",64.4,"KAMA 101700Z 27036G49KT 2 1/2SM HZ BLDU FEW100 18/M06 A2979 RMK AO2 PK WND 26048/1656 TWR VIS 5 PRESFR $"
"91189","AMA","2011-04-10 17:07:00",-101.7059,35.2194,64.4,21.2,18.96,260,36,NA,29.79,NA,3,47,"FEW","   ","   ",NA,10000,NA,NA,NA,"HZ BLDU",NA,NA,NA,48,260,"2011-04-10 16:56",64.4,"KAMA 101707Z 26036G47KT 3SM HZ BLDU FEW100 18/M06 A2979 RMK AO2 PK WND 26048/1656 TWR VIS 5 $"
"91190","AMA","2011-04-10 17:53:00",-101.7059,35.2194,66.92,19.04,15.85,260,36,NA,29.78,1003.9,3,49,"CLR","   ","   ",NA,NA,NA,NA,NA,"HZ BLDU",NA,NA,NA,49,270,"2011-04-10 17:50",66.92,"KAMA 101753Z 26036G49KT 3SM HZ BLDU CLR 19/M07 A2978 RMK AO2 PK WND 27049/1750 TWR VIS 5 SLP039 T01941072 10200 20100 58013 $"
"91191","AMA","2011-04-10 18:53:00",-101.7059,35.2194,69.08,14,11.82,260,32,NA,29.77,1003.3,3,44,"CLR","   ","   ",NA,NA,NA,NA,NA,"HZ BLDU",NA,NA,NA,52,260,"2011-04-10 17:57",69.08,"KAMA 101853Z 26032G44KT 3SM HZ BLDU CLR 21/M10 A2977 RMK AO2 PK WND 26052/1757 SLP033 T02061100 $"
"91309","AMA","2011-04-15 16:53:00",-101.7059,35.2194,55.94,12.92,17.92,330,36,NA,30.07,1016.2,6,48,"FEW","   ","   ",NA,3500,NA,NA,NA,"BLDU",NA,NA,NA,49,320,"2011-04-15 16:41",55.94,"KAMA 151653Z 33036G48KT 6SM BLDU FEW035 13/M11 A3007 RMK AO2 PK WND 32049/1641 SLP162 T01331106"
"91310","AMA","2011-04-15 17:53:00",-101.7059,35.2194,59,14,16.83,330,37,NA,30.06,1015.8,8,48,"FEW","   ","   ",NA,3200,NA,NA,NA,"BLDU",NA,NA,NA,48,340,"2011-04-15 17:52",59,"KAMA 151753Z 33037G48KT 8SM BLDU FEW032 15/M10 A3006 RMK AO2 PK WND 34048/1752 SLP158 T01501100 10150 20061 50008"
"92322","AMA","2011-05-24 20:33:00",-101.7059,35.2194,82.4,8.6,5.97,250,25,NA,29.62,NA,5,46,"BKN","   ","   ",NA,2900,NA,NA,NA,"BLDU",NA,NA,NA,46,260,"2011-05-24 20:30",79.01,"KAMA 242033Z 25025G46KT 5SM BLDU BKN029 28/M13 A2962 RMK AO2 PK WND 26046/2030"
"92323","AMA","2011-05-24 20:37:00",-101.7059,35.2194,84.2,10.4,6.1,250,34,NA,29.62,NA,0.5,46,"BKN","BKN","BKN",NA,2400,2900,3700,NA,"BLDU",NA,NA,NA,46,260,"2011-05-24 20:36",80.31,"KAMA 242037Z 25034G46KT 1/2SM BLDU BKN024 BKN029 BKN037 29/M12 A2962 RMK AO2 PK WND 26046/2036 SFC VIS 2 1/2"
"92324","AMA","2011-05-24 20:53:00",-101.7059,35.2194,84.92,10.94,6.11,240,30,NA,29.62,998.1,0.5,43,"BKN","BKN","   ",NA,2600,3300,NA,NA,"BLDU",NA,NA,NA,46,260,"2011-05-24 20:36",80.83,"KAMA 242053Z 24030G43KT 1/2SM BLDU BKN026 BKN033 29/M12 A2962 RMK AO2 PK WND 26046/2036 SFC VIS 3 SLP981 T02941117 58004"
"92325","AMA","2011-05-24 21:14:00",-101.7059,35.2194,82.4,10.4,6.47,250,31,NA,29.62,NA,5,48,"BKN","   ","   ",NA,2800,NA,NA,NA,"BLDU",NA,NA,NA,48,240,"2011-05-24 21:11",79.07,"KAMA 242114Z 25031G48KT 5SM BLDU BKN028 28/M12 A2962 RMK AO2 PK WND 24048/2111"
"92326","AMA","2011-05-24 21:49:00",-101.7059,35.2194,78.8,10.4,7.28,230,29,NA,29.62,NA,6,46,"SCT","BKN","   ",NA,2500,10000,NA,NA,"BLDU",NA,NA,NA,48,240,"2011-05-24 21:11",76.72,"KAMA 242149Z 23029G46KT 6SM BLDU SCT025 BKN100 26/M12 A2962 RMK AO2 PK WND 24048/2111 BLDU SCT000"
"92327","AMA","2011-05-24 21:53:00",-101.7059,35.2194,78.98,12.02,7.77,260,28,NA,29.62,998.4,6,44,"SCT","BKN","   ",NA,2500,9000,NA,NA,"BLDU",NA,NA,NA,48,240,"2011-05-24 21:11",76.94,"KAMA 242153Z 26028G44KT 6SM BLDU SCT025 BKN090 26/M11 A2962 RMK AO2 PK WND 24048/2111 SLP984 BLDU SCT000 T02611111"
"92331","AMA","2011-05-25 01:07:00",-101.7059,35.2194,75.2,24.8,15.25,320,25,NA,29.69,NA,2.5,48,"SCT","   ","   ",NA,11000,NA,NA,NA,"BLDU",NA,NA,NA,48,290,"2011-05-25 01:04",73.14,"KAMA 250107Z 32025G48KT 2 1/2SM R04/3500VP6000FT BLDU SCT110 24/M04 A2969 RMK AO2 PK WND 29048/0104 VIRGA OHD-N FU E-S CB DSNT N MOV E"
"92332","AMA","2011-05-25 01:14:00",-101.7059,35.2194,71.6,33.8,24.86,340,25,NA,29.67,NA,2,47,"SCT","SCT","   ",NA,7500,11000,NA,NA,"BLDU",NA,NA,NA,48,290,"2011-05-25 01:04",69.63,"KAMA 250114Z 34025G47KT 2SM BLDU SCT075 SCT110 22/01 A2967 RMK AO2 PK WND 29048/0104 WSHFT 0058 VIRGA OHD-N FU E-S CB DSNT N MOV E"
"92469","AMA","2011-05-30 10:15:00",-101.7059,35.2194,77,57.2,50.43,180,20,NA,29.69,NA,5,28,"CLR","   ","   ",NA,NA,NA,NA,NA,"HZ BLDU",NA,NA,NA,28,160,"2011-05-30 10:14",77,"KAMA 301015Z 18020G28KT 5SM HZ BLDU CLR 25/14 A2969 RMK AO2 PK WND 16028/1014"
"92470","AMA","2011-05-30 10:53:00",-101.7059,35.2194,75.92,57.92,53.65,170,22,NA,29.7,998.7,4,27,"CLR","   ","   ",NA,NA,NA,NA,NA,"HZ BLDU",NA,NA,NA,29,180,"2011-05-30 10:40",75.92,"KAMA 301053Z 17022G27KT 4SM HZ BLDU CLR 24/14 A2970 RMK AO2 PK WND 18029/1040 SLP987 T02440144"
"93327","AMA","2011-07-04 02:00:00",-101.7059,35.2194,80.6,53.6,39.3,10,30,NA,30.03,NA,2,37,"SCT","BKN","   ",NA,2200,10000,NA,NA,"BLDU",NA,NA,NA,37,10,"2011-07-04 01:59",80.6,"KAMA 040200Z 01030G37KT 2SM R04/5000VP6000FT BLDU SCT022 BKN100 27/12 A3003 RMK AO2 PK WND 01037/0159 FRQ LTGICCG CB DSNT W-N-NE MOV S"
"93328","AMA","2011-07-04 02:07:00",-101.7059,35.2194,77,57.2,50.43,40,30,NA,30.05,NA,2,38,"SCT","BKN","   ",NA,2200,10000,NA,NA,"BLDU",NA,NA,NA,38,20,"2011-07-04 02:04",77,"KAMA 040207Z 04030G38KT 2SM R04/4000VP6000FT BLDU SCT022 BKN100 25/14 A3005"
"93329","AMA","2011-07-04 02:07:00",-101.7059,35.2194,77,57.2,50.43,40,30,NA,30.05,NA,2,38,"SCT","BKN","   ",NA,2200,10000,NA,NA,"BLDU",NA,NA,NA,38,20,"2011-07-04 02:04",77,"KAMA 040207Z 04030G38KT 2SM R04/4000VP6000FT BLDU SCT022 BKN100 25/14 A3005 RMK AO2 PK WND 02038/0204 WSHFT 0147 PRESRR CONS LTGICCG CB DSNT W-N-NE MOV S"
"93330","AMA","2011-07-04 02:07:00",-101.7059,35.2194,77,57.2,50.43,40,30,NA,30.05,NA,2,38,"SCT","BKN","   ",NA,2200,10000,NA,NA,"BLDU",NA,NA,NA,38,20,"2011-07-04 02:04",77,"KAMA 040207Z 04030G38KT 2SM R04/4000VP6000FT BLDU SCT022 BKN100 25/14 A3005"
"93553","AMA","2011-07-12 23:45:00",-101.7059,35.2194,82.4,55.4,39.58,260,11,NA,29.97,NA,2.5,20,"SCT","BKN","   ",NA,7500,9000,NA,NA,"BLDU",NA,NA,NA,NA,NA,NA,82.4,"KAMA 122345Z 26011G20KT 2 1/2SM BLDU SCT075 BKN090 28/13 A2997 RMK AO2 WSHFT 2325 VIS 2 1/2 S-W-NW"
"93554","AMA","2011-07-12 23:53:00",-101.7059,35.2194,84.02,55.94,38.31,260,6,NA,29.98,1009.6,5,-99,"FEW","BKN","BKN",NA,3400,8000,9500,NA,"BLDU",NA,NA,NA,NA,NA,NA,84.02,"KAMA 122353Z 26006KT 5SM BLDU FEW034 BKN080 BKN095 29/13 A2998 RMK AO2 WSHFT 2325 SLP096 T02890133 10367 20283 55004"
"94261","AMA","2011-08-09 23:19:00",-101.7059,35.2194,84.2,55.4,37.35,260,27,NA,29.88,NA,2,36,"BKN","   ","   ",NA,11000,NA,NA,NA,"-TSRA BLDU",NA,NA,NA,36,270,"2011-08-09 23:15",83.09,"KAMA 092319Z 26027G36KT 2SM -TSRA BLDU BKN110 29/13 A2988 RMK AO2 PK WND 27036/2315 SFC VIS 3 TSB2257RAB02 OCNL LTGICCG W-N SHRA W-N TS W-N MOV E P0000"
"96098","AMA","2011-10-17 20:44:00",-101.7059,35.2194,69.8,39.2,32.72,360,26,NA,29.87,NA,5,35,"FEW","SCT","   ",NA,200,7500,NA,NA,"BLDU",NA,NA,NA,35,360,"2011-10-17 20:41",69.8,"KAMA 172044Z 36026G35KT 5SM BLDU FEW002 SCT075 21/04 A2987 RMK AO2      PK WND 36035/2041 VIRGA NW"
"96099","AMA","2011-10-17 20:53:00",-101.7059,35.2194,68,39.02,34.55,360,27,NA,29.89,1009.1,5,38,"SCT","   ","   ",NA,600,NA,NA,NA,"BLDU",NA,NA,NA,38,360,"2011-10-17 20:49",68,"KAMA 172053Z 36027G38KT 5SM BLDU SCT006 20/04 A2989 RMK AO2 PK WND      36038/2049 PRESRR SLP091 VIRGA SW-NW-N T02000039 53017"
"101153","AMA","2012-01-22 17:59:00",-101.7059,35.2194,57.2,24.8,28.48,280,44,0,29.46,NA,1,55,"CLR","   ","   ",NA,NA,NA,NA,NA,"HZ BLDU",NA,NA,NA,55,280,"2012-01-22 17:59",57.2,"KAMA 221759Z 28044G55KT 1SM R04/1600VP6000FT HZ BLDU CLR 14/M04 A2946 RMK AO2 PK WND 28055/1759"
"101155","AMA","2012-01-22 18:53:00",-101.7059,35.2194,55.94,28.04,34.09,320,39,0,29.56,998.7,1,48,"CLR","   ","   ",NA,NA,NA,NA,NA,"HZ BLDU",NA,NA,NA,59,290,"2012-01-22 18:04",55.94,"KAMA 221853Z 32039G48KT 1SM R04/5000VP6000FT HZ BLDU CLR 13/M02 A2956 RMK AO2 PK WND 29059/1804 SLP987 CU S-W MOV E T01331022"
"101156","AMA","2012-01-22 19:00:00",-101.7059,35.2194,53.6,32,43.61,330,39,0,29.59,NA,1,50,"BKN","OVC","   ",NA,2600,3500,NA,NA,"HZ BLDU",NA,NA,NA,50,330,"2012-01-22 18:58",53.6,"KAMA 221900Z 33039G50KT 1SM R04/5000VP6000FT HZ BLDU BKN026 OVC035 12/00 A2959 RMK AO2 PK WND 33050/1858 SFC VIS 2 PRESRR CU S-W MOV E"
"101157","AMA","2012-01-22 19:15:00",-101.7059,35.2194,48.2,33.8,57.26,320,40,0,29.65,NA,1,54,"FEW","BKN","OVC",NA,2300,3800,5000,NA,"HZ BLDU",NA,NA,NA,54,330,"2012-01-22 19:14",37.72,"KAMA 221915Z 32040G54KT 1SM HZ BLDU FEW023 BKN038 OVC050 09/01 A2965 RMK AO2 PK WND 33054/1914 SFC VIS 2 VIS 1V5 PRESRR CU S-W MOV E"
"101158","AMA","2012-01-22 19:29:00",-101.7059,35.2194,42.8,37.4,81.07,320,35,1e-04,29.69,NA,1,56,"BKN","OVC","   ",NA,2300,3800,NA,NA,"HZ BLDU",NA,NA,NA,56,310,"2012-01-22 19:22",30.78,"KAMA 221929Z 32035G56KT 1SM HZ BLDU BKN023 OVC038 06/03 A2969 RMK AO2 PK WND 31056/1922 SFC VIS 3 RAB17E26 PRESRR CU S-W MOV E P0000"
"101159","AMA","2012-01-22 19:53:00",-101.7059,35.2194,44.06,37.04,76.16,320,30,0.02,29.7,1004.7,1,42,"BKN","BKN","OVC",NA,2300,2800,4000,NA,"-RA BLDU",NA,NA,NA,56,310,"2012-01-22 19:22",33.28,"KAMA 221953Z 32030G42KT 1SM -RA BLDU BKN023 BKN028 OVC040 07/03 A2970 RMK AO2 PK WND 31056/1922 SFC VIS 10 RAB17 SLP047 CU S-W MOV E P0002 T00670028"
"101160","AMA","2012-01-22 20:05:00",-101.7059,35.2194,44.6,37.4,75.68,310,23,0,29.7,NA,1,36,"FEW","BKN","OVC",NA,2200,3800,9000,NA,"BLDU",NA,NA,NA,36,320,"2012-01-22 19:57",35.25,"KAMA 222005Z 31023G36KT 1SM BLDU FEW022 BKN038 OVC090 07/03 A2970 RMK AO2 PK WND 32036/1957 SFC VIS 10 RAE1954"
"101163","AMA","2012-01-22 21:22:00",-101.7059,35.2194,50,28.4,43.03,330,26,0,29.7,NA,5,41,"BKN","   ","   ",NA,2800,NA,NA,NA,"HZ BLDU",NA,NA,NA,41,330,"2012-01-22 21:13",42.03,"KAMA 222122Z 33026G41KT 5SM HZ BLDU BKN028 10/M02 A2970 RMK AO2 PK WND 33041/2113"
"101164","AMA","2012-01-22 21:32:00",-101.7059,35.2194,51.8,28.4,40.25,330,28,0,29.7,NA,5,37,"BKN","OVC","   ",NA,3000,3900,NA,NA,"HZ BLDU",NA,NA,NA,41,330,"2012-01-22 21:13",51.8,"KAMA 222132Z 33028G37KT 5SM HZ BLDU BKN030 OVC039 11/M02 A2970 RMK AO2 PK WND 33041/2113"
"101165","AMA","2012-01-22 21:53:00",-101.7059,35.2194,51.08,26.06,37.54,330,30,0,29.72,1005,3,39,"OVC","   ","   ",NA,3000,NA,NA,NA,"HZ BLDU",NA,NA,NA,43,330,"2012-01-22 21:41",51.08,"KAMA 222153Z 33030G39KT 3SM HZ BLDU OVC030 11/M03 A2972 RMK AO2 PK WND 33043/2141 SLP050 T01061033"
"101221","AMA","2012-01-25 02:53:00",-101.7059,35.2194,35.96,32,85.37,20,18,0.01,30.09,1019.3,5,NA,"OVC","   ","   ",NA,4300,NA,NA,NA,"-TSSN BR",NA,NA,NA,NA,NA,NA,24.96,"KAMA 250253Z 02018KT 5SM -TSSN BR OVC043 02/00 A3009 RMK AO2 TSB47RAB26E51SNB51 SLP193 P0001 60001 T00220000 53045"
"102098","AMA","2012-02-20 19:17:00",-101.7059,35.2194,48.2,12.2,23.09,300,32,0,29.85,NA,4,45,"FEW",NA,NA,NA,8000,NA,NA,NA,"HZ BLDU",NA,NA,NA,45,290,"2012-02-20 19:15",38.7,"KAMA 201917Z 30032G45KT 4SM R04/4500VP6000FT HZ BLDU FEW080 09/M11 A2985 RMK AO2 PK WND 29045/1915 PRESRR TCU W-NW MOV SE $"
"102099","AMA","2012-02-20 19:53:00",-101.7059,35.2194,44.06,26.06,48.87,330,29,0,29.88,1010.9,4,38,"BKN",NA,NA,NA,7500,NA,NA,NA,"HZ BLDU",NA,NA,NA,45,290,"2012-02-20 19:15",33.44,"KAMA 201953Z 33029G38KT 4SM HZ BLDU BKN075 07/M03 A2988 RMK AO2 PK WND 29045/1915 SLP109 T00671033 $"
"102224","AMA","2012-02-25 22:53:00",-101.7059,35.2194,60.98,14,15.68,190,26,0,29.9,1011.3,10,39,"OVC",NA,NA,NA,3000,NA,NA,NA,"BLDU",NA,NA,NA,43,180,"2012-02-25 22:36",60.98,"KAMA 252253Z 19026G39KT 10SM BLDU OVC030 16/M10 A2990 RMK AO2 PK WND 18043/2236 SLP113 T01611100 $"
"102225","AMA","2012-02-25 23:53:00",-101.7059,35.2194,57.92,15.08,18.34,190,28,0,29.89,1011.2,10,38,"CLR",NA,NA,NA,NA,NA,NA,NA,"BLDU",NA,NA,NA,42,190,"2012-02-25 23:05",57.92,"KAMA 252353Z 19028G38KT 10SM BLDU CLR 14/M09 A2989 RMK AO2 PK WND 19042/2305 SLP112 T01441094 10172 20133 56027 $"
"102226","AMA","2012-02-26 00:53:00",-101.7059,35.2194,53.96,15.98,22.02,180,21,0,29.87,1011,10,31,"CLR",NA,NA,NA,NA,NA,NA,NA,"BLDU",NA,NA,NA,37,180,"2012-02-26 00:07",53.96,"KAMA 260053Z 18021G31KT 10SM BLDU CLR 12/M09 A2987 RMK AO2 PK WND 18037/0007 SLP110 T01221089 $"
"102227","AMA","2012-02-26 01:53:00",-101.7059,35.2194,51.98,17.06,24.81,180,19,0,29.89,1011.6,10,29,"CLR",NA,NA,NA,NA,NA,NA,NA,"BLDU",NA,NA,NA,31,190,"2012-02-26 01:24",51.98,"KAMA 260153Z 18019G29KT 10SM BLDU CLR 11/M08 A2989 RMK AO2 PK WND 19031/0124 SLP116 T01111083 $"
"102321","AMA","2012-02-28 17:53:00",-101.7059,35.2194,69.08,35.06,28.49,210,40,0,29.78,1005.2,10,48,"FEW",NA,NA,NA,4000,NA,NA,NA,"BLDU",NA,NA,NA,NA,NA,NA,69.08,"KAMA 281753Z 21040G48KT 10SM BLDU FEW040 21/02 A2978 RMK AO2 PK WND 21048/1753 SLP052 T02060017 10211 20117 58027"
"102322","AMA","2012-02-28 18:53:00",-101.7059,35.2194,71.06,32,23.55,210,35,0,29.74,1003.9,3,48,"BKN","BKN","BKN",NA,3200,3900,7500,NA,"BLDU",NA,NA,NA,NA,NA,NA,68.97,"KAMA 281853Z 21035G48KT 3SM BLDU BKN032 BKN039 BKN075 22/00 A2974 RMK AO2 PK WND 21053/1805 SLP039 T02170000"
"102323","AMA","2012-02-28 19:14:00",-101.7059,35.2194,71.6,24.8,17.22,220,38,0,29.73,NA,2,52,"CLR",NA,NA,NA,NA,NA,NA,NA,"BLDU",NA,NA,NA,NA,NA,NA,69.27,"KAMA 281914Z 22038G52KT 2SM BLDU CLR 22/M04 A2973 RMK AO2 PK WND 22052/1911"
"102324","AMA","2012-02-28 19:53:00",-101.7059,35.2194,71.96,24.08,16.5,210,40,0,29.7,1002.4,2,49,"CLR",NA,NA,NA,NA,NA,NA,NA,"BLDU",NA,NA,NA,NA,NA,NA,69.63,"KAMA 281953Z 21040G49KT 2SM BLDU CLR 22/M04 A2970 RMK AO2 PK WND 22054/1934 SLP024 T02221044"
"102325","AMA","2012-02-28 20:00:00",-101.7059,35.2194,71.6,24.8,17.22,210,36,0,29.7,NA,3,49,"CLR",NA,NA,NA,NA,NA,NA,NA,"BLDU",NA,NA,NA,NA,NA,NA,69.27,"KAMA 282000Z 21036G49KT 3SM BLDU CLR 22/M04 A2970 RMK AO2 PK WND 21047/1958"
"102326","AMA","2012-02-28 20:31:00",-101.7059,35.2194,73.4,19.4,12.9,210,36,0,29.68,NA,2.5,48,"CLR",NA,NA,NA,NA,NA,NA,NA,"BLDU",NA,NA,NA,NA,NA,NA,71.05,"KAMA 282031Z 21036G48KT 2 1/2SM BLDU CLR 23/M07 A2968 RMK AO2 PK WND 20048/2029"
"102327","AMA","2012-02-28 20:53:00",-101.7059,35.2194,73.04,19.94,13.36,210,36,0,29.67,1001,2.5,46,"CLR",NA,NA,NA,NA,NA,NA,NA,"BLDU",NA,NA,NA,NA,NA,NA,70.67,"KAMA 282053Z 21036G46KT 2 1/2SM BLDU CLR 23/M07 A2967 RMK AO2 PK WND 20048/2029 SLP010 T02281067 56033"
"102328","AMA","2012-02-28 21:00:00",-101.7059,35.2194,73.4,19.4,12.9,210,34,0,29.66,NA,5,44,"BKN","OVC",NA,NA,3600,4400,NA,NA,"BLDU",NA,NA,NA,NA,NA,NA,71.05,"KAMA 282100Z 21034G44KT 5SM BLDU BKN036 OVC044 23/M07 A2966 RMK AO2 PK WND 20044/2054"
"102329","AMA","2012-02-28 21:53:00",-101.7059,35.2194,73.04,8.96,8.26,240,34,0,29.67,1001,4,46,"BKN","OVC",NA,NA,2900,3900,NA,NA,"BLDU",NA,NA,NA,NA,NA,NA,70.43,"KAMA 282153Z 24034G46KT 4SM BLDU BKN029 OVC039 23/M13 A2967 RMK AO2 PK WND 24046/2150 SLP010 T02281128"
"102330","AMA","2012-02-28 22:09:00",-101.7059,35.2194,71.6,12.2,10.02,250,36,0,29.67,NA,1.5,44,"BKN","OVC",NA,NA,2700,3400,NA,NA,"BLDU",NA,NA,NA,NA,NA,NA,68.93,"KAMA 282209Z 25036G44KT 1 1/2SM BLDU BKN027 OVC034 22/M11 A2967 RMK AO2 PK WND 25044/2208 TWR VIS 5"
"102331","AMA","2012-02-28 22:18:00",-101.7059,35.2194,69.8,12.2,10.66,240,35,0,29.68,NA,1,43,"OVC",NA,NA,NA,2300,NA,NA,NA,"BLDU",NA,NA,NA,NA,NA,NA,69.8,"KAMA 282218Z 24035G43KT 1SM R04/P6000FT BLDU OVC023 21/M11 A2968 RMK AO2 PK WND 25044/2208 TWR VIS 2"
"102332","AMA","2012-02-28 22:33:00",-101.7059,35.2194,69.8,12.2,10.66,250,37,0,29.69,NA,0.75,46,"BKN","OVC",NA,NA,1900,3600,NA,NA,"BLDU",NA,NA,NA,NA,NA,NA,69.8,"KAMA 282233Z 25037G46KT 3/4SM R04/P6000FT BLDU BKN019 OVC036 21/M11 A2969 RMK AO2 PK WND 25046/2231 TWR VIS 1"
"102333","AMA","2012-02-28 22:53:00",-101.7059,35.2194,68,14,12.27,250,33,0,29.7,1002.5,1,44,"BKN","OVC",NA,NA,2100,3400,NA,NA,"BLDU",NA,NA,NA,NA,NA,NA,68,"KAMA 282253Z 25033G44KT 1SM BLDU BKN021 OVC034 20/M10 A2970 RMK AO2 PK WND 25047/2237 SFC VIS 1 1/4 SLP025 T02001100"
"102334","AMA","2012-02-28 23:00:00",-101.7059,35.2194,68,14,12.27,240,34,0,29.7,NA,0.75,43,"BKN","OVC",NA,NA,2100,3800,NA,NA,"BLDU",NA,NA,NA,NA,NA,NA,68,"KAMA 282300Z 24034G43KT 3/4SM R04/P6000FT BLDU BKN021 OVC038 20/M10 A2970 RMK AO2 PK WND 24043/2257 SFC VIS 1"
"102335","AMA","2012-02-28 23:10:00",-101.7059,35.2194,68,15.8,13.27,250,30,0,29.71,NA,0.75,44,"CLR",NA,NA,NA,NA,NA,NA,NA,"BLDU",NA,NA,NA,NA,NA,NA,68,"KAMA 282310Z 25030G44KT 3/4SM R04/P6000FT BLDU CLR 20/M09 A2971 RMK AO2 PK WND 26044/2303"
"102336","AMA","2012-02-28 23:23:00",-101.7059,35.2194,66.2,15.8,14.13,250,32,0,29.72,NA,1.5,41,"CLR",NA,NA,NA,NA,NA,NA,NA,"BLDU",NA,NA,NA,NA,NA,NA,66.2,"KAMA 282323Z 25032G41KT 1 1/2SM BLDU CLR 19/M09 A2972 RMK AO2 PK WND 26044/2303"
"102337","AMA","2012-02-28 23:33:00",-101.7059,35.2194,62.6,19.4,18.71,280,34,0,29.75,NA,3,45,"CLR",NA,NA,NA,NA,NA,NA,NA,"BLDU",NA,NA,NA,NA,NA,NA,62.6,"KAMA 282333Z 28034G45KT 3SM R04/3500VP6000FT BLDU CLR 17/M07 A2975 RMK AO2 PK WND 25045/2324 PRESRR"
"102338","AMA","2012-02-28 23:53:00",-101.7059,35.2194,59,17.96,19.99,280,36,0,29.78,1005.5,2,48,"CLR",NA,NA,NA,NA,NA,NA,NA,"BLDU",NA,NA,NA,NA,NA,NA,59,"KAMA 282353Z 28036G48KT 2SM R04/2800VP6000FT BLDU CLR 15/M08 A2978 RMK AO2 PK WND 28048/2347 PRESRR SLP055 T01501078 10233 20150 53033"
"102339","AMA","2012-02-28 23:55:00",-101.7059,35.2194,59,17.6,19.68,280,33,0,29.78,NA,9,49,"BKN",NA,NA,NA,2800,NA,NA,NA,"BLDU",NA,NA,NA,NA,NA,NA,59,"KAMA 282355Z 28033G49KT 9SM R04/2800VP6000FT BLDU BKN028 15/M08 A2978 RMK AO2 PK WND 28049/2355 PRESRR"
"102340","AMA","2012-02-29 00:02:00",-101.7059,35.2194,57.2,17.6,20.99,280,34,0,29.79,NA,2.5,49,"CLR",NA,NA,NA,NA,NA,NA,NA,"BLDU",NA,NA,NA,49,280,"2012-02-28 23:59",57.2,"KAMA 290002Z 28034G49KT 2 1/2SM R04/3000VP6000FT BLDU CLR 14/M08 A2979 RMK AO2 PK WND 28049/2359"
"102341","AMA","2012-02-29 00:53:00",-101.7059,35.2194,53.96,8.06,15.51,270,28,0,29.85,1008.3,4,41,"CLR",NA,NA,NA,NA,NA,NA,NA,"BLDU",NA,NA,NA,49,280,"2012-02-28 23:59",53.96,"KAMA 290053Z 27028G41KT 4SM BLDU CLR 12/M13 A2985 RMK AO2 PK WND 28049/2359 SLP083 T01221133"
"102517","AMA","2012-03-06 23:53:00",-101.7059,35.2194,73.94,26.06,16.76,180,29,0,29.69,1001.6,5,35,"CLR",NA,NA,NA,NA,NA,NA,NA,"HZ BLDU",NA,NA,NA,40,170,"2012-03-06 23:00",71.82,"KAMA 062353Z 18029G35KT 5SM HZ BLDU CLR 23/M03 A2969 RMK AO2 PK WND 17040/2300 SLP016 T02331033 10272 20233 56017"
"102518","AMA","2012-03-07 00:53:00",-101.7059,35.2194,69.98,33.08,25.52,170,29,0,29.7,1002.6,5,36,"CLR",NA,NA,NA,NA,NA,NA,NA,"HZ BLDU",NA,NA,NA,36,170,"2012-03-07 00:51",69.98,"KAMA 070053Z 17029G36KT 5SM HZ BLDU CLR 21/01 A2970 RMK AO2 PK WND 17036/0051 SLP026 T02110006"
"102519","AMA","2012-03-07 01:53:00",-101.7059,35.2194,64.94,42.08,43.26,160,25,0,29.72,1003.7,10,35,"CLR",NA,NA,NA,NA,NA,NA,NA,"BLDU",NA,NA,NA,35,170,"2012-03-07 01:45",64.94,"KAMA 070153Z 16025G35KT 10SM BLDU CLR 18/06 A2972 RMK AO2 PK WND 17035/0145 SLP037 T01830056"
"102520","AMA","2012-03-07 02:53:00",-101.7059,35.2194,60.98,42.08,49.73,170,29,0,29.73,1003.8,10,41,"CLR",NA,NA,NA,NA,NA,NA,NA,"BLDU",NA,NA,NA,43,170,"2012-03-07 02:40",60.98,"KAMA 070253Z 17029G41KT 10SM BLDU CLR 16/06 A2973 RMK AO2 PK WND 17043/0240 SLP038 T01610056 53014"
"102521","AMA","2012-03-07 03:53:00",-101.7059,35.2194,59,42.98,55.24,180,27,0,29.75,1004.3,10,41,"CLR",NA,NA,NA,NA,NA,NA,NA,"BLDU",NA,NA,NA,44,170,"2012-03-07 03:39",59,"KAMA 070353Z 18027G41KT 10SM BLDU CLR 15/06 A2975 RMK AO2 PK WND 17044/0339 SLP043 T01500061"
"102565","AMA","2012-03-08 18:01:00",-101.7059,35.2194,42.8,14,30.68,10,30,0,30.36,NA,7,34,"BKN",NA,NA,NA,8000,NA,NA,NA,"BLDU",NA,NA,NA,34,10,"2012-03-08 18:01",31.55,"KAMA 081801Z 01030G34KT 7SM BLDU BKN080 06/M10 A3036 RMK AO2 PK WND 01034/1801"
"102566","AMA","2012-03-08 18:53:00",-101.7059,35.2194,46.04,14,27.11,20,29,0,30.35,1027.3,7,37,"BKN",NA,NA,NA,8000,NA,NA,NA,"BLDU",NA,NA,NA,38,10,"2012-03-08 18:36",36.16,"KAMA 081853Z 02029G37KT 7SM BLDU BKN080 08/M10 A3035 RMK AO2 PK WND 01038/1836 SLP273 T00781100"
"102567","AMA","2012-03-08 19:00:00",-101.7059,35.2194,46.4,14,26.75,30,27,0,30.35,NA,9,35,"FEW","BKN",NA,NA,200,9000,NA,NA,"BLDU",NA,NA,NA,33,30,"2012-03-08 18:59",36.97,"KAMA 081900Z 03027G35KT 9SM BLDU FEW002 BKN090 08/M10 A3035 RMK AO2 PK WND 03033/1859"
"102568","AMA","2012-03-08 19:25:00",-101.7059,35.2194,46.4,14,26.75,30,25,0,30.34,NA,2.5,37,"SCT",NA,NA,NA,200,NA,NA,NA,"BLDU",NA,NA,NA,38,20,"2012-03-08 19:09",37.31,"KAMA 081925Z 03025G37KT 2 1/2SM BLDU SCT002 08/M10 A3034 RMK AO2 PK WND 02038/1909 VIS 1 1/4V5"
"102569","AMA","2012-03-08 19:32:00",-101.7059,35.2194,44.6,14,28.64,20,28,0,30.34,NA,8,38,"SCT",NA,NA,NA,200,NA,NA,NA,"BLDU",NA,NA,NA,38,10,"2012-03-08 19:31",34.35,"KAMA 081932Z 02028G38KT 8SM BLDU SCT002 07/M10 A3034 RMK AO2 PK WND 01038/1931"
"102570","AMA","2012-03-08 19:53:00",-101.7059,35.2194,46.04,14,27.11,10,29,0,30.36,1027.4,8,35,"SCT",NA,NA,NA,200,NA,NA,NA,"BLDU",NA,NA,NA,38,10,"2012-03-08 19:31",36.16,"KAMA 081953Z 01029G35KT 8SM BLDU SCT002 08/M10 A3036 RMK AO2 PK WND 01038/1931 SLP274 T00781100"
"102571","AMA","2012-03-08 20:53:00",-101.7059,35.2194,44.06,10.04,24.53,20,24,0,30.34,1027.2,9,36,"BKN","BKN",NA,NA,9500,12000,NA,NA,"BLDU",NA,NA,NA,36,10,"2012-03-08 20:48",34.33,"KAMA 082053Z 02024G36KT 9SM BLDU BKN095 BKN120 07/M12 A3034 RMK AO2 PK WND 01036/2048 SLP272 T00671122 58005"
"102572","AMA","2012-03-08 21:53:00",-101.7059,35.2194,44.06,8.96,23.37,30,23,0,30.35,1027.4,10,32,"OVC",NA,NA,NA,9000,NA,NA,NA,"BLDU",NA,NA,NA,36,20,"2012-03-08 21:33",34.52,"KAMA 082153Z 03023G32KT 10SM BLDU OVC090 07/M13 A3035 RMK AO2 PK WND 02036/2133 SLP274 T00671128"
"102573","AMA","2012-03-08 22:53:00",-101.7059,35.2194,44.06,8.06,22.45,20,26,0,30.35,1027.8,10,33,"CLR",NA,NA,NA,NA,NA,NA,NA,"BLDU",NA,NA,NA,34,20,"2012-03-08 22:34",33.96,"KAMA 082253Z 02026G33KT 10SM BLDU CLR 07/M13 A3035 RMK AO2 PK WND 02034/2234 SLP278 T00671133"
"102574","AMA","2012-03-08 23:53:00",-101.7059,35.2194,42.08,8.96,25.22,30,21,0,30.41,1029.8,10,27,"OVC",NA,NA,NA,10000,NA,NA,NA,"BLDU",NA,NA,NA,31,20,"2012-03-08 23:05",32.3,"KAMA 082353Z 03021G27KT 10SM BLDU OVC100 06/M13 A3041 RMK AO2 PK WND 02031/2305 PRESRR SLP298 T00561128 10083 20056 53020"
"103644","AMA","2012-04-14 20:53:00",-101.7059,35.2194,84.02,26.96,12.49,190,31,0,29.5,993.6,10,42,"BKN",NA,NA,NA,3000,NA,NA,NA,"BLDU",NA,NA,NA,47,190,"2012-04-14 20:16",81.04,"KAMA 142053Z 19031G42KT 10SM BLDU BKN030 29/M03 A2950 RMK AO2 PK WND 19047/2016 SLP936 T02891028 58039"
"103645","AMA","2012-04-14 21:53:00",-101.7059,35.2194,84.02,28.04,13.06,210,33,0,29.46,992.2,6,41,"SCT",NA,NA,NA,3400,NA,NA,NA,"HZ BLDU",NA,NA,NA,46,200,"2012-04-14 21:00",81.12,"KAMA 142153Z AUTO 21033G41KT 6SM HZ BLDU SCT034 29/M02 A2946 RMK AO2 PK WND 20046/2100 SLP922 T02891022 TSNO $"
"103646","AMA","2012-04-14 22:53:00",-101.7059,35.2194,82.04,17.96,9.11,210,32,0,29.47,992.4,10,43,"SCT",NA,NA,NA,3500,NA,NA,NA,"BLDU",NA,NA,NA,45,200,"2012-04-14 22:02",79.14,"KAMA 142253Z 21032G43KT 10SM BLDU SCT035 28/M08 A2947 RMK AO2 PK WND 20045/2202 SLP924 T02781078 $"
"103647","AMA","2012-04-14 23:53:00",-101.7059,35.2194,80.06,19.04,10.18,210,26,0,29.47,992.8,10,36,"SCT",NA,NA,NA,3900,NA,NA,NA,"BLDU",NA,NA,NA,43,200,"2012-04-14 23:04",78,"KAMA 142353Z 21026G36KT 10SM BLDU SCT039 27/M07 A2947 RMK AO2 PK WND 20043/2304 SLP928 T02671072 10294 20261 55008 $"
"103648","AMA","2012-04-15 00:53:00",-101.7059,35.2194,77,17.06,10.34,230,21,0,29.48,993.1,8,29,"OVC",NA,NA,NA,3700,NA,NA,NA,"BLDU",NA,NA,NA,38,210,"2012-04-15 00:06",74.89,"KAMA 150053Z 23021G29KT 8SM BLDU OVC037 25/M08 A2948 RMK AO2 PK WND 21038/0006 SLP931 T02501083 $"
"103649","AMA","2012-04-15 01:53:00",-101.7059,35.2194,73.04,19.94,13.36,220,13,0,29.5,993.9,9,NA,"OVC",NA,NA,NA,4100,NA,NA,NA,"BLDU",NA,NA,NA,28,230,"2012-04-15 01:05",70.67,"KAMA 150153Z 22013KT 9SM BLDU OVC041 23/M07 A2950 RMK AO2 PK WND 23028/0105 SLP939 T02281067 $"
"103650","AMA","2012-04-15 02:53:00",-101.7059,35.2194,66.92,23,18.74,280,30,0,29.55,995.9,10,38,"OVC",NA,NA,NA,3900,NA,NA,NA,"BLDU",NA,NA,NA,38,290,"2012-04-15 02:53",66.92,"KAMA 150253Z 28030G38KT 10SM BLDU OVC039 19/M05 A2955 RMK AO2 PK WND 29038/0253 PRESRR SLP959 T01941050 53025 $"
"103651","AMA","2012-04-15 03:53:00",-101.7059,35.2194,60.98,24.98,25.07,280,29,0,29.57,996.8,10,35,"OVC",NA,NA,NA,5500,NA,NA,NA,"BLDU",NA,NA,NA,39,280,"2012-04-15 03:19",60.98,"KAMA 150353Z 28029G35KT 10SM BLDU OVC055 16/M04 A2957 RMK AO2 PK WND 28039/0319 SLP968 T01611039 $"
"103652","AMA","2012-04-15 04:53:00",-101.7059,35.2194,57.02,23,26.59,270,17,0,29.64,999,10,25,"OVC",NA,NA,NA,7000,NA,NA,NA,"BLDU",NA,NA,NA,35,290,"2012-04-15 04:31",57.02,"KAMA 150453Z AUTO 27017G25KT 10SM BLDU OVC070 14/M05 A2964 RMK AO2 PK WND 29035/0431 SLP990 T01391050 $"
"103653","AMA","2012-04-15 05:53:00",-101.7059,35.2194,53.96,21.92,28.39,260,8,0,29.66,1000.1,10,NA,"OVC",NA,NA,NA,9000,NA,NA,NA,"BLDU",NA,NA,NA,30,260,"2012-04-15 05:04",53.96,"KAMA 150553Z AUTO 26008KT 10SM BLDU OVC090 12/M06 A2966 RMK AO2 PK WND 26030/0504 SLP001 T01221056 10267 20122 402940122 53034 $"
"103654","AMA","2012-04-15 06:53:00",-101.7059,35.2194,51.98,17.96,25.79,270,21,0,29.62,998.7,10,27,"CLR",NA,NA,NA,NA,NA,NA,NA,"BLDU",NA,NA,NA,28,270,"2012-04-15 06:30",51.98,"KAMA 150653Z AUTO 27021G27KT 10SM BLDU CLR 11/M08 A2962 RMK AO2 PK WND 27028/0630 SLP987 T01111078 $"
"103655","AMA","2012-04-15 07:53:00",-101.7059,35.2194,50,14,23.37,270,18,0,29.61,998.1,10,26,"CLR",NA,NA,NA,NA,NA,NA,NA,"BLDU",NA,NA,NA,31,260,"2012-04-15 07:36",43.44,"KAMA 150753Z AUTO 27018G26KT 10SM BLDU CLR 10/M10 A2961 RMK AO2 PK WND 26031/0736 SLP981 T01001100 $"
"103656","AMA","2012-04-15 08:53:00",-101.7059,35.2194,48.02,14,25.16,270,15,0,29.62,998.5,10,25,"CLR",NA,NA,NA,NA,NA,NA,NA,"BLDU",NA,NA,NA,29,270,"2012-04-15 08:43",41.55,"KAMA 150853Z AUTO 27015G25KT 10SM BLDU CLR 09/M10 A2962 RMK AO2 PK WND 27029/0843 SLP985 T00891100 55014 $"
"103657","AMA","2012-04-15 09:53:00",-101.7059,35.2194,44.96,17.06,32.27,230,8,0,29.67,1000.5,10,NA,"CLR",NA,NA,NA,NA,NA,NA,NA,"BLDU",NA,NA,NA,NA,NA,NA,40.08,"KAMA 150953Z AUTO 23008KT 10SM BLDU CLR 07/M08 A2967 RMK AO2 SLP005 T00721083 $"
"103658","AMA","2012-04-15 10:53:00",-101.7059,35.2194,44.06,17.96,34.72,250,12,0,29.64,999.7,10,NA,"CLR",NA,NA,NA,NA,NA,NA,NA,"BLDU",NA,NA,NA,NA,NA,NA,37.35,"KAMA 151053Z 25012KT 10SM BLDU CLR 07/M08 A2964 RMK AO2 SLP997 T00671078 $"
"109250","AMA","2012-11-10 20:53:00",-101.7059,35.2194,77,33.98,20.89,200,25,0,29.63,999,5,39,"BKN","BKN",NA,NA,3200,4600,NA,NA,"HZ BLDU",NA,NA,NA,43,200,"2012-11-10 20:37",75.38,"KAMA 102053Z 20025G39KT 5SM HZ BLDU BKN032 BKN046 25/01 A2963 RMK AO2 PK WND 20043/2037 SLP990 T02500011 56029 $"
"109251","AMA","2012-11-10 21:53:00",-101.7059,35.2194,75.92,33.98,21.66,200,27,0,29.62,998.8,4,39,"BKN","OVC",NA,NA,3600,4700,NA,NA,"HZ BLDU",NA,NA,NA,45,220,"2012-11-10 20:57",74.23,"KAMA 102153Z 20027G39KT 4SM HZ BLDU BKN036 OVC047 24/01 A2962 RMK AO2 PK WND 22045/2057 SLP988 T02440011 $"
"109252","AMA","2012-11-10 22:53:00",-101.7059,35.2194,75.02,30.92,19.73,230,23,0,29.63,999,8,30,"OVC",NA,NA,NA,3800,NA,NA,NA,"BLDU",NA,NA,NA,37,210,"2012-11-10 22:30",73.15,"KAMA 102253Z 23023G30KT 8SM BLDU OVC038 24/M01 A2963 RMK AO2 PK WND 21037/2230 SLP990 T02391006 $"
"109253","AMA","2012-11-10 23:53:00",-101.7059,35.2194,71.96,28.94,20.18,240,24,0,29.65,1000.1,4,32,"OVC",NA,NA,NA,3400,NA,NA,NA,"HZ BLDU",NA,NA,NA,37,220,"2012-11-10 23:31",69.8,"KAMA 102353Z 24024G32KT 4SM HZ BLDU OVC034 22/M02 A2965 RMK AO2 PK WND 22037/2331 SLP001 T02221017 10256 20222 53006 $"
"109254","AMA","2012-11-11 00:53:00",-101.7059,35.2194,66.92,33.08,28.35,260,16,0,29.69,1001.6,10,21,"BKN",NA,NA,NA,4800,NA,NA,NA,"BLDU",NA,NA,NA,29,240,"2012-11-11 00:01",66.92,"KAMA 110053Z 26016G21KT 10SM BLDU BKN048 19/01 A2969 RMK AO2 PK WND 24029/0001 SLP016 T01940006 $"
"110234","AMA","2012-12-19 18:53:00",-101.7059,35.2194,66.02,21.92,18.48,230,24,0,29.5,996.2,10,38,"BKN","OVC",NA,NA,3300,10000,NA,NA,"BLDU",NA,NA,NA,44,210,"2012-12-19 18:21",66.02,"KAMA 191853Z 23024G38KT 10SM BLDU BKN033 OVC100 19/M06 A2950 RMK AO2 PK WND 21044/1821 SLP962 T01891056"
"110235","AMA","2012-12-19 19:25:00",-101.7059,35.2194,66.2,24.8,20.72,240,23,0,29.49,NA,6,40,"BKN","OVC",NA,NA,2900,3600,NA,NA,"HZ BLDU",NA,NA,NA,42,230,"2012-12-19 19:06",66.2,"KAMA 191925Z 24023G40KT 6SM HZ BLDU BKN029 OVC036 19/M04 A2949 RMK AO2 PK WND 23042/1906"
"110236","AMA","2012-12-19 19:53:00",-101.7059,35.2194,62.96,26.06,24.45,230,30,0,29.48,995.9,9,39,"BKN","BKN","OVC",NA,2900,3500,4900,NA,"BLDU",NA,NA,NA,42,260,"2012-12-19 19:34",62.96,"KAMA 191953Z 23030G39KT 9SM BLDU BKN029 BKN035 OVC049 17/M03 A2948 RMK AO2 PK WND 26042/1934 SLP959 T01721033"
"110237","AMA","2012-12-19 20:02:00",-101.7059,35.2194,62.6,28.4,27.27,240,32,0,29.48,NA,4,39,"BKN","OVC",NA,NA,3100,4600,NA,NA,"HZ BLDU",NA,NA,NA,38,240,"2012-12-19 19:59",62.6,"KAMA 192002Z 24032G39KT 4SM HZ BLDU BKN031 OVC046 17/M02 A2948 RMK AO2 PK WND 24038/1959"
"110238","AMA","2012-12-19 20:13:00",-101.7059,35.2194,62.6,28.4,27.27,250,25,0,29.49,NA,3,42,"BKN","OVC",NA,NA,2900,3600,NA,NA,"HZ BLDU",NA,NA,NA,42,250,"2012-12-19 20:04",62.6,"KAMA 192013Z 25025G42KT 3SM HZ BLDU BKN029 OVC036 17/M02 A2949 RMK AO2 PK WND 25042/2004 SFC VIS 3"
"110239","AMA","2012-12-19 20:32:00",-101.7059,35.2194,60.8,28.4,29.06,260,28,0,29.5,NA,9,35,"SCT","SCT","OVC",NA,2500,3300,10000,NA,"BLDU",NA,NA,NA,42,250,"2012-12-19 20:04",60.8,"KAMA 192032Z 26028G35KT 9SM BLDU SCT025 SCT033 OVC100 16/M02 A2950 RMK AO2 PK WND 25042/2004"
"110240","AMA","2012-12-19 20:53:00",-101.7059,35.2194,59,28.04,30.53,270,29,0,29.52,997.3,10,39,"OVC",NA,NA,NA,10000,NA,NA,NA,"BLDU",NA,NA,NA,42,250,"2012-12-19 20:04",59,"KAMA 192053Z AUTO 27029G39KT 10SM BLDU OVC100 15/M02 A2952 RMK AO2 PK WND 25042/2004 SLP973 T01501022 55005 TSNO"
"110241","AMA","2012-12-19 21:53:00",-101.7059,35.2194,44.06,17.96,34.72,330,22,0,29.61,1001.4,8,32,"BKN","OVC",NA,NA,7500,9000,NA,NA,"BLDU",NA,NA,NA,38,270,"2012-12-19 21:18",34.73,"KAMA 192153Z 33022G32KT 8SM BLDU BKN075 OVC090 07/M08 A2961 RMK AO2 PK WND 27038/2118 WSHFT 2133 PRESRR SLP014 T00671078"
"110242","AMA","2012-12-19 22:00:00",-101.7059,35.2194,42.8,17.6,35.87,330,22,0,29.62,NA,9,30,"BKN","OVC",NA,NA,7500,9000,NA,NA,"BLDU",NA,NA,NA,NA,NA,NA,33.04,"KAMA 192200Z 33022G30KT 9SM BLDU BKN075 OVC090 06/M08 A2962 RMK AO2 PK WND 33030/2158 WSHFT 2140"
"110243","AMA","2012-12-19 22:53:00",-101.7059,35.2194,37.94,21.02,50.14,310,26,0,29.72,1005.5,9,35,"FEW","BKN",NA,NA,3100,11000,NA,NA,"BLDU",NA,NA,NA,NA,NA,NA,25.64,"KAMA 192253Z 31026G35KT 9SM BLDU FEW031 BKN110 03/M06 A2972 RMK AO2 PK WND 31035/2252 WSHFT 2140 SLP055 T00331061"
"110244","AMA","2012-12-19 23:38:00",-101.7059,35.2194,33.8,19.4,55.14,320,32,0,29.78,NA,8,40,"OVC",NA,NA,NA,2900,NA,NA,NA,"BLDU",NA,NA,NA,NA,NA,NA,18.78,"KAMA 192338Z 32032G40KT 8SM BLDU OVC029 01/M07 A2978 RMK AO2 PK WND 33040/2337"
"110245","AMA","2012-12-19 23:53:00",-101.7059,35.2194,32,19.94,60.66,330,32,0,29.8,1008.9,10,42,"FEW","OVC",NA,NA,2900,4400,NA,NA,"BLDU",NA,NA,NA,NA,NA,NA,16.29,"KAMA 192353Z 33032G42KT 10SM BLDU FEW029 OVC044 00/M07 A2980 RMK AO2 PK WND 33042/2350 SLP089 T00001067 10194 20000 51058"
"110246","AMA","2012-12-20 00:06:00",-101.7059,35.2194,30.2,23,74.26,320,27,1e-04,29.82,NA,2,40,"SCT","OVC",NA,NA,2300,3700,NA,NA,"-SN BLDU",NA,NA,NA,40,320,"2012-12-19 23:58",14.89,"KAMA 200006Z 32027G40KT 2SM -SN BLDU SCT023 OVC037 M01/M05 A2982 RMK AO2 PK WND 32040/2358 SNB2355 PRESRR P0000"
"110247","AMA","2012-12-20 00:53:00",-101.7059,35.2194,30.92,17.06,55.99,330,36,1e-04,29.86,1011.3,2,46,"OVC",NA,NA,NA,3000,NA,NA,NA,"HZ BLDU",NA,NA,NA,47,320,"2012-12-20 00:43",14.03,"KAMA 200053Z 33036G46KT 2SM HZ BLDU OVC030 M01/M08 A2986 RMK AO2 PK WND 32047/0043 SFC VIS 6 SNB2355E31 SLP113 P0000 T10061083"
"110248","AMA","2012-12-20 00:56:00",-101.7059,35.2194,30.2,17.6,59.01,330,28,0,29.87,NA,6,47,"OVC",NA,NA,NA,2800,NA,NA,NA,"HZ BLDU",NA,NA,NA,47,330,"2012-12-20 00:54",14.66,"KAMA 200056Z 33028G47KT 6SM HZ BLDU OVC028 M01/M08 A2987 RMK AO2 PK WND 33047/0054 PRESRR"
"110249","AMA","2012-12-20 01:16:00",-101.7059,35.2194,30.2,17.6,59.01,330,29,0,29.89,NA,10,44,"OVC",NA,NA,NA,3100,NA,NA,NA,"BLDU",NA,NA,NA,47,330,"2012-12-20 00:54",14.44,"KAMA 200116Z 33029G44KT 10SM BLDU OVC031 M01/M08 A2989 RMK AO2 PK WND 33047/0054"
"110250","AMA","2012-12-20 01:53:00",-101.7059,35.2194,32,17.06,53.6,320,28,0,29.94,1013.6,10,40,"BKN",NA,NA,NA,3200,NA,NA,NA,"BLDU",NA,NA,NA,48,320,"2012-12-20 01:18",17.12,"KAMA 200153Z 32028G40KT 10SM BLDU BKN032 00/M08 A2994 RMK AO2 PK WND 32048/0118 PRESRR SLP136 T00001083"
"110251","AMA","2012-12-20 02:53:00",-101.7059,35.2194,30.92,15.98,53.44,330,32,0,29.99,1015.3,10,40,"BKN","BKN",NA,NA,3200,10000,NA,NA,"BLDU",NA,NA,NA,43,360,"2012-12-20 02:39",14.8,"KAMA 200253Z 33032G40KT 10SM BLDU BKN032 BKN100 M01/M09 A2999 RMK AO2 PK WND 36043/0239 SLP153 60000 T10061089 51056"
"110252","AMA","2012-12-20 03:53:00",-101.7059,35.2194,28.94,15.08,55.69,330,25,0,30.04,1017.1,10,42,"CLR",NA,NA,NA,NA,NA,NA,NA,"BLDU",NA,NA,NA,42,330,"2012-12-20 03:44",13.67,"KAMA 200353Z 33025G42KT 10SM BLDU CLR M02/M09 A3004 RMK AO2 PK WND 33042/0344 SLP171 T10171094"
"111713","AMA","2013-02-09 23:03:00",-101.7059,35.2194,69.8,15.8,12.48,220,26,0,29.53,NA,1,42,"BKN","BKN",NA,NA,3800,5000,NA,NA,"HZ BLDU",NA,NA,NA,42,220,"2013-02-09 23:01",69.8,"KAMA 092303Z 22026G42KT 1SM HZ BLDU BKN038 BKN050 21/M09 A2953 RMK AO2 PK WND 22042/2301 SFC VIS 4"
"111714","AMA","2013-02-09 23:42:00",-101.7059,35.2194,66.2,12.2,12.06,210,21,0,29.52,NA,2,30,"BKN","OVC",NA,NA,3800,4900,NA,NA,"HZ BLDU",NA,NA,NA,42,220,"2013-02-09 23:01",66.2,"KAMA 092342Z 21021G30KT 2SM HZ BLDU BKN038 OVC049 19/M11 A2952 RMK AO2 PK WND 22042/2301 SFC VIS 5"
"111715","AMA","2013-02-09 23:53:00",-101.7059,35.2194,66.92,10.04,10.69,230,25,0,29.53,997.5,2,33,"OVC",NA,NA,NA,3800,NA,NA,NA,"HZ BLDU",NA,NA,NA,42,220,"2013-02-09 23:01",66.92,"KAMA 092353Z 23025G33KT 2SM HZ BLDU OVC038 19/M12 A2953 RMK AO2 PK WND 22042/2301 SFC VIS 4 SLP975 T01941122 10206 20117 55019"
"111716","AMA","2013-02-10 00:20:00",-101.7059,35.2194,66.2,1.4,7.39,230,28,0,29.53,NA,1.25,36,"OVC",NA,NA,NA,3000,NA,NA,NA,"HZ BLDU",NA,NA,NA,36,230,"2013-02-10 00:12",66.2,"KAMA 100020Z 23028G36KT 1 1/4SM HZ BLDU OVC030 19/M17 A2953 RMK AO2 PK WND 23036/0012 SFC VIS 2"
"111717","AMA","2013-02-10 00:27:00",-101.7059,35.2194,64.4,1.4,7.87,230,33,0,29.54,NA,1.25,38,"OVC",NA,NA,NA,2800,NA,NA,NA,"HZ BLDU",NA,NA,NA,38,220,"2013-02-10 00:27",64.4,"KAMA 100027Z 23033G38KT 1 1/4SM HZ BLDU OVC028 18/M17 A2954 RMK AO2 PK WND 22038/0027 SFC VIS 2"
"111718","AMA","2013-02-10 00:42:00",-101.7059,35.2194,60.8,10.4,13.46,250,25,0,29.55,NA,1.25,36,"OVC",NA,NA,NA,3200,NA,NA,NA,"HZ BLDU",NA,NA,NA,38,250,"2013-02-10 00:32",60.8,"KAMA 100042Z 25025G36KT 1 1/4SM HZ BLDU OVC032 16/M12 A2955 RMK AO2 PK WND 25038/0032 SFC VIS 4"
"111719","AMA","2013-02-10 00:53:00",-101.7059,35.2194,60.08,12.02,14.84,260,22,0,29.56,999.2,3,31,"OVC",NA,NA,NA,3600,NA,NA,NA,"HZ BLDU",NA,NA,NA,38,250,"2013-02-10 00:32",60.08,"KAMA 100053Z 26022G31KT 3SM HZ BLDU OVC036 16/M11 A2956 RMK AO2 PK WND 25038/0032 SFC VIS 5 SLP992 T01561111"
"115417","AMA","2013-06-20 22:32:00",-101.7059,35.2194,91.4,59,33.84,170,27,0,29.91,NA,8,33,"SCT","BKN",NA,NA,2900,3600,NA,NA,"BLDU",NA,NA,NA,33,180,"2013-06-20 22:31",91.4,"KAMA 202232Z 17027G33KT 8SM BLDU SCT029 BKN036 33/15 A2991 RMK AO2 PK WND 18033/2231 $"
"115418","AMA","2013-06-20 22:43:00",-101.7059,35.2194,91.4,60.8,36.08,170,24,0,29.91,NA,7,29,"BKN","OVC",NA,NA,2700,3400,NA,NA,"BLDU",NA,NA,NA,33,180,"2013-06-20 22:31",91.4,"KAMA 202243Z 17024G29KT 7SM BLDU BKN027 OVC034 33/16 A2991 RMK AO2 PK WND 18033/2231 $"
"115419","AMA","2013-06-20 22:53:00",-101.7059,35.2194,91.94,59,33.27,180,21,0,29.91,1006.8,7,28,"BKN","OVC",NA,NA,2700,3300,NA,NA,"BLDU",NA,NA,NA,NA,NA,NA,91.94,"KAMA 202253Z 18021G28KT 7SM BLDU BKN027 OVC033 33/15 A2991 RMK AO2 PK WND 18033/2231 SLP068 T03330150 $"
"115420","AMA","2013-06-20 23:07:00",-101.7059,35.2194,91.4,59,33.84,160,23,0,29.91,NA,5,32,"BKN","OVC",NA,NA,3000,3600,NA,NA,"HZ BLDU",NA,NA,NA,32,170,"2013-06-20 23:02",91.4,"KAMA 202307Z 16023G32KT 5SM HZ BLDU BKN030 OVC036 33/15 A2991 RMK AO2 PK WND 17032/2302 $"
"115421","AMA","2013-06-20 23:53:00",-101.7059,35.2194,89.06,57.02,33.92,170,23,0,29.91,1007.1,6,31,"BKN","OVC",NA,NA,3200,4000,NA,NA,"HZ BLDU",NA,NA,NA,32,170,"2013-06-20 23:43",87.71,"KAMA 202353Z 17023G31KT 6SM HZ BLDU BKN032 OVC040 32/14 A2991 RMK AO2 PK WND 17032/2343 SLP071 T03170139 10344 20300 55010 $"
"115422","AMA","2013-06-21 00:53:00",-101.7059,35.2194,86,55.94,35.95,180,21,0,29.95,1008.6,10,28,"OVC",NA,NA,NA,4600,NA,NA,NA,"BLDU",NA,NA,NA,35,170,"2013-06-20 23:56",84.67,"KAMA 210053Z 18021G28KT 10SM BLDU OVC046 30/13 A2995 RMK AO2 PK WND 17035/2356 SLP086 T03000133 $"
"115423","AMA","2013-06-21 01:53:00",-101.7059,35.2194,84.92,41,21.27,230,33,1e-04,29.91,1006.8,10,42,"FEW",NA,NA,NA,6000,NA,NA,NA,"BLDU",NA,NA,NA,42,240,"2013-06-21 01:50",82.04,"KAMA 210153Z 23033G42KT 10SM BLDU FEW060 29/05 A2991 RMK AO2 PK WND 24042/0150 RAB27E40 SLP068 P0000 T02940050 TSNO $"
"115424","AMA","2013-06-21 02:02:00",-101.7059,35.2194,84.2,42.8,23.33,250,28,0,NA,NA,9,41,"FEW",NA,NA,NA,1100,NA,NA,NA,"BLDU SQ",NA,NA,NA,NA,NA,NA,81.61,"KAMA 210202Z 25028G41KT 9SM BLDU SQ FEW011 29/06"
"115425","AMA","2013-06-21 02:09:00",-101.7059,35.2194,87.8,37.4,16.86,230,39,0,NA,NA,7,49,"FEW",NA,NA,NA,700,NA,NA,NA,"BLDU SQ",NA,NA,NA,49,230,"2013-06-21 02:07",84.16,"KAMA 210209Z 23039G49KT 7SM BLDU SQ FEW007 31/03 RMK AO2 PK WND 23049/0207 WSHFT 0142 $"
"115426","AMA","2013-06-21 02:53:00",-101.7059,35.2194,82.04,44.06,26.25,190,34,0,NA,NA,10,47,"SCT",NA,NA,NA,10000,NA,NA,NA,"BLDU",NA,NA,NA,53,180,"2013-06-21 02:38",80.24,"KAMA 210253Z 19034G47KT 10SM BLDU SCT100 28/07 RMK AO2 PK WND 18053/0238 WSHFT 0142 SLPNO 60000 T02780067 $"
"119456","AMA","2013-11-16 18:53:00",-101.7059,35.2194,71.96,37.04,27.93,230,29,0,29.6,998.1,10,40,"FEW",NA,NA,NA,7000,NA,NA,NA,"BLDU",NA,NA,NA,41,230,"2013-11-16 18:28",70.17,"KAMA 161853Z 23029G40KT 10SM BLDU FEW070 22/03 A2960 RMK AO2 PK WND 23041/1828 SLP981 T02220028"
"119457","AMA","2013-11-16 19:35:00",-101.7059,35.2194,71.6,33.8,24.86,230,32,0,29.58,NA,9,44,"BKN","BKN",NA,NA,2900,7000,NA,NA,"BLDU",NA,NA,NA,44,240,"2013-11-16 19:30",69.63,"KAMA 161935Z 23032G44KT 9SM BLDU BKN029 BKN070 22/01 A2958 RMK AO2 PK WND 24044/1930"
"119458","AMA","2013-11-16 19:53:00",-101.7059,35.2194,69.98,35.06,27.62,240,33,0,29.57,997.2,10,40,"BKN","BKN",NA,NA,3100,7500,NA,NA,"BLDU",NA,NA,NA,44,230,"2013-11-16 19:39",69.98,"KAMA 161953Z 24033G40KT 10SM BLDU BKN031 BKN075 21/02 A2957 RMK AO2 PK WND 23044/1939 SLP972 T02110017"
"119459","AMA","2013-11-16 20:53:00",-101.7059,35.2194,69.98,35.96,28.63,250,25,0,29.56,997,10,37,"SCT","BKN",NA,NA,3700,7500,NA,NA,"BLDU",NA,NA,NA,43,220,"2013-11-16 20:26",69.98,"KAMA 162053Z 25025G37KT 10SM BLDU SCT037 BKN075 21/02 A2956 RMK AO2 PK WND 22043/2026 SLP970 T02110022 56025"
"119460","AMA","2013-11-16 21:53:00",-101.7059,35.2194,71.06,35.96,27.59,230,27,0,29.56,996.9,10,36,"FEW","SCT",NA,NA,3900,7500,NA,NA,"BLDU",NA,NA,NA,42,230,"2013-11-16 20:59",69.16,"KAMA 162153Z 23027G36KT 10SM BLDU FEW039 SCT075 22/02 A2956 RMK AO2 PK WND 23042/2059 SLP969 T02170022"
"119461","AMA","2013-11-16 22:53:00",-101.7059,35.2194,69.08,30.92,24.13,240,27,0,29.57,997.6,10,38,"CLR",NA,NA,NA,NA,NA,NA,NA,"BLDU",NA,NA,NA,39,240,"2013-11-16 22:00",69.08,"KAMA 162253Z 24027G38KT 10SM BLDU CLR 21/M01 A2957 RMK AO2 PK WND 24039/2200 SLP976 T02061006"
"119462","AMA","2013-11-16 23:53:00",-101.7059,35.2194,66.92,32,27.15,250,18,0,29.59,998.6,10,27,"CLR",NA,NA,NA,NA,NA,NA,NA,"BLDU",NA,NA,NA,32,240,"2013-11-16 23:09",66.92,"KAMA 162353Z 25018G27KT 10SM BLDU CLR 19/00 A2959 RMK AO2 PK WND 24032/2309 SLP986 T01940000 10222 20194 53007"
"119463","AMA","2013-11-17 00:53:00",-101.7059,35.2194,60.98,30.92,32,230,9,0,29.6,999.1,10,NA,"CLR",NA,NA,NA,NA,NA,NA,NA,"BLDU",NA,NA,NA,NA,NA,NA,60.98,"KAMA 170053Z 23009KT 10SM BLDU CLR 16/M01 A2960 RMK AO2 SLP991 T01611006"
"121281","AMA","2014-01-19 18:46:00",-101.7059,35.2194,66.02,12.02,12.04,240,27,0,30.09,NA,6,35,"CLR",NA,NA,NA,NA,NA,NA,NA,"HZ BLDU",NA,NA,NA,37,220,"2014-01-19 17:57",66.02,"KAMA 191846Z 24027G35KT 6SM HZ BLDU CLR 19/M11 A3009 RMK AO2 PK WND 22037/1757 T01891111"
"121282","AMA","2014-01-19 18:53:00",-101.7059,35.2194,66.02,12.02,12.04,240,26,0,30.08,1017.2,7,35,"CLR",NA,NA,NA,NA,NA,NA,NA,"BLDU",NA,NA,NA,37,220,"2014-01-19 17:57",66.02,"KAMA 191853Z 24026G35KT 7SM BLDU CLR 19/M11 A3008 RMK AO2 PK WND 22037/1757 SLP172 T01891111"
"121283","AMA","2014-01-19 19:53:00",-101.7059,35.2194,66.92,10.04,10.69,230,27,0,30.03,1015.1,10,35,"CLR",NA,NA,NA,NA,NA,NA,NA,"BLDU",NA,NA,NA,40,230,"2014-01-19 19:04",66.92,"KAMA 191953Z 23027G35KT 10SM BLDU CLR 19/M12 A3003 RMK AO2 PK WND 23040/1904 SLP151 T01941122"
"121284","AMA","2014-01-19 20:53:00",-101.7059,35.2194,68,8.96,9.81,240,21,0,30,1014.5,10,36,"CLR",NA,NA,NA,NA,NA,NA,NA,"BLDU",NA,NA,NA,36,240,"2014-01-19 20:05",68,"KAMA 192053Z 24021G36KT 10SM BLDU CLR 20/M13 A3000 RMK AO2 PK WND 24036/2005 SLP145 T02001128 56041"
"121285","AMA","2014-01-19 21:53:00",-101.7059,35.2194,68,8.96,9.81,240,22,0,29.98,1013.7,10,32,"CLR",NA,NA,NA,NA,NA,NA,NA,"BLDU",NA,NA,NA,35,230,"2014-01-19 21:14",68,"KAMA 192153Z 24022G32KT 10SM BLDU CLR 20/M13 A2998 RMK AO2 PK WND 23035/2114 SLP137 T02001128"
"121468","AMA","2014-01-27 05:38:00",-101.7059,35.2194,33.98,26.06,72.45,20,27,0,30.01,NA,4,38,"BKN",NA,NA,NA,1100,NA,NA,NA,"BLDU",NA,NA,NA,40,30,"2014-01-27 05:23",20.04,"KAMA 270538Z 02027G38KT 4SM BLDU BKN011 01/M03 A3001 RMK AO2 PK WND 03040/0523 T00111033"
"122872","AMA","2014-03-12 00:03:00",-101.7059,35.2194,53.06,30.92,42.58,360,27,0,29.9,NA,0.75,39,"OVC",NA,NA,NA,2200,NA,NA,NA,"BLDU",NA,NA,NA,39,360,"2014-03-11 23:57",53.06,"KAMA 120003Z 36027G39KT 3/4SM R04/P6000FT BLDU OVC022 12/M01 A2990 RMK AO2 PK WND 36039/2357 TWR VIS 1 1/2 PRESRR T01171006"
"122873","AMA","2014-03-12 00:06:00",-101.7059,35.2194,51.98,30.92,44.31,360,27,0,29.9,NA,1.25,39,"OVC",NA,NA,NA,2200,NA,NA,NA,"BLDU",NA,NA,NA,39,360,"2014-03-11 23:57",51.98,"KAMA 120006Z 36027G39KT 1 1/4SM BLDU OVC022 11/M01 A2990 RMK AO2 PK WND 36039/2357 TWR VIS 1 1/2 PRESRR T01111006"
"122874","AMA","2014-03-12 00:11:00",-101.7059,35.2194,51.08,30.92,45.81,10,31,0,29.91,NA,0.75,41,"OVC",NA,NA,NA,2300,NA,NA,NA,"BLDU",NA,NA,NA,41,360,"2014-03-12 00:08",51.08,"KAMA 120011Z 01031G41KT 3/4SM R04/P6000FT BLDU OVC023 11/M01 A2991 RMK AO2 PK WND 36041/0008 TWR VIS 1 1/2 T01061006"
"122875","AMA","2014-03-12 00:48:00",-101.7059,35.2194,46.4,30.2,53,360,32,0,29.96,NA,0.5,40,"OVC",NA,NA,NA,2200,NA,NA,NA,"BLDU",NA,NA,NA,41,360,"2014-03-12 00:08",36.21,"KAMA 120048Z 36032G40KT 1/2SM R04/P6000FT BLDU OVC022 08/M01 A2996 RMK AO2 PK WND 36041/0008 TWR VIS 1 1/2 PRESRR"
"122876","AMA","2014-03-12 00:53:00",-101.7059,35.2194,46.04,30.92,55.32,360,32,0,29.97,1013.6,0.75,40,"OVC",NA,NA,NA,2200,NA,NA,NA,"BLDU",NA,NA,NA,41,360,"2014-03-12 00:08",35.71,"KAMA 120053Z 36032G40KT 3/4SM R04/P6000FT BLDU OVC022 08/M01 A2997 RMK AO2 PK WND 36041/0008 TWR VIS 1 1/2 PRESRR SLP136 T00781006"
"122877","AMA","2014-03-12 01:00:00",-101.7059,35.2194,46.04,30.92,55.32,10,29,0,29.97,NA,1.25,39,"OVC",NA,NA,NA,2300,NA,NA,NA,"BLDU",NA,NA,NA,38,360,"2014-03-12 00:55",36.16,"KAMA 120100Z 01029G39KT 1 1/4SM BLDU OVC023 08/M01 A2997 RMK AO2 PK WND 36038/0055 TWR VIS 1 1/2 T00781006"
"122878","AMA","2014-03-12 01:38:00",-101.7059,35.2194,42.98,30.02,59.93,360,37,0,30.02,NA,0.75,47,"SCT","OVC",NA,NA,2200,2900,NA,NA,"BLDU",NA,NA,NA,47,360,"2014-03-12 01:35",30.75,"KAMA 120138Z 36037G47KT 3/4SM R04/P6000FT BLDU SCT022 OVC029 06/M01 A3002 RMK AO2 PK WND 36047/0135 TWR VIS 1 1/2 T00611011"
"122879","AMA","2014-03-12 01:46:00",-101.7059,35.2194,42.98,30.02,59.93,360,30,0,30.02,NA,0.5,46,"OVC",NA,NA,NA,2700,NA,NA,NA,"BLDU",NA,NA,NA,47,360,"2014-03-12 01:35",31.8,"KAMA 120146Z 36030G46KT 1/2SM R04/P6000FT BLDU OVC027 06/M01 A3002 RMK AO2 PK WND 36047/0135 TWR VIS 1 1/2 T00611011"
"122880","AMA","2014-03-12 01:53:00",-101.7059,35.2194,42.98,30.02,59.93,350,35,0,30.03,1015.3,0.75,48,"OVC",NA,NA,NA,2700,NA,NA,NA,"BLDU",NA,NA,NA,48,350,"2014-03-12 01:52",31.03,"KAMA 120153Z 35035G48KT 3/4SM R04/P6000FT BLDU OVC027 06/M01 A3003 RMK AO2 PK WND 35048/0152 TWR VIS 1 1/2 PRESRR SLP153 T00611011"
"122881","AMA","2014-03-12 02:19:00",-101.7059,35.2194,42.08,28.94,59.36,360,33,0,30.07,NA,0.5,45,"OVC",NA,NA,NA,2900,NA,NA,NA,"BLDU",NA,NA,NA,48,350,"2014-03-12 02:09",30.08,"KAMA 120219Z 36033G45KT 1/2SM R04/P6000FT BLDU OVC029 06/M02 A3007 RMK AO2 PK WND 35048/0209 TWR VIS 1 1/2 PRESRR T00561017"
"122882","AMA","2014-03-12 02:43:00",-101.7059,35.2194,39.92,28.04,62.21,360,37,0,30.1,NA,0.25,48,"FEW","OVC",NA,NA,300,2700,NA,NA,"BLDU",NA,NA,NA,50,350,"2014-03-12 02:33",26.46,"KAMA 120243Z 36037G48KT 1/4SM R04/P6000FT BLDU FEW003 OVC027 04/M02 A3010 RMK AO2 PK WND 35050/0233 TWR VIS 1 1/2 T00441022"
"122883","AMA","2014-03-12 02:53:00",-101.7059,35.2194,39.92,26.96,59.5,350,34,0,30.1,1017.7,0.5,46,"OVC",NA,NA,NA,2700,NA,NA,NA,"BLDU",NA,NA,NA,50,350,"2014-03-12 02:33",26.92,"KAMA 120253Z 35034G46KT 1/2SM R04/P6000FT BLDU OVC027 04/M03 A3010 RMK AO2 PK WND 35050/0233 TWR VIS 1 1/2 SLP177 T00441028 53043"
"122884","AMA","2014-03-12 03:02:00",-101.7059,35.2194,39.92,28.04,62.21,360,38,0,30.12,NA,0.5,52,"FEW","OVC",NA,NA,400,2700,NA,NA,"BLDU",NA,NA,NA,52,350,"2014-03-12 02:55",26.32,"KAMA 120302Z 36038G52KT 1/2SM R04/6000VP6000FT BLDU FEW004 OVC027 04/M02 A3012 RMK AO2 PK WND 35052/0255 TWR VIS 1 1/2 T00441022"
"122885","AMA","2014-03-12 03:27:00",-101.7059,35.2194,39.02,26.96,61.63,360,30,0,30.14,NA,0.75,45,"FEW","OVC",NA,NA,600,2700,NA,NA,"BLDU",NA,NA,NA,52,350,"2014-03-12 02:55",26.35,"KAMA 120327Z 36030G45KT 3/4SM R04/P6000FT BLDU FEW006 OVC027 04/M03 A3014 RMK AO2 PK WND 35052/0255 T00391028"
"122996","AMA","2014-03-16 01:29:00",-101.7059,35.2194,57.02,28.04,32.78,360,30,0,29.89,NA,1,42,"BKN","OVC",NA,NA,4000,7000,NA,NA,"BLDU",NA,NA,NA,43,10,"2014-03-16 01:18",57.02,"KAMA 160129Z 36030G42KT 1SM R04/P6000FT BLDU BKN040 OVC070 14/M02 A2989 RMK AO2 PK WND 01043/0118 TWR VIS 2 T01391022"
"122997","AMA","2014-03-16 01:36:00",-101.7059,35.2194,55.94,28.04,34.09,10,26,0,29.9,NA,2,42,"SCT","OVC",NA,NA,3700,7500,NA,NA,"BLDU",NA,NA,NA,43,10,"2014-03-16 01:18",55.94,"KAMA 160136Z 01026G42KT 2SM BLDU SCT037 OVC075 13/M02 A2990 RMK AO2 PK WND 01043/0118 T01331022"
"122998","AMA","2014-03-16 01:53:00",-101.7059,35.2194,55.94,24.98,30.04,10,25,0,29.91,1011.2,1.5,36,"FEW","OVC",NA,NA,1800,7500,NA,NA,"BLDU",NA,NA,NA,43,10,"2014-03-16 01:18",55.94,"KAMA 160153Z 01025G36KT 1 1/2SM BLDU FEW018 OVC075 13/M04 A2991 RMK AO2 PK WND 01043/0118 TWR VIS 2 SLP112 T01331039"
"122999","AMA","2014-03-16 02:02:00",-101.7059,35.2194,55.94,26.06,31.41,360,29,0,29.92,NA,2,35,"FEW","OVC",NA,NA,2800,7500,NA,NA,"BLDU",NA,NA,NA,35,360,"2014-03-16 02:02",55.94,"KAMA 160202Z 36029G35KT 2SM BLDU FEW028 OVC075 13/M03 A2992 RMK AO2 PK WND 36035/0202 SFC VIS 2 1/2 T01331033"
"123000","AMA","2014-03-16 02:06:00",-101.7059,35.2194,55.4,28.4,35.28,350,27,0,29.93,NA,1,43,"SCT","OVC",NA,NA,2200,7500,NA,NA,"BLDU",NA,NA,NA,NA,NA,NA,55.4,"KAMA 160206Z 35027G43KT 1SM R04/5000VP6000FT BLDU SCT022 OVC075 13/M02 A2993"
"123001","AMA","2014-03-16 02:09:00",-101.7059,35.2194,55.04,28.94,36.54,350,31,0,29.93,NA,0.75,43,"BKN","OVC",NA,NA,2200,7500,NA,NA,"BLDU",NA,NA,NA,43,360,"2014-03-16 02:04",55.04,"KAMA 160209Z 35031G43KT 3/4SM R04/5000VP6000FT BLDU BKN022 OVC075 13/M02 A2993 RMK AO2 PK WND 36043/0204 TWR VIS 2 PRESRR T01281017"
"123002","AMA","2014-03-16 02:31:00",-101.7059,35.2194,53.96,28.94,38.01,350,33,0,29.96,NA,1,43,"OVC",NA,NA,NA,2600,NA,NA,NA,"BLDU",NA,NA,NA,46,350,"2014-03-16 02:11",53.96,"KAMA 160231Z 35033G43KT 1SM R04/P6000FT BLDU OVC026 12/M02 A2996 RMK AO2 PK WND 35046/0211 T01221017"
"123003","AMA","2014-03-16 02:43:00",-101.7059,35.2194,53.06,28.94,39.28,360,26,0,29.97,NA,0.75,41,"OVC",NA,NA,NA,2400,NA,NA,NA,"BLDU",NA,NA,NA,46,350,"2014-03-16 02:11",53.06,"KAMA 160243Z 36026G41KT 3/4SM R04/P6000FT BLDU OVC024 12/M02 A2997 RMK AO2 PK WND 35046/0211 TWR VIS 1 T01171017"
"123004","AMA","2014-03-16 02:53:00",-101.7059,35.2194,53.06,28.94,39.28,360,33,0,29.97,1012.9,0.75,45,"BKN","OVC",NA,NA,2600,9000,NA,NA,"BLDU",NA,NA,NA,46,350,"2014-03-16 02:11",53.06,"KAMA 160253Z 36033G45KT 3/4SM R04/P6000FT BLDU BKN026 OVC090 12/M02 A2997 RMK AO2 PK WND 35046/0211 TWR VIS 1 SLP129 T01171017 53033"
"123005","AMA","2014-03-16 03:05:00",-101.7059,35.2194,51.98,28.94,40.88,360,29,0,29.99,NA,1.5,38,"BKN","OVC",NA,NA,2400,9000,NA,NA,"BLDU",NA,NA,NA,39,360,"2014-03-16 02:55",51.98,"KAMA 160305Z 36029G38KT 1 1/2SM BLDU BKN024 OVC090 11/M02 A2999 RMK AO2 PK WND 36039/0255 TWR VIS 2 T01111017"
"123006","AMA","2014-03-16 03:31:00",-101.7059,35.2194,51.08,28.94,42.26,360,36,0,30.01,NA,0.75,46,"BKN","OVC",NA,NA,2400,9500,NA,NA,"BLDU",NA,NA,NA,46,360,"2014-03-16 03:31",51.08,"KAMA 160331Z 36036G46KT 3/4SM R04/P6000FT BLDU BKN024 OVC095 11/M02 A3001 RMK AO2 PK WND 36046/0331 TWR VIS 2 T01061017"
"123007","AMA","2014-03-16 03:34:00",-101.7059,35.2194,51.08,28.94,42.26,360,38,0,30.01,NA,0.5,49,"SCT","OVC",NA,NA,2400,9500,NA,NA,"BLDU",NA,NA,NA,49,350,"2014-03-16 03:33",51.08,"KAMA 160334Z 36038G49KT 1/2SM R04/P6000FT BLDU SCT024 OVC095 11/M02 A3001 RMK AO2 PK WND 35049/0333 TWR VIS 2 T01061017"
"123008","AMA","2014-03-16 03:50:00",-101.7059,35.2194,50,28.4,43.03,360,36,0,30.02,NA,0.5,46,"BKN","OVC",NA,NA,1600,9500,NA,NA,"BLDU",NA,NA,NA,49,350,"2014-03-16 03:33",40.7,"KAMA 160350Z 36036G46KT 1/2SM R04/P6000FT BLDU BKN016 OVC095 10/M02 A3002 RMK AO2 PK WND 35049/0333 TWR VIS 1"
"123009","AMA","2014-03-16 03:53:00",-101.7059,35.2194,50,28.94,43.99,360,35,0,30.02,1014.3,0.5,46,"BKN","OVC",NA,NA,1400,9500,NA,NA,"BLDU",NA,NA,NA,49,350,"2014-03-16 03:33",40.82,"KAMA 160353Z 36035G46KT 1/2SM R04/P6000FT BLDU BKN014 OVC095 10/M02 A3002 RMK AO2 PK WND 35049/0333 TWR VIS 1 SLP143 T01001017"
"123010","AMA","2014-03-16 04:04:00",-101.7059,35.2194,48.92,30.02,47.86,350,32,0,30.03,NA,0.75,44,"BKN","OVC",NA,NA,1600,10000,NA,NA,"BLDU",NA,NA,NA,44,360,"2014-03-16 03:57",39.7,"KAMA 160404Z 35032G44KT 3/4SM R04/P6000FT BLDU BKN016 OVC100 09/M01 A3003 RMK AO2 PK WND 36044/0357 TWR VIS 1 T00941011"
"123011","AMA","2014-03-16 04:10:00",-101.7059,35.2194,48.92,30.02,47.86,360,34,0,30.04,NA,1.75,42,"BKN","OVC",NA,NA,2000,10000,NA,NA,"BLDU",NA,NA,NA,44,360,"2014-03-16 03:57",39.44,"KAMA 160410Z 36034G42KT 1 3/4SM BLDU BKN020 OVC100 09/M01 A3004 RMK AO2 PK WND 36044/0357 TWR VIS 2 T00941011"
"123012","AMA","2014-03-16 04:20:00",-101.7059,35.2194,48.02,30.02,49.5,360,34,0,30.04,NA,0.75,43,"BKN","OVC",NA,NA,2000,10000,NA,NA,"BLDU",NA,NA,NA,44,360,"2014-03-16 03:57",38.19,"KAMA 160420Z 36034G43KT 3/4SM R04/P6000FT BLDU BKN020 OVC100 09/M01 A3004 RMK AO2 PK WND 36044/0357 TWR VIS 1 1/2 T00891011"
"123013","AMA","2014-03-16 04:38:00",-101.7059,35.2194,46.94,30.02,51.55,350,27,0,30.06,NA,1,44,"SCT","BKN","OVC",NA,2000,8000,9000,NA,"BLDU",NA,NA,NA,47,360,"2014-03-16 04:26",37.71,"KAMA 160438Z AUTO 35027G44KT 1SM R04/P6000FT BLDU SCT020 BKN080 OVC090 08/M01 A3006 RMK AO2 PK WND 36047/0426 TWR VIS 1 1/2 T00831011"
"123014","AMA","2014-03-16 04:41:00",-101.7059,35.2194,46.04,30.02,53.33,360,28,0,30.06,NA,1.25,38,"BKN","OVC",NA,NA,2000,8000,NA,NA,"BLDU",NA,NA,NA,47,360,"2014-03-16 04:26",36.32,"KAMA 160441Z AUTO 36028G38KT 1 1/4SM BLDU BKN020 OVC080 08/M01 A3006 RMK AO2 PK WND 36047/0426 TWR VIS 1 1/2 T00781011"
"123097","AMA","2014-03-18 21:31:00",-101.7059,35.2194,59,12.92,16.05,350,29,0,29.73,NA,0.75,37,"SCT","SCT",NA,NA,2100,2900,NA,NA,"HZ BLDU",NA,NA,NA,37,340,"2014-03-18 21:24",59,"KAMA 182131Z 35029G37KT 3/4SM R04/P6000FT HZ BLDU SCT021 SCT029 15/M11 A2973 RMK AO2 PK WND 34037/2124 SFC VIS 1 3/4 T01501106"
"123098","AMA","2014-03-18 21:53:00",-101.7059,35.2194,57.92,12.02,16.03,340,26,0,29.75,1004.4,1,33,"BKN","OVC",NA,NA,2600,3400,NA,NA,"HZ BLDU",NA,NA,NA,37,340,"2014-03-18 21:24",57.92,"KAMA 182153Z 34026G33KT 1SM R04/P6000FT HZ BLDU BKN026 OVC034 14/M11 A2975 RMK AO2 PK WND 34037/2124 SFC VIS 2 SLP044 T01441111"
"123099","AMA","2014-03-18 22:13:00",-101.7059,35.2194,57.02,10.04,15.16,340,26,0,29.77,NA,1.5,34,"BKN","OVC",NA,NA,3000,3900,NA,NA,"HZ BLDU",NA,NA,NA,37,350,"2014-03-18 22:02",57.02,"KAMA 182213Z 34026G34KT 1 1/2SM HZ BLDU BKN030 OVC039 14/M12 A2977 RMK AO2 PK WND 35037/2202 SFC VIS 2 1/2 T01391122"
"123100","AMA","2014-03-18 22:39:00",-101.7059,35.2194,55.04,12.02,17.79,350,31,0,29.79,NA,1.25,39,"BKN","OVC",NA,NA,2800,3700,NA,NA,"HZ BLDU",NA,NA,NA,39,340,"2014-03-18 22:30",55.04,"KAMA 182239Z 35031G39KT 1 1/4SM HZ BLDU BKN028 OVC037 13/M11 A2979 RMK AO2 PK WND 34039/2230 SFC VIS 1 1/2 T01281111"
"123101","AMA","2014-03-18 22:53:00",-101.7059,35.2194,53.96,15.08,21.17,350,33,0,29.8,1006.8,1,43,"BKN","OVC",NA,NA,2400,3200,NA,NA,"HZ BLDU",NA,NA,NA,43,350,"2014-03-18 22:53",53.96,"KAMA 182253Z 35033G43KT 1SM R04/P6000FT HZ BLDU BKN024 OVC032 12/M09 A2980 RMK AO2 PK WND 35043/2253 SLP068 T01221094"
"123102","AMA","2014-03-18 23:36:00",-101.7059,35.2194,51.08,15.08,23.54,340,25,0,29.85,NA,0.75,41,"BKN","OVC",NA,NA,2300,3400,NA,NA,"HZ BLDU",NA,NA,NA,41,350,"2014-03-18 23:27",51.08,"KAMA 182336Z 34025G41KT 3/4SM R04/4500VP6000FT HZ BLDU BKN023 OVC034 11/M09 A2985 RMK AO2 PK WND 35041/2327 SFC VIS 1 T01061094"
"123103","AMA","2014-03-18 23:51:00",-101.7059,35.2194,50,17.6,27.33,340,28,0,29.87,NA,0.5,37,"VV ",NA,NA,NA,1900,NA,NA,NA,"HZ BLDU",NA,NA,NA,41,350,"2014-03-18 23:27",41.73,"KAMA 182351Z 34028G37KT 1/2SM R04/5000VP6000FT HZ BLDU VV019 10/M08 A2987 RMK AO2 PK WND 35041/2327 SFC VIS 1 PRESRR"
"123104","AMA","2014-03-18 23:53:00",-101.7059,35.2194,50,17.06,26.7,350,32,0,29.87,1009.8,0.5,39,"VV ",NA,NA,NA,1900,NA,NA,NA,"HZ BLDU",NA,NA,NA,41,350,"2014-03-18 23:27",41.19,"KAMA 182353Z 35032G39KT 1/2SM R04/5000VP6000FT HZ BLDU VV019 10/M08 A2987 RMK AO2 PK WND 35041/2327 SFC VIS 1 PRESRR SLP098 T01001083 10183 20100 51035"
"123105","AMA","2014-03-19 00:53:00",-101.7059,35.2194,44.06,19.94,37.79,350,26,0,29.95,1013.4,0.5,35,"VV ",NA,NA,NA,1700,NA,NA,NA,"HZ BLDU",NA,NA,NA,43,360,"2014-03-19 00:23",33.96,"KAMA 190053Z 35026G35KT 1/2SM R04/P6000FT HZ BLDU VV017 07/M07 A2995 RMK AO2 PK WND 36043/0023 SFC VIS 1 SLP134 T00671067"
"123106","AMA","2014-03-19 01:20:00",-101.7059,35.2194,42.08,19.94,40.77,360,30,0,29.98,NA,0.75,41,"OVC",NA,NA,NA,1700,NA,NA,NA,"HZ BLDU",NA,NA,NA,41,350,"2014-03-19 01:14",30.56,"KAMA 190120Z 36030G41KT 3/4SM R04/P6000FT HZ BLDU OVC017 06/M07 A2998 RMK AO2 PK WND 35041/0114 SFC VIS 1 3/4 PRESRR T00561067"
"123107","AMA","2014-03-19 01:31:00",-101.7059,35.2194,42.08,19.94,40.77,350,28,0,29.98,NA,1,36,"OVC",NA,NA,NA,1900,NA,NA,NA,"HZ BLDU",NA,NA,NA,41,350,"2014-03-19 01:14",30.9,"KAMA 190131Z 35028G36KT 1SM R04/P6000FT HZ BLDU OVC019 06/M07 A2998 RMK AO2 PK WND 35041/0114 SFC VIS 2 T00561067"
"123108","AMA","2014-03-19 01:53:00",-101.7059,35.2194,41,21.02,44.51,350,29,0,30,1015,1,38,"OVC",NA,NA,NA,2100,NA,NA,NA,"HZ BLDU",NA,NA,NA,41,350,"2014-03-19 01:14",29.25,"KAMA 190153Z 35029G38KT 1SM R04/P6000FT HZ BLDU OVC021 05/M06 A3000 RMK AO2 PK WND 35041/0114 SFC VIS 2 1/2 SLP150 T00501061"
"123109","AMA","2014-03-19 01:58:00",-101.7059,35.2194,41,21.02,44.51,350,23,0,30,NA,3,38,"OVC",NA,NA,NA,2100,NA,NA,NA,"HZ BLDU",NA,NA,NA,34,350,"2014-03-19 01:55",30.41,"KAMA 190158Z 35023G38KT 3SM HZ BLDU OVC021 05/M06 A3000 RMK AO2 PK WND 35034/0155 T00501061"
"123110","AMA","2014-03-19 02:53:00",-101.7059,35.2194,39.02,19.94,45.91,350,25,0,30.04,1016.1,5,30,"OVC",NA,NA,NA,1900,NA,NA,NA,"HZ BLDU",NA,NA,NA,34,350,"2014-03-19 01:55",27.32,"KAMA 190253Z 35025G30KT 5SM HZ BLDU OVC019 04/M07 A3004 RMK AO2 PK WND 35034/0155 SLP161 T00391067 51051"
"123111","AMA","2014-03-19 03:53:00",-101.7059,35.2194,37.04,19.94,49.62,350,19,0,30.07,1017.3,6,26,"OVC",NA,NA,NA,2000,NA,NA,NA,"HZ BLDU",NA,NA,NA,33,360,"2014-03-19 03:03",26.1,"KAMA 190353Z 35019G26KT 6SM HZ BLDU OVC020 03/M07 A3007 RMK AO2 PK WND 36033/0303 SLP173 T00281067"
"123112","AMA","2014-03-19 04:36:00",-101.7059,35.2194,35.96,19.94,51.78,350,16,0,30.09,NA,9,25,"SCT",NA,NA,NA,1900,NA,NA,NA,"BLDU",NA,NA,NA,29,350,"2014-03-19 04:20",25.58,"KAMA 190436Z 35016G25KT 9SM BLDU SCT019 02/M07 A3009 RMK AO2 PK WND 35029/0420 T00221067"
"123113","AMA","2014-03-19 04:53:00",-101.7059,35.2194,35.96,19.94,51.78,350,17,0,30.09,1017.9,10,NA,"CLR",NA,NA,NA,NA,NA,NA,NA,"BLDU",NA,NA,NA,29,350,"2014-03-19 04:20",25.26,"KAMA 190453Z 35017KT 10SM BLDU CLR 02/M07 A3009 RMK AO2 PK WND 35029/0420 SLP179 T00221067"
"123114","AMA","2014-03-19 05:53:00",-101.7059,35.2194,33.98,19.94,56.02,350,15,0,30.09,1017.6,10,NA,"CLR",NA,NA,NA,NA,NA,NA,NA,"BLDU",NA,NA,NA,26,360,"2014-03-19 05:08",23.35,"KAMA 190553Z AUTO 35015KT 10SM BLDU CLR 01/M07 A3009 RMK AO2 PK WND 36026/0508 SLP176 T00111067 10094 20011 401830011 50015"
"123115","AMA","2014-03-19 06:53:00",-101.7059,35.2194,33.08,21.02,60.81,340,13,0,30.1,1018,10,NA,"CLR",NA,NA,NA,NA,NA,NA,NA,"BLDU",NA,NA,NA,NA,NA,NA,22.95,"KAMA 190653Z AUTO 34013KT 10SM BLDU CLR 01/M06 A3010 RMK AO2 SLP180 T00061061"
"123116","AMA","2014-03-19 07:53:00",-101.7059,35.2194,33.08,21.02,60.81,330,13,0,30.12,1018.6,10,NA,"CLR",NA,NA,NA,NA,NA,NA,NA,"BLDU",NA,NA,NA,NA,NA,NA,22.95,"KAMA 190753Z AUTO 33013KT 10SM BLDU CLR 01/M06 A3012 RMK AO2 SLP186 T00061061"
"123117","AMA","2014-03-19 08:53:00",-101.7059,35.2194,32,21.02,63.51,320,9,0,30.13,1018.8,10,NA,"CLR",NA,NA,NA,NA,NA,NA,NA,"BLDU",NA,NA,NA,NA,NA,NA,23.51,"KAMA 190853Z AUTO 32009KT 10SM BLDU CLR 00/M06 A3013 RMK AO2 SLP188 T00001061 53013"
"123118","AMA","2014-03-19 09:53:00",-101.7059,35.2194,30.92,21.02,66.34,320,13,0,30.14,1019.8,10,NA,"CLR",NA,NA,NA,NA,NA,NA,NA,"BLDU",NA,NA,NA,NA,NA,NA,20.18,"KAMA 190953Z AUTO 32013KT 10SM BLDU CLR M01/M06 A3014 RMK AO2 SLP198 T10061061"
"123119","AMA","2014-03-19 10:53:00",-101.7059,35.2194,30.92,21.02,66.34,320,12,0,30.16,1020.9,10,NA,"CLR",NA,NA,NA,NA,NA,NA,NA,"BLDU",NA,NA,NA,NA,NA,NA,20.63,"KAMA 191053Z 32012KT 10SM BLDU CLR M01/M06 A3016 RMK AO2 SLP209 T10061061"
"123120","AMA","2014-03-19 11:53:00",-101.7059,35.2194,30.02,21.02,68.81,320,10,0,30.19,1022.2,10,NA,"CLR",NA,NA,NA,NA,NA,NA,NA,"BLDU",NA,NA,NA,NA,NA,NA,20.49,"KAMA 191153Z 32010KT 10SM BLDU CLR M01/M06 A3019 RMK AO2 SLP222 T10111061 10011 21011 53018"
"123318","AMA","2014-03-26 20:53:00",-101.7059,35.2194,64.04,46.94,53.73,190,31,0,29.66,1001.7,10,40,"CLR",NA,NA,NA,NA,NA,NA,NA,"BLDU",NA,NA,NA,40,190,"2014-03-26 20:53",64.04,"KAMA 262053Z 19031G40KT 10SM BLDU CLR 18/08 A2966 RMK AO2 PK WND 19040/2053 SLP017 T01780083 56044"
"123319","AMA","2014-03-26 21:53:00",-101.7059,35.2194,66.92,46.94,48.6,190,26,0,29.64,1000.7,10,35,"CLR",NA,NA,NA,NA,NA,NA,NA,"BLDU",NA,NA,NA,39,190,"2014-03-26 21:00",66.92,"KAMA 262153Z 19026G35KT 10SM BLDU CLR 19/08 A2964 RMK AO2 PK WND 19039/2100 SLP007 T01940083"
"123320","AMA","2014-03-26 22:53:00",-101.7059,35.2194,66.92,46.04,46.98,190,28,0,29.61,1000,10,35,"CLR",NA,NA,NA,NA,NA,NA,NA,"BLDU",NA,NA,NA,40,180,"2014-03-26 22:23",66.92,"KAMA 262253Z 19028G35KT 10SM BLDU CLR 19/08 A2961 RMK AO2 PK WND 18040/2223 SLP000 T01940078"
"123321","AMA","2014-03-26 23:53:00",-101.7059,35.2194,69.08,35.06,28.49,210,22,0,29.59,999.1,7,27,"CLR",NA,NA,NA,NA,NA,NA,NA,"BLDU",NA,NA,NA,38,180,"2014-03-26 23:10",69.08,"KAMA 262353Z 21022G27KT 7SM BLDU CLR 21/02 A2959 RMK AO2 PK WND 18038/2310 SLP991 T02060017 10206 20111 56023"
"123337","AMA","2014-03-27 13:53:00",-101.7059,35.2194,55.04,23,28.57,260,29,0,29.63,1000.2,2,39,"SCT",NA,NA,NA,800,NA,NA,NA,"BLDU",NA,NA,NA,39,260,"2014-03-27 13:44",55.04,"KAMA 271353Z 26029G39KT 2SM BLDU SCT008 13/M05 A2963 RMK AO2 PK WND 26039/1344 VIS 1V5 SLP002 T01281050"
"123338","AMA","2014-03-27 14:00:00",-101.7059,35.2194,55.4,24.8,30.4,250,25,0,29.64,NA,2,39,"BKN",NA,NA,NA,1000,NA,NA,NA,"BLDU",NA,NA,NA,NA,NA,NA,55.4,"KAMA 271400Z 25025G39KT 2SM BLDU BKN010 13/M04 A2964"
"123339","AMA","2014-03-27 14:28:00",-101.7059,35.2194,55.4,24.8,30.4,260,24,0,29.66,NA,4,39,"BKN",NA,NA,NA,1300,NA,NA,NA,"BLDU",NA,NA,NA,NA,NA,NA,55.4,"KAMA 271428Z 26024G39KT 4SM BLDU BKN013 13/M04 A2966"
"123340","AMA","2014-03-27 14:36:00",-101.7059,35.2194,57.02,24.98,28.89,260,26,0,29.65,NA,6,34,"SCT",NA,NA,NA,1300,NA,NA,NA,"BLDU",NA,NA,NA,40,250,"2014-03-27 14:17",57.02,"KAMA 271436Z 26026G34KT 6SM BLDU SCT013 14/M04 A2965 RMK AO2 PK WND 25040/1417 T01391039"
"123341","AMA","2014-03-27 14:53:00",-101.7059,35.2194,57.92,24.98,27.96,250,25,0,29.65,1000.6,5,34,"FEW",NA,NA,NA,2100,NA,NA,NA,"BLDU",NA,NA,NA,40,250,"2014-03-27 14:17",57.92,"KAMA 271453Z 25025G34KT 5SM BLDU FEW021 14/M04 A2965 RMK AO2 PK WND 25040/1417 SLP006 T01441039 53009"
"123342","AMA","2014-03-27 15:05:00",-101.7059,35.2194,57.92,24.98,27.96,260,19,0,29.67,NA,3,34,"BKN",NA,NA,NA,2100,NA,NA,NA,"BLDU",NA,NA,NA,35,260,"2014-03-27 14:55",57.92,"KAMA 271505Z 26019G34KT 3SM BLDU BKN021 14/M04 A2967 RMK AO2 PK WND 26035/1455 T01441039"
"123343","AMA","2014-03-27 15:22:00",-101.7059,35.2194,60.08,24.08,24.93,260,24,0,29.66,NA,10,30,"SCT",NA,NA,NA,2100,NA,NA,NA,"BLDU",NA,NA,NA,35,260,"2014-03-27 14:55",60.08,"KAMA 271522Z 26024G30KT 10SM BLDU SCT021 16/M04 A2966 RMK AO2 PK WND 26035/1455 T01561044"
"123344","AMA","2014-03-27 15:53:00",-101.7059,35.2194,62.06,21.92,21.22,270,24,0,29.66,1000.8,10,36,"CLR",NA,NA,NA,NA,NA,NA,NA,"BLDU",NA,NA,NA,36,270,"2014-03-27 15:53",62.06,"KAMA 271553Z 27024G36KT 10SM BLDU CLR 17/M06 A2966 RMK AO2 PK WND 27036/1553 SLP008 T01671056"
"123345","AMA","2014-03-27 16:53:00",-101.7059,35.2194,64.94,19.94,17.64,270,22,0,29.68,1001.5,10,33,"CLR",NA,NA,NA,NA,NA,NA,NA,"BLDU",NA,NA,NA,38,280,"2014-03-27 16:07",64.94,"KAMA 271653Z 27022G33KT 10SM BLDU CLR 18/M07 A2968 RMK AO2 PK WND 28038/1607 SLP015 T01831067"
"123346","AMA","2014-03-27 17:53:00",-101.7059,35.2194,69.08,15.08,12.4,270,25,0,29.68,1001.5,10,30,"CLR",NA,NA,NA,NA,NA,NA,NA,"BLDU",NA,NA,NA,34,270,"2014-03-27 17:03",69.08,"KAMA 271753Z 27025G30KT 10SM BLDU CLR 21/M09 A2968 RMK AO2 PK WND 27034/1703 SLP015 T02061094 10206 20111 51010"
"123347","AMA","2014-03-27 18:53:00",-101.7059,35.2194,71.96,12.92,10.22,280,19,0,29.69,1001.4,10,27,"CLR",NA,NA,NA,NA,NA,NA,NA,"BLDU",NA,NA,NA,31,270,"2014-03-27 18:05",69.34,"KAMA 271853Z 28019G27KT 10SM BLDU CLR 22/M11 A2969 RMK AO2 PK WND 27031/1805 SLP014 T02221106"
"123520","AMA","2014-04-03 19:53:00",-101.7059,35.2194,64.94,3.02,8.32,240,31,0,29.75,1003.7,2,39,"BKN","OVC",NA,NA,2700,3600,NA,NA,"HZ BLDU",NA,NA,NA,52,230,"2014-04-03 19:26",64.94,"KAMA 031953Z AUTO 24031G39KT 2SM HZ BLDU BKN027 OVC036 18/M16 A2975 RMK AO2 PK WND 23052/1926 SFC VIS 2 1/2 VIS 1 3/4V4 SLP037 T01831161"
"123521","AMA","2014-04-03 20:01:00",-101.7059,35.2194,64.04,5,9.41,230,30,0,29.76,NA,3,43,"OVC",NA,NA,NA,3300,NA,NA,NA,"HZ BLDU",NA,NA,NA,43,240,"2014-04-03 19:57",64.04,"KAMA 032001Z 23030G43KT 3SM HZ BLDU OVC033 18/M15 A2976 RMK AO2 PK WND 24043/1957 T01781150"
"123522","AMA","2014-04-03 20:14:00",-101.7059,35.2194,64.4,6.8,10.08,240,34,0,29.76,NA,2.5,46,"BKN","OVC",NA,NA,3000,3500,NA,NA,"HZ BLDU",NA,NA,NA,NA,NA,NA,64.4,"KAMA 032014Z 24034G46KT 2 1/2SM HZ BLDU BKN030 OVC035 18/M14 A2976"
"123523","AMA","2014-04-03 20:22:00",-101.7059,35.2194,62.6,8.6,11.65,240,26,0,29.76,NA,7,43,"OVC",NA,NA,NA,3200,NA,NA,NA,"BLDU",NA,NA,NA,NA,NA,NA,62.6,"KAMA 032022Z 24026G43KT 7SM BLDU OVC032 17/M13 A2976"
"123524","AMA","2014-04-03 20:53:00",-101.7059,35.2194,62.96,6.98,10.69,240,22,0,29.76,1004.3,10,35,"BKN",NA,NA,NA,3500,NA,NA,NA,"BLDU",NA,NA,NA,46,240,"2014-04-03 20:07",62.96,"KAMA 032053Z 24022G35KT 10SM BLDU BKN035 17/M14 A2976 RMK AO2 PK WND 24046/2007 SLP043 T01721139 53004"
"123525","AMA","2014-04-03 21:53:00",-101.7059,35.2194,62.96,10.04,12.27,270,18,0,29.78,1005,10,28,"SCT",NA,NA,NA,11000,NA,NA,NA,"BLDU",NA,NA,NA,39,240,"2014-04-03 21:00",62.96,"KAMA 032153Z 27018G28KT 10SM BLDU SCT110 17/M12 A2978 RMK AO2 PK WND 24039/2100 SLP050 T01721122"
"123526","AMA","2014-04-03 22:09:00",-101.7059,35.2194,62.96,23,21.52,330,25,0,29.8,NA,5,31,"FEW","BKN",NA,NA,900,11000,NA,NA,"HZ BLDU",NA,NA,NA,31,290,"2014-04-03 22:02",62.96,"KAMA 032209Z 33025G31KT 5SM HZ BLDU FEW009 BKN110 17/M05 A2980 RMK AO2 PK WND 29031/2202 WSHFT 2155 T01721050"
"123527","AMA","2014-04-03 22:42:00",-101.7059,35.2194,55.4,30.2,37.97,320,31,0,29.87,NA,1.5,40,"BKN","BKN",NA,NA,1500,11000,NA,NA,"HZ BLDU",NA,NA,NA,NA,NA,NA,55.4,"KAMA 032242Z 32031G40KT 1 1/2SM HZ BLDU BKN015 BKN110 13/M01 A2987"
"123528","AMA","2014-04-03 22:53:00",-101.7059,35.2194,55.04,30.02,38.19,340,28,0,29.87,1008.6,2.5,39,"BKN","OVC",NA,NA,2100,11000,NA,NA,"HZ BLDU",NA,NA,NA,40,320,"2014-04-03 22:36",55.04,"KAMA 032253Z 34028G39KT 2 1/2SM HZ BLDU BKN021 OVC110 13/M01 A2987 RMK AO2 PK WND 32040/2236 WSHFT 2155 TWR VIS 4 SLP086 T01281011"
"123529","AMA","2014-04-03 23:00:00",-101.7059,35.2194,55.4,30.2,37.97,330,27,0,29.87,NA,4,36,"BKN","OVC",NA,NA,2300,3300,NA,NA,"HZ BLDU",NA,NA,NA,NA,NA,NA,55.4,"KAMA 032300Z 33027G36KT 4SM HZ BLDU BKN023 OVC033 13/M01 A2987"
"123530","AMA","2014-04-03 23:22:00",-101.7059,35.2194,53.96,30.02,39.72,340,27,0,29.91,NA,6,34,"BKN",NA,NA,NA,3300,NA,NA,NA,"HZ BLDU",NA,NA,NA,34,340,"2014-04-03 23:20",53.96,"KAMA 032322Z 34027G34KT 6SM HZ BLDU BKN033 12/M01 A2991 RMK AO2 PK WND 34034/2320 PRESRR T01221011"
"123531","AMA","2014-04-03 23:53:00",-101.7059,35.2194,51.08,28.94,42.26,340,24,0,29.95,1012.5,9,32,"BKN",NA,NA,NA,3200,NA,NA,NA,"BLDU",NA,NA,NA,36,340,"2014-04-03 23:32",51.08,"KAMA 032353Z 34024G32KT 9SM BLDU BKN032 11/M02 A2995 RMK AO2 PK WND 34036/2332 SLP125 T01061017 10189 20106 53057"
"123532","AMA","2014-04-04 00:53:00",-101.7059,35.2194,46.04,26.06,45.33,350,31,0,30.01,1015.2,7,37,"CLR",NA,NA,NA,NA,NA,NA,NA,"BLDU",NA,NA,NA,37,350,"2014-04-04 00:52",35.86,"KAMA 040053Z 35031G37KT 7SM BLDU CLR 08/M03 A3001 RMK AO2 PK WND 35037/0052 SLP152 T00781033"
"123533","AMA","2014-04-04 01:53:00",-101.7059,35.2194,42.08,26.96,54.73,350,19,0,30.04,1016.7,10,26,"CLR",NA,NA,NA,NA,NA,NA,NA,"BLDU",NA,NA,NA,36,350,"2014-04-04 00:59",32.77,"KAMA 040153Z 35019G26KT 10SM BLDU CLR 06/M03 A3004 RMK AO2 PK WND 35036/0059 SLP167 T00561028"
"124097","AMA","2014-04-26 20:53:00",-101.7059,35.2194,86,12.92,6.44,200,27,0,29.56,995.1,10,34,"CLR",NA,NA,NA,NA,NA,NA,NA,"BLDU",NA,NA,NA,41,200,"2014-04-26 19:57",81.67,"KAMA 262053Z 20027G34KT 10SM BLDU CLR 30/M11 A2956 RMK AO2 PK WND 20041/1957 SLP951 T03001106 56027"
"124098","AMA","2014-04-26 21:53:00",-101.7059,35.2194,87.08,12.02,5.98,210,34,0,29.54,994.4,8,43,"BKN",NA,NA,NA,2100,NA,NA,NA,"BLDU",NA,NA,NA,43,210,"2014-04-26 21:53",82.41,"KAMA 262153Z 21034G43KT 8SM BLDU BKN021 31/M11 A2954 RMK AO2 PK WND 21043/2153 SLP944 T03061111"
"124099","AMA","2014-04-26 22:06:00",-101.7059,35.2194,87.08,12.02,5.98,200,30,0,29.53,NA,9,40,"SCT",NA,NA,NA,2300,NA,NA,NA,"BLDU",NA,NA,NA,40,200,"2014-04-26 22:01",82.41,"KAMA 262206Z 20030G40KT 9SM BLDU SCT023 31/M11 A2953 RMK AO2 PK WND 20040/2201 T03061111"
"124100","AMA","2014-04-26 22:16:00",-101.7059,35.2194,87.08,8.96,5.22,210,28,0,29.53,NA,7,45,"BKN","BKN",NA,NA,2500,3300,NA,NA,"BLDU",NA,NA,NA,45,200,"2014-04-26 22:11",82.32,"KAMA 262216Z 21028G45KT 7SM BLDU BKN025 BKN033 31/M13 A2953 RMK AO2 PK WND 20045/2211 T03061128"
"124101","AMA","2014-04-26 22:53:00",-101.7059,35.2194,87.08,12.02,5.98,200,31,0,29.52,993.9,8,43,"BKN","OVC",NA,NA,2900,3800,NA,NA,"BLDU",NA,NA,NA,45,200,"2014-04-26 22:11",82.41,"KAMA 262253Z 20031G43KT 8SM BLDU BKN029 OVC038 31/M11 A2952 RMK AO2 PK WND 20045/2211 SLP939 T03061111"
"124102","AMA","2014-04-26 23:23:00",-101.7059,35.2194,86,10.04,5.67,200,30,0,29.51,NA,6,42,"CLR",NA,NA,NA,NA,NA,NA,NA,"HZ BLDU",NA,NA,NA,44,210,"2014-04-26 23:03",81.57,"KAMA 262323Z 20030G42KT 6SM HZ BLDU CLR 30/M12 A2951 RMK AO2 PK WND 21044/2303 T03001122"
"124103","AMA","2014-04-26 23:53:00",-101.7059,35.2194,84.92,10.04,5.87,200,26,0,29.5,993.4,6,37,"CLR",NA,NA,NA,NA,NA,NA,NA,"BLDU",NA,NA,NA,44,190,"2014-04-26 23:30",80.81,"KAMA 262353Z 20026G37KT 6SM BLDU CLR 29/M12 A2950 RMK AO2 PK WND 19044/2330 SLP934 T02941122 10317 20289 58012"
"124104","AMA","2014-04-27 00:53:00",-101.7059,35.2194,82.04,5,5.13,210,28,0,29.49,993.2,9,38,"SCT",NA,NA,NA,3800,NA,NA,NA,"BLDU",NA,NA,NA,40,190,"2014-04-26 23:54",78.66,"KAMA 270053Z 21028G38KT 9SM BLDU SCT038 28/M15 A2949 RMK AO2 PK WND 19040/2354 SLP932 T02781150"
"124125","AMA","2014-04-27 15:53:00",-101.7059,35.2194,64.04,26.06,23.54,240,30,0,29.43,991.7,7,42,"BKN","OVC",NA,NA,2900,3700,NA,NA,"BLDU",NA,NA,NA,43,240,"2014-04-27 15:05",64.04,"KAMA 271553Z 24030G42KT 7SM BLDU BKN029 OVC037 18/M03 A2943 RMK AO2 PK WND 24043/1505 SLP917 T01781033"
"124126","AMA","2014-04-27 16:12:00",-101.7059,35.2194,66.02,24.98,21.01,240,29,0,29.43,NA,7,42,"BKN","OVC",NA,NA,3000,3700,NA,NA,"BLDU",NA,NA,NA,42,250,"2014-04-27 16:03",66.02,"KAMA 271612Z 24029G42KT 7SM BLDU BKN030 OVC037 19/M04 A2943 RMK AO2 PK WND 25042/1603 T01891039"
"124127","AMA","2014-04-27 16:53:00",-101.7059,35.2194,66.92,24.98,20.36,260,29,0,29.43,991.3,7,40,"OVC",NA,NA,NA,3300,NA,NA,NA,"BLDU",NA,NA,NA,43,240,"2014-04-27 16:16",66.92,"KAMA 271653Z 26029G40KT 7SM BLDU OVC033 19/M04 A2943 RMK AO2 PK WND 24043/1616 SLP913 T01941039"
"124128","AMA","2014-04-27 17:53:00",-101.7059,35.2194,71.06,24.08,17.02,250,23,0,29.42,991.3,10,35,"CLR",NA,NA,NA,NA,NA,NA,NA,"BLDU",NA,NA,NA,36,250,"2014-04-27 17:08",68.67,"KAMA 271753Z 25023G35KT 10SM BLDU CLR 22/M04 A2942 RMK AO2 PK WND 25036/1708 SLP913 T02171044 10217 20083 58005"
"124129","AMA","2014-04-27 18:53:00",-101.7059,35.2194,73.04,21.92,14.53,260,23,0,29.4,990.9,10,35,"CLR",NA,NA,NA,NA,NA,NA,NA,"BLDU",NA,NA,NA,35,250,"2014-04-27 18:50",70.73,"KAMA 271853Z 26023G35KT 10SM BLDU CLR 23/M06 A2940 RMK AO2 PK WND 25035/1850 SLP909 T02281056"
"124178","AMA","2014-04-29 14:53:00",-101.7059,35.2194,53.96,23,29.72,340,28,0,30.01,1013.7,2,39,"FEW","BKN",NA,NA,1100,6500,NA,NA,"HZ BLDU",NA,NA,NA,39,310,"2014-04-29 14:16",53.96,"KAMA 291453Z 34028G39KT 2SM HZ BLDU FEW011 BKN065 12/M05 A3001 RMK AO2 PK WND 31039/1416 SFC VIS 6 SLP137 T01221050 51011"
"124179","AMA","2014-04-29 15:02:00",-101.7059,35.2194,53.96,21.92,28.39,340,33,0,30.02,NA,3,41,"SCT","SCT","BKN",NA,2400,3500,6500,NA,"HZ BLDU",NA,NA,NA,41,340,"2014-04-29 15:02",53.96,"KAMA 291502Z 34033G41KT 3SM HZ BLDU SCT024 SCT035 BKN065 12/M06 A3002 RMK AO2 PK WND 34041/1502 SFC VIS 3 T01221056"
"124180","AMA","2014-04-29 15:14:00",-101.7059,35.2194,53.96,21.02,27.33,340,29,0,30.01,NA,2.5,42,"BKN","BKN","BKN",NA,2600,3900,6500,NA,"HZ BLDU",NA,NA,NA,42,320,"2014-04-29 15:12",53.96,"KAMA 291514Z 34029G42KT 2 1/2SM HZ BLDU BKN026 BKN039 BKN065 12/M06 A3001 RMK AO2 PK WND 32042/1512 TWR VIS 3 T01221061"
"124181","AMA","2014-04-29 15:28:00",-101.7059,35.2194,53.96,21.02,27.33,340,31,0,30.02,NA,1,45,"BKN","OVC",NA,NA,2700,3500,NA,NA,"HZ BLDU",NA,NA,NA,45,330,"2014-04-29 15:25",53.96,"KAMA 291528Z 34031G45KT 1SM R04/P6000FT HZ BLDU BKN027 OVC035 12/M06 A3002 RMK AO2 PK WND 33045/1525 SFC VIS 2 T01221061"
"124182","AMA","2014-04-29 15:53:00",-101.7059,35.2194,51.98,23,31.96,340,29,0,30.02,1014.3,1,40,"BKN","OVC",NA,NA,2200,3200,NA,NA,"HZ BLDU",NA,NA,NA,45,330,"2014-04-29 15:25",51.98,"KAMA 291553Z 34029G40KT 1SM R04/P6000FT HZ BLDU BKN022 OVC032 11/M05 A3002 RMK AO2 PK WND 33045/1525 SFC VIS 1 1/4 SLP143 T01111050"
"124183","AMA","2014-04-29 16:53:00",-101.7059,35.2194,53.06,21.92,29.35,340,29,0,30.03,1015,1.5,41,"BKN","OVC",NA,NA,2800,3500,NA,NA,"HZ BLDU",NA,NA,NA,44,340,"2014-04-29 16:37",53.06,"KAMA 291653Z 34029G41KT 1 1/2SM HZ BLDU BKN028 OVC035 12/M06 A3003 RMK AO2 PK WND 34044/1637 SFC VIS 3 SLP150 T01171056"
"124184","AMA","2014-04-29 17:21:00",-101.7059,35.2194,53.96,21.92,28.39,340,28,0,30.02,NA,1.5,41,"BKN","OVC",NA,NA,3000,3500,NA,NA,"HZ BLDU",NA,NA,NA,41,340,"2014-04-29 17:19",53.96,"KAMA 291721Z 34028G41KT 1 1/2SM HZ BLDU BKN030 OVC035 12/M06 A3002 RMK AO2 PK WND 34041/1719 SFC VIS 4 T01221056"
"124185","AMA","2014-04-29 17:53:00",-101.7059,35.2194,53.96,23,29.72,340,31,0,30.02,1014.9,1.5,39,"BKN","OVC",NA,NA,3000,4000,NA,NA,"HZ BLDU",NA,NA,NA,42,320,"2014-04-29 17:30",53.96,"KAMA 291753Z 34031G39KT 1 1/2SM HZ BLDU BKN030 OVC040 12/M05 A3002 RMK AO2 PK WND 32042/1730 SFC VIS 2 1/2 SLP149 T01221050 10128 20072 50003"
"124186","AMA","2014-04-29 18:15:00",-101.7059,35.2194,53.96,24.08,31.09,340,33,0,30.03,NA,1.5,42,"BKN","OVC",NA,NA,2900,3600,NA,NA,"HZ BLDU",NA,NA,NA,42,340,"2014-04-29 18:11",53.96,"KAMA 291815Z 34033G42KT 1 1/2SM HZ BLDU BKN029 OVC036 12/M04 A3003 RMK AO2 PK WND 34042/1811 SFC VIS 2 1/2 T01221044"
"124187","AMA","2014-04-29 18:53:00",-101.7059,35.2194,55.94,24.98,30.04,330,28,0,30.01,1014.2,1.5,41,"BKN","OVC",NA,NA,2500,3500,NA,NA,"HZ BLDU",NA,NA,NA,45,350,"2014-04-29 18:25",55.94,"KAMA 291853Z 33028G41KT 1 1/2SM HZ BLDU BKN025 OVC035 13/M04 A3001 RMK AO2 PK WND 35045/1825 SFC VIS 2 1/2 SLP142 T01331039"
"124188","AMA","2014-04-29 19:53:00",-101.7059,35.2194,55.94,24.98,30.04,350,30,0,30.01,1014.2,1.5,37,"BKN","OVC",NA,NA,2900,3600,NA,NA,"HZ BLDU",NA,NA,NA,40,320,"2014-04-29 19:37",55.94,"KAMA 291953Z AUTO 35030G37KT 1 1/2SM HZ BLDU BKN029 OVC036 13/M04 A3001 RMK AO2 PK WND 32040/1937 SFC VIS 2 SLP142 T01331039"
"124189","AMA","2014-04-29 20:07:00",-101.7059,35.2194,57.92,24.08,26.93,330,30,0,30,NA,1.5,38,"SCT","OVC",NA,NA,2500,3300,NA,NA,"HZ BLDU",NA,NA,NA,38,340,"2014-04-29 20:07",57.92,"KAMA 292007Z 33030G38KT 1 1/2SM HZ BLDU SCT025 OVC033 14/M04 A3000 RMK AO2 PK WND 34038/2007 SFC VIS 1 3/4 T01441044"
"124190","AMA","2014-04-29 20:15:00",-101.7059,35.2194,57.02,24.08,27.82,340,28,0,30,NA,1.5,38,"BKN","OVC",NA,NA,2600,3300,NA,NA,"HZ BLDU",NA,NA,NA,38,350,"2014-04-29 20:10",57.02,"KAMA 292015Z 34028G38KT 1 1/2SM HZ BLDU BKN026 OVC033 14/M04 A3000 RMK AO2 PK WND 35038/2010 SFC VIS 1 3/4 T01391044"
"124191","AMA","2014-04-29 20:53:00",-101.7059,35.2194,57.92,24.98,27.96,340,27,0,30,1013.6,1.5,40,"BKN","OVC",NA,NA,2600,3200,NA,NA,"HZ BLDU",NA,NA,NA,45,340,"2014-04-29 20:40",57.92,"KAMA 292053Z 34027G40KT 1 1/2SM HZ BLDU BKN026 OVC032 14/M04 A3000 RMK AO2 PK WND 34045/2040 SFC VIS 1 3/4 SLP136 T01441039 58007"
"124192","AMA","2014-04-29 21:53:00",-101.7059,35.2194,59,21.92,23.66,350,29,0,29.99,1013.3,1.5,39,"BKN","OVC",NA,NA,2800,3400,NA,NA,"HZ BLDU",NA,NA,NA,44,320,"2014-04-29 20:58",59,"KAMA 292153Z 35029G39KT 1 1/2SM HZ BLDU BKN028 OVC034 15/M06 A2999 RMK AO2 PK WND 32044/2058 SFC VIS 2 SLP133 T01501056"
"124193","AMA","2014-04-29 22:28:00",-101.7059,35.2194,57.02,23,26.59,330,29,0,30.01,NA,1.5,41,"BKN","OVC",NA,NA,3000,3800,NA,NA,"HZ BLDU",NA,NA,NA,42,320,"2014-04-29 22:01",57.02,"KAMA 292228Z 33029G41KT 1 1/2SM HZ BLDU BKN030 OVC038 14/M05 A3001 RMK AO2 PK WND 32042/2201 SFC VIS 2 T01391050"
"124194","AMA","2014-04-29 22:48:00",-101.7059,35.2194,57.2,23,26.42,350,28,0,30.01,NA,1.5,37,"BKN","OVC",NA,NA,2800,3500,NA,NA,"HZ BLDU",NA,NA,NA,42,320,"2014-04-29 22:01",57.2,"KAMA 292248Z 35028G37KT 1 1/2SM HZ BLDU BKN028 OVC035 14/M05 A3001 RMK AO2 PK WND 32042/2201 SFC VIS 2"
"124195","AMA","2014-04-29 22:53:00",-101.7059,35.2194,57.02,23,26.59,330,26,0,30.01,1014.3,1.5,39,"BKN","OVC",NA,NA,2800,3500,NA,NA,"HZ BLDU",NA,NA,NA,42,320,"2014-04-29 22:01",57.02,"KAMA 292253Z 33026G39KT 1 1/2SM HZ BLDU BKN028 OVC035 14/M05 A3001 RMK AO2 PK WND 32042/2201 SFC VIS 2 SLP143 T01391050"
"124196","AMA","2014-04-29 23:43:00",-101.7059,35.2194,57.02,21.02,24.46,340,32,0,30.02,NA,1.5,41,"BKN","OVC",NA,NA,3000,3800,NA,NA,"HZ BLDU",NA,NA,NA,41,330,"2014-04-29 23:39",57.02,"KAMA 292343Z 34032G41KT 1 1/2SM HZ BLDU BKN030 OVC038 14/M06 A3002 RMK AO2 PK WND 33041/2339 SFC VIS 2 1/2 T01391061"
"124197","AMA","2014-04-29 23:53:00",-101.7059,35.2194,57.02,21.02,24.46,340,31,0,30.02,1014.6,1.5,44,"OVC",NA,NA,NA,3200,NA,NA,NA,"HZ BLDU",NA,NA,NA,44,350,"2014-04-29 23:51",57.02,"KAMA 292353Z 34031G44KT 1 1/2SM HZ BLDU OVC032 14/M06 A3002 RMK AO2 PK WND 35044/2351 SFC VIS 3 SLP146 T01391061 10156 20117 51007"
"124198","AMA","2014-04-30 00:53:00",-101.7059,35.2194,53.96,24.08,31.09,350,25,0,30.04,1015.4,2,33,"OVC",NA,NA,NA,3200,NA,NA,NA,"HZ BLDU",NA,NA,NA,39,350,"2014-04-30 00:16",53.96,"KAMA 300053Z 35025G33KT 2SM HZ BLDU OVC032 12/M04 A3004 RMK AO2 PK WND 35039/0016 SFC VIS 3 SLP154 T01221044"
"124199","AMA","2014-04-30 01:41:00",-101.7059,35.2194,51.98,24.98,34.72,360,24,0,30.06,NA,3,29,"OVC",NA,NA,NA,3900,NA,NA,NA,"HZ BLDU",NA,NA,NA,38,360,"2014-04-30 00:57",51.98,"KAMA 300141Z 36024G29KT 3SM HZ BLDU OVC039 11/M04 A3006 RMK AO2 PK WND 36038/0057 SFC VIS 4 T01111039"
"124200","AMA","2014-04-30 01:53:00",-101.7059,35.2194,51.98,24.98,34.72,360,23,0,30.06,1015.9,3,32,"OVC",NA,NA,NA,3500,NA,NA,NA,"HZ BLDU",NA,NA,NA,38,360,"2014-04-30 00:57",51.98,"KAMA 300153Z 36023G32KT 3SM HZ BLDU OVC035 11/M04 A3006 RMK AO2 PK WND 36038/0057 SFC VIS 4 SLP159 T01111039"
"124201","AMA","2014-04-30 02:53:00",-101.7059,35.2194,50,24.98,37.36,360,26,0,30.1,1017.4,6,34,"OVC",NA,NA,NA,4000,NA,NA,NA,"HZ BLDU",NA,NA,NA,34,360,"2014-04-30 02:52",42.03,"KAMA 300253Z 36026G34KT 6SM HZ BLDU OVC040 10/M04 A3010 RMK AO2 PK WND 36034/0252 SLP174 T01001039 53026"
"124202","AMA","2014-04-30 03:53:00",-101.7059,35.2194,48.02,26.06,42.07,350,21,0,30.13,1018.7,8,28,"OVC",NA,NA,NA,3800,NA,NA,NA,"BLDU",NA,NA,NA,28,350,"2014-04-30 03:52",40.22,"KAMA 300353Z 35021G28KT 8SM BLDU OVC038 09/M03 A3013 RMK AO2 PK WND 35028/0352 SLP187 T00891033"
"124203","AMA","2014-04-30 04:53:00",-101.7059,35.2194,46.04,26.96,47.05,350,21,0,30.13,1018.8,10,27,"CLR",NA,NA,NA,NA,NA,NA,NA,"BLDU",NA,NA,NA,32,350,"2014-04-30 04:13",37.58,"KAMA 300453Z AUTO 35021G27KT 10SM BLDU CLR 08/M03 A3013 RMK AO2 PK WND 35032/0413 SLP188 T00781028"
"124204","AMA","2014-04-30 05:53:00",-101.7059,35.2194,44.06,28.04,53.03,360,18,0,30.16,1019.8,10,24,"FEW",NA,NA,NA,10000,NA,NA,NA,"BLDU",NA,NA,NA,29,360,"2014-04-30 04:54",35.62,"KAMA 300553Z AUTO 36018G24KT 10SM BLDU FEW100 07/M02 A3016 RMK AO2 PK WND 36029/0454 SLP198 T00671022 10139 20067 401560067 51017"
"124205","AMA","2014-04-30 06:53:00",-101.7059,35.2194,42.08,28.94,59.36,340,15,0,30.19,1020.9,10,22,"SCT",NA,NA,NA,10000,NA,NA,NA,"BLDU",NA,NA,NA,27,350,"2014-04-30 06:13",33.85,"KAMA 300653Z AUTO 34015G22KT 10SM BLDU SCT100 06/M02 A3019 RMK AO2 PK WND 35027/0613 SLP209 T00561017"
"124206","AMA","2014-04-30 07:53:00",-101.7059,35.2194,41,28.04,59.65,350,14,0,30.2,1021.3,10,26,"SCT",NA,NA,NA,11000,NA,NA,NA,"BLDU",NA,NA,NA,26,340,"2014-04-30 07:33",32.76,"KAMA 300753Z AUTO 35014G26KT 10SM BLDU SCT110 05/M02 A3020 RMK AO2 PK WND 34026/0733 SLP213 T00501022"
"124207","AMA","2014-04-30 08:53:00",-101.7059,35.2194,39.02,28.04,64.43,350,12,0,30.22,1021.8,10,NA,"SCT","BKN",NA,NA,3600,4300,NA,NA,"BLDU",NA,NA,NA,NA,NA,NA,30.94,"KAMA 300853Z AUTO 35012KT 10SM BLDU SCT036 BKN043 04/M02 A3022 RMK AO2 SLP218 T00391022 51018"
"124208","AMA","2014-04-30 09:28:00",-101.7059,35.2194,39.92,28.94,64.54,320,13,0,30.23,NA,10,NA,"SCT","BKN","OVC",NA,2500,2900,4200,NA,"BLDU",NA,NA,NA,NA,NA,NA,31.71,"KAMA 300928Z AUTO 32013KT 10SM BLDU SCT025 BKN029 OVC042 04/M02 A3023 RMK AO2 T00441017"
"124209","AMA","2014-04-30 09:53:00",-101.7059,35.2194,39.02,28.94,66.85,330,16,0,30.23,1022.3,10,22,"BKN",NA,NA,NA,2500,NA,NA,NA,"BLDU",NA,NA,NA,NA,NA,NA,29.57,"KAMA 300953Z AUTO 33016G22KT 10SM BLDU BKN025 04/M02 A3023 RMK AO2 SLP223 T00391017"
"124210","AMA","2014-04-30 10:01:00",-101.7059,35.2194,37.94,28.94,69.73,330,13,0,30.23,NA,10,NA,"SCT",NA,NA,NA,2500,NA,NA,NA,"BLDU",NA,NA,NA,NA,NA,NA,29.18,"KAMA 301001Z AUTO 33013KT 10SM BLDU SCT025 03/M02 A3023 RMK AO2 T00331017"
"124222","AMA","2014-04-30 20:56:00",-101.7059,35.2194,60.08,17.06,18.5,320,22,0,30.17,NA,9,31,"BKN",NA,NA,NA,3500,NA,NA,NA,"BLDU",NA,NA,NA,27,320,"2014-04-30 20:56",60.08,"KAMA 302056Z 32022G31KT 9SM BLDU BKN035 16/M08 A3017 RMK AO2 PK WND 32027/2056 T01561083"
"124223","AMA","2014-04-30 21:53:00",-101.7059,35.2194,60.98,15.98,17.1,10,22,0,30.15,1019.4,10,29,"OVC",NA,NA,NA,3700,NA,NA,NA,"BLDU",NA,NA,NA,34,350,"2014-04-30 21:33",60.98,"KAMA 302153Z 01022G29KT 10SM BLDU OVC037 16/M09 A3015 RMK AO2 PK WND 35034/2133 SLP194 T01611089"
"124224","AMA","2014-04-30 21:59:00",-101.7059,35.2194,60.98,15.98,17.1,340,19,0,30.15,NA,10,31,"FEW",NA,NA,NA,5000,NA,NA,NA,"BLDU",NA,NA,NA,31,350,"2014-04-30 21:56",60.98,"KAMA 302159Z 34019G31KT 10SM BLDU FEW050 16/M09 A3015 RMK AO2 PK WND 35031/2156 T01611089"
"124225","AMA","2014-04-30 22:53:00",-101.7059,35.2194,60.98,17.06,17.92,330,22,0,30.14,1019.2,9,29,"FEW",NA,NA,NA,5000,NA,NA,NA,"BLDU",NA,NA,NA,31,340,"2014-04-30 22:37",60.98,"KAMA 302253Z 33022G29KT 9SM BLDU FEW050 16/M08 A3014 RMK AO2 PK WND 34031/2237 SLP192 T01611083"
"124226","AMA","2014-04-30 23:53:00",-101.7059,35.2194,60.08,15.98,17.65,340,19,0,30.14,1019.2,9,26,"FEW",NA,NA,NA,10000,NA,NA,NA,"BLDU",NA,NA,NA,30,340,"2014-04-30 23:21",60.08,"KAMA 302353Z 34019G26KT 9SM BLDU FEW100 16/M09 A3014 RMK AO2 PK WND 34030/2321 SLP192 T01561089 10167 20122 56012"
"124227","AMA","2014-05-01 00:53:00",-101.7059,35.2194,57.92,15.08,18.34,350,18,0,30.15,1019.3,8,NA,"OVC",NA,NA,NA,3300,NA,NA,NA,"BLDU",NA,NA,NA,29,340,"2014-05-01 00:09",57.92,"KAMA 010053Z 35018KT 8SM BLDU OVC033 14/M09 A3015 RMK AO2 PK WND 34029/0009 SLP193 T01441094"
"124228","AMA","2014-05-01 01:53:00",-101.7059,35.2194,53.96,15.98,22.02,340,13,0,30.18,1020.9,10,NA,"FEW",NA,NA,NA,4300,NA,NA,NA,"BLDU",NA,NA,NA,27,350,"2014-05-01 01:05",53.96,"KAMA 010153Z 34013KT 10SM BLDU FEW043 12/M09 A3018 RMK AO2 PK WND 35027/0105 SLP209 T01221089"
"124229","AMA","2014-05-01 02:53:00",-101.7059,35.2194,51.08,15.98,24.48,350,8,0,30.21,1021.5,10,NA,"CLR",NA,NA,NA,NA,NA,NA,NA,"BLDU",NA,NA,NA,NA,NA,NA,51.08,"KAMA 010253Z 35008KT 10SM BLDU CLR 11/M09 A3021 RMK AO2 SLP215 T01061089 53021"
"124230","AMA","2014-05-01 03:53:00",-101.7059,35.2194,48.02,15.98,27.43,350,9,0,30.24,1022.7,10,NA,"CLR",NA,NA,NA,NA,NA,NA,NA,"BLDU",NA,NA,NA,NA,NA,NA,43.43,"KAMA 010353Z 35009KT 10SM BLDU CLR 09/M09 A3024 RMK AO2 SLP227 T00891089"
"124492","AMA","2014-05-11 20:53:00",-101.7059,35.2194,93.92,12.92,5.02,200,31,0,29.56,994.7,6,39,"CLR",NA,NA,NA,NA,NA,NA,NA,"BLDU",NA,NA,NA,NA,NA,NA,87.37,"KAMA 112053Z 20031G39KT 6SM BLDU CLR 34/M11 A2956 RMK AO2 PK WND 21043/2029 SLP947 T03441106 56020"
"124493","AMA","2014-05-11 21:53:00",-101.7059,35.2194,93.02,10.94,4.73,200,33,0,29.54,994,6,42,"CLR",NA,NA,NA,NA,NA,NA,NA,"BLDU",NA,NA,NA,NA,NA,NA,86.65,"KAMA 112153Z 20033G42KT 6SM BLDU CLR 34/M12 A2954 RMK AO2 PK WND 22043/2057 SLP940 T03391117"
"124494","AMA","2014-05-11 22:53:00",-101.7059,35.2194,93.02,10.04,4.54,210,30,0,29.55,994.2,9,42,"OVC",NA,NA,NA,3400,NA,NA,NA,"BLDU",NA,NA,NA,NA,NA,NA,86.62,"KAMA 112253Z 21030G42KT 9SM BLDU OVC034 34/M12 A2955 RMK AO2 PK WND 21045/2208 SLP942 T03391122"
"124495","AMA","2014-05-11 23:53:00",-101.7059,35.2194,91.04,10.04,4.83,200,26,0,29.55,994.7,6,38,"CLR",NA,NA,NA,NA,NA,NA,NA,"BLDU",NA,NA,NA,NA,NA,NA,85.2,"KAMA 112353Z 20026G38KT 6SM BLDU CLR 33/M12 A2955 RMK AO2 PK WND 21044/2305 SLP947 T03281122 10350 20317 55004"
"124496","AMA","2014-05-12 00:53:00",-101.7059,35.2194,87.98,10.94,5.54,210,23,0,29.56,995,6,33,"CLR",NA,NA,NA,NA,NA,NA,NA,"BLDU",NA,NA,NA,40,200,"2014-05-12 00:04",83.02,"KAMA 120053Z 21023G33KT 6SM BLDU CLR 31/M12 A2956 RMK AO2 PK WND 20040/0004 SLP950 T03111117"
"129872","AMA","2014-11-11 00:46:00",-101.7059,35.2194,59,33.08,37.46,10,28,0,29.65,NA,5,39,"BKN",NA,NA,NA,1500,NA,NA,NA,"BLDU",NA,NA,NA,39,360,"2014-11-11 00:36",59,"KAMA 110046Z 01028G39KT 5SM BLDU BKN015 15/01 A2965 RMK AO2 PK WND 36039/0036 WSHFT 0031 PRESRR T01500006"
"129873","AMA","2014-11-11 00:53:00",-101.7059,35.2194,55.04,33.08,43.21,10,28,0,29.67,1001.9,6,37,"BKN",NA,NA,NA,1900,NA,NA,NA,"BLDU",NA,NA,NA,39,360,"2014-11-11 00:36",55.04,"KAMA 110053Z 01028G37KT 6SM BLDU BKN019 13/01 A2967 RMK AO2 PK WND 36039/0036 WSHFT 0031 SLP019 T01280006"
"129874","AMA","2014-11-11 01:44:00",-101.7059,35.2194,44.06,28.04,53.03,360,25,0,29.78,NA,10,37,"OVC",NA,NA,NA,3100,NA,NA,NA,"BLDU",NA,NA,NA,45,10,"2014-11-11 01:10",34.14,"KAMA 110144Z 36025G37KT 10SM BLDU OVC031 07/M02 A2978 RMK AO2 PK WND 01045/0110 PRESRR T00671022"
"142104","AMA","2015-12-13 02:12:00",-101.7059,35.2194,33.98,33.08,96.46,330,20,0.01,29.7,NA,2,31,"OVC",NA,NA,NA,300,NA,NA,NA,"-TSSN BR",NA,NA,NA,31,320,"2015-12-13 02:04",21.77,"KAMA 130212Z 33020G31KT 2SM -TSSN BR OVC003 01/01 A2970 RMK AO2 PK WND 32031/0204 LTG DSNT E-S TSB06 P0001 T00110006 $"
"144478","AMA","2016-03-02 23:43:00",-101.7059,35.2194,71.96,24.98,17.14,350,22,0,29.77,NA,6,31,"FEW",NA,NA,NA,2800,NA,NA,NA,"BLDU",NA,NA,NA,40,290,"2016-03-02 22:54",69.66,"KAMA 022343Z 35022G31KT 6SM BLDU FEW028 22/M04 A2977 RMK AO2 PK WND 29040/2254 WSHFT 2323 T02221039"
"144479","AMA","2016-03-02 23:53:00",-101.7059,35.2194,71.06,26.06,18.48,350,19,0,29.79,1005.9,6,27,"FEW",NA,NA,NA,2800,NA,NA,NA,"BLDU",NA,NA,NA,40,290,"2016-03-02 22:54",68.73,"KAMA 022353Z 35019G27KT 6SM BLDU FEW028 22/M03 A2979 RMK AO2 PK WND 29040/2254 WSHFT 2323 SLP059 T02171033 10278 20200 53006"
"144480","AMA","2016-03-03 00:53:00",-101.7059,35.2194,62.06,26.96,26.19,350,13,0,29.84,1008.4,10,NA,"FEW",NA,NA,NA,2500,NA,NA,NA,"BLDU",NA,NA,NA,32,360,"2016-03-03 00:05",62.06,"KAMA 030053Z 35013KT 10SM BLDU FEW025 17/M03 A2984 RMK AO2 PK WND 36032/0005 SLP084 T01671028"
"145085","AMA","2016-03-23 14:53:00",-101.7059,35.2194,57.02,10.94,15.79,260,30,0,29.6,998.7,3,44,"FEW",NA,NA,NA,1000,NA,NA,NA,"BLDU",NA,NA,NA,44,250,"2016-03-23 14:51",57.02,"KAMA 231453Z 26030G44KT 3SM BLDU FEW010 14/M12 A2960 RMK AO2 PK WND 25044/1451 SLP987 T01391117 50004"
"145086","AMA","2016-03-23 15:05:00",-101.7059,35.2194,57.92,8.96,13.99,260,30,0,29.6,NA,2.5,44,"BKN",NA,NA,NA,1200,NA,NA,NA,"BLDU",NA,NA,NA,44,260,"2016-03-23 14:57",57.92,"KAMA 231505Z 26030G44KT 2 1/2SM BLDU BKN012 14/M13 A2960 RMK AO2 PK WND 26044/1457 TWR VIS 4 VIS 1 3/4V5 T01441128"
"145087","AMA","2016-03-23 15:31:00",-101.7059,35.2194,57.92,8.06,13.43,260,30,0,29.6,NA,2,43,"CLR",NA,NA,NA,NA,NA,NA,NA,"BLDU",NA,NA,NA,45,270,"2016-03-23 15:21",57.92,"KAMA 231531Z 26030G43KT 2SM BLDU CLR 14/M13 A2960 RMK AO2 PK WND 27045/1521 TWR VIS 3 VIS 1V4 T01441133"
"145088","AMA","2016-03-23 15:40:00",-101.7059,35.2194,57.92,8.96,13.99,250,32,0,29.6,NA,4,42,"CLR",NA,NA,NA,NA,NA,NA,NA,"BLDU",NA,NA,NA,45,270,"2016-03-23 15:21",57.92,"KAMA 231540Z 25032G42KT 4SM BLDU CLR 14/M13 A2960 RMK AO2 PK WND 27045/1521 T01441128"
"145089","AMA","2016-03-23 15:53:00",-101.7059,35.2194,59,8.06,12.92,260,29,0,29.61,998.9,6,43,"CLR",NA,NA,NA,NA,NA,NA,NA,"BLDU",NA,NA,NA,45,270,"2016-03-23 15:21",59,"KAMA 231553Z 26029G43KT 6SM BLDU CLR 15/M13 A2961 RMK AO2 PK WND 27045/1521 SLP989 T01501133"
"145090","AMA","2016-03-23 16:53:00",-101.7059,35.2194,60.98,8.96,12.54,240,33,0,29.61,998.9,9,43,"CLR",NA,NA,NA,NA,NA,NA,NA,"BLDU",NA,NA,NA,45,250,"2016-03-23 15:59",60.98,"KAMA 231653Z 24033G43KT 9SM BLDU CLR 16/M13 A2961 RMK AO2 PK WND 25045/1559 SLP989 T01611128"
"145091","AMA","2016-03-23 17:53:00",-101.7059,35.2194,62.6,10.4,12.63,250,28,0,29.61,NA,9,48,"CLR",NA,NA,NA,NA,NA,NA,NA,"BLDU",NA,NA,NA,NA,NA,NA,62.6,"KAMA 231753Z 25028G48KT 9SM BLDU CLR 17/M12 A2961 RMK PKWND 25044"
"145439","AMA","2016-04-06 03:12:00",-101.7059,35.2194,64.94,35.96,34.06,350,25,0,29.93,NA,3,41,"SCT",NA,NA,NA,3200,NA,NA,NA,"BLDU",NA,NA,NA,41,330,"2016-04-06 03:04",64.94,"KAMA 060312Z 35025G41KT 3SM BLDU SCT032 18/02 A2993 RMK AO2 PK WND 33041/0304 WSHFT 0258 T01830022"
"145440","AMA","2016-04-06 03:26:00",-101.7059,35.2194,60.08,37.94,43.71,360,40,0,29.96,NA,2.5,48,"BKN",NA,NA,NA,3000,NA,NA,NA,"BLDU",NA,NA,NA,48,360,"2016-04-06 03:25",60.08,"KAMA 060326Z 36040G48KT 2 1/2SM BLDU BKN030 16/03 A2996 RMK AO2 PK WND 36048/0325 WSHFT 0258 T01560033"
"145441","AMA","2016-04-06 03:41:00",-101.7059,35.2194,57.02,32,38.51,350,28,0,29.99,NA,2,47,"OVC",NA,NA,NA,2600,NA,NA,NA,"BLDU",NA,NA,NA,48,360,"2016-04-06 03:25",57.02,"KAMA 060341Z 35028G47KT 2SM BLDU OVC026 14/00 A2999 RMK AO2 PK WND 36048/0325 WSHFT 0258 T01390000"
"145442","AMA","2016-04-06 03:51:00",-101.7059,35.2194,55.4,30.2,37.97,360,29,0,30.01,NA,3,43,"OVC",NA,NA,NA,3000,NA,NA,NA,"BLDU",NA,NA,NA,48,360,"2016-04-06 03:25",55.4,"KAMA 060351Z 36029G43KT 3SM BLDU OVC030 13/M01 A3001 RMK AO2 PK WND 36048/0325 WSHFT 0258"
"145443","AMA","2016-04-06 03:53:00",-101.7059,35.2194,55.94,30.92,38.34,360,26,0,30.01,1012.3,3,43,"OVC",NA,NA,NA,3000,NA,NA,NA,"BLDU",NA,NA,NA,48,360,"2016-04-06 03:25",55.94,"KAMA 060353Z 36026G43KT 3SM BLDU OVC030 13/M01 A3001 RMK AO2 PK WND 36048/0325 WSHFT 0258 SLP123 T01331006"
"145444","AMA","2016-04-06 04:27:00",-101.7059,35.2194,53.96,28.04,36.63,360,27,0,30.04,NA,6,38,"OVC",NA,NA,NA,2600,NA,NA,NA,"BLDU",NA,NA,NA,39,360,"2016-04-06 04:03",53.96,"KAMA 060427Z 36027G38KT 6SM BLDU OVC026 12/M02 A3004 RMK AO2 PK WND 36039/0403 T01221022"
"145445","AMA","2016-04-06 04:53:00",-101.7059,35.2194,53.96,24.98,32.28,360,31,0,30.05,1013.6,8,38,"OVC",NA,NA,NA,2300,NA,NA,NA,"BLDU",NA,NA,NA,39,350,"2016-04-06 04:34",53.96,"KAMA 060453Z 36031G38KT 8SM BLDU OVC023 12/M04 A3005 RMK AO2 PK WND 35039/0434 SLP136 T01221039"
"145446","AMA","2016-04-06 05:10:00",-101.7059,35.2194,53.06,24.08,32.13,360,22,0,30.06,NA,10,30,"SCT","SCT",NA,NA,2400,7000,NA,NA,"BLDU",NA,NA,NA,36,360,"2016-04-06 04:56",53.06,"KAMA 060510Z 36022G30KT 10SM BLDU SCT024 SCT070 12/M04 A3006 RMK AO2 PK WND 36036/0456 T01171044"
"145447","AMA","2016-04-06 05:53:00",-101.7059,35.2194,51.98,24.98,34.72,350,16,0,30.11,1015.5,10,29,"CLR",NA,NA,NA,NA,NA,NA,NA,"BLDU",NA,NA,NA,36,360,"2016-04-06 04:56",51.98,"KAMA 060553Z 35016G29KT 10SM BLDU CLR 11/M04 A3011 RMK AO2 PK WND 36036/0456 SLP155 T01111039 10272 20111 402940072 51080"
"145448","AMA","2016-04-06 06:53:00",-101.7059,35.2194,50,24.98,37.36,340,11,0,30.11,1015.5,10,NA,"CLR",NA,NA,NA,NA,NA,NA,NA,"BLDU",NA,NA,NA,NA,NA,NA,45.21,"KAMA 060653Z 34011KT 10SM BLDU CLR 10/M04 A3011 RMK AO2 SLP155 T01001039"
"145449","AMA","2016-04-06 07:53:00",-101.7059,35.2194,48.92,26.96,42.22,310,11,0,30.11,1015.8,10,NA,"CLR",NA,NA,NA,NA,NA,NA,NA,"BLDU",NA,NA,NA,NA,NA,NA,43.85,"KAMA 060753Z 31011KT 10SM BLDU CLR 09/M03 A3011 RMK AO2 SLP158 T00941028"
"145450","AMA","2016-04-06 08:53:00",-101.7059,35.2194,46.94,26.06,43.81,290,11,0,30.12,1016.3,10,NA,"CLR",NA,NA,NA,NA,NA,NA,NA,"BLDU",NA,NA,NA,NA,NA,NA,41.35,"KAMA 060853Z 29011KT 10SM BLDU CLR 08/M03 A3012 RMK AO2 SLP163 T00831033 53005"
"145451","AMA","2016-04-06 09:53:00",-101.7059,35.2194,46.94,19.94,33.88,320,17,0,30.15,1016.9,10,NA,"CLR",NA,NA,NA,NA,NA,NA,NA,"BLDU",NA,NA,NA,NA,NA,NA,39.65,"KAMA 060953Z 32017KT 10SM BLDU CLR 08/M07 A3015 RMK AO2 SLP169 T00831067"
"218374","AMA","2016-12-16 18:15:00",-101.7059,35.2194,NA,NA,NA,240,27,NA,29.58,NA,7,NA,"FEW",NA,NA,NA,1200,NA,NA,NA,"BLDU",NA,NA,NA,NA,NA,NA,NA,"KAMA 161815Z AUTO 24027KT 7SM BLDU FEW012 A2958 RMK MADISHF"
"218375","AMA","2016-12-16 18:16:00",-101.7059,35.2194,73,26.1,17.33,240,27,0,29.58,NA,7,38,"FEW",NA,NA,NA,1200,NA,NA,NA,"BLDU",NA,NA,NA,NA,NA,NA,70.81,"KAMA 161816Z 24027G38KT 7SM BLDU FEW012 23/M03 A2958 RMK AO2 PK WND 25043/1803 T02281033"
"218376","AMA","2016-12-16 18:20:00",-101.7059,35.2194,NA,NA,NA,NA,NA,NA,29.57,NA,6,NA,"FEW",NA,NA,NA,1200,NA,NA,NA,"HZ BLDU",NA,NA,NA,NA,NA,NA,NA,"KAMA 161820Z AUTO /////KT 6SM HZ BLDU FEW012 A2957 RMK MADISHF"
"218377","AMA","2016-12-16 18:25:00",-101.7059,35.2194,NA,NA,NA,NA,NA,NA,29.56,NA,6,NA,"FEW",NA,NA,NA,1300,NA,NA,NA,"HZ BLDU",NA,NA,NA,NA,NA,NA,NA,"KAMA 161825Z AUTO /////KT 6SM HZ BLDU FEW013 A2956 RMK MADISHF"
"218378","AMA","2016-12-16 18:30:00",-101.7059,35.2194,NA,NA,NA,250,35,NA,29.56,NA,8,NA,"FEW",NA,NA,NA,1300,NA,NA,NA,"BLDU",NA,NA,NA,NA,NA,NA,NA,"KAMA 161830Z AUTO 25035KT 8SM BLDU FEW013 A2956 RMK MADISHF"
"218379","AMA","2016-12-16 18:35:00",-101.7059,35.2194,NA,NA,NA,NA,NA,NA,29.56,NA,9,NA,"FEW",NA,NA,NA,1300,NA,NA,NA,"BLDU",NA,NA,NA,NA,NA,NA,NA,"KAMA 161835Z AUTO /////KT 9SM BLDU FEW013 A2956 RMK MADISHF"
"218380","AMA","2016-12-16 18:40:00",-101.7059,35.2194,NA,NA,NA,NA,NA,NA,29.56,NA,9,NA,"FEW",NA,NA,NA,1300,NA,NA,NA,"BLDU",NA,NA,NA,NA,NA,NA,NA,"KAMA 161840Z AUTO /////KT 9SM BLDU FEW013 A2956 RMK MADISHF"
"218381","AMA","2016-12-16 18:45:00",-101.7059,35.2194,NA,NA,NA,250,28,NA,29.56,NA,10,NA,"FEW",NA,NA,NA,1400,NA,NA,NA,"BLDU",NA,NA,NA,NA,NA,NA,NA,"KAMA 161845Z AUTO 25028KT 10SM BLDU FEW014 A2956 RMK MADISHF"
"218382","AMA","2016-12-16 18:50:00",-101.7059,35.2194,NA,NA,NA,NA,NA,NA,29.55,NA,10,NA,"CLR",NA,NA,NA,NA,NA,NA,NA,"BLDU",NA,NA,NA,NA,NA,NA,NA,"KAMA 161850Z AUTO /////KT 10SM BLDU CLR A2955 RMK MADISHF"
"218383","AMA","2016-12-16 18:53:00",-101.7059,35.2194,70,25,18.33,250,32,0,29.55,997.1,10,44,"CLR",NA,NA,NA,NA,NA,NA,NA,"BLDU",NA,NA,NA,NA,NA,NA,70,"KAMA 161853Z 25032G44KT 10SM BLDU CLR 21/M04 A2955 RMK AO2 PK WND 26045/1820 SLP971 T02111039"
"218384","AMA","2016-12-16 18:55:00",-101.7059,35.2194,NA,NA,NA,NA,NA,NA,29.55,NA,10,NA,"CLR",NA,NA,NA,NA,NA,NA,NA,"BLDU",NA,NA,NA,NA,NA,NA,NA,"KAMA 161855Z AUTO /////KT 10SM BLDU CLR A2955 RMK MADISHF"
"218385","AMA","2016-12-16 19:00:00",-101.7059,35.2194,NA,NA,NA,NA,NA,NA,29.55,NA,10,50,"CLR",NA,NA,NA,NA,NA,NA,NA,"BLDU",NA,NA,NA,NA,NA,NA,NA,"KAMA 161900Z AUTO /////G50KT 10SM BLDU CLR A2955 RMK MADISHF"
"218386","AMA","2016-12-16 19:05:00",-101.7059,35.2194,NA,NA,NA,NA,NA,NA,29.54,NA,10,NA,"CLR",NA,NA,NA,NA,NA,NA,NA,"BLDU",NA,NA,NA,NA,NA,NA,NA,"KAMA 161905Z AUTO /////KT 10SM BLDU CLR A2954 RMK MADISHF"
"218387","AMA","2016-12-16 19:10:00",-101.7059,35.2194,NA,NA,NA,250,30,NA,29.54,NA,10,36,"CLR",NA,NA,NA,NA,NA,NA,NA,"BLDU",NA,NA,NA,NA,NA,NA,NA,"KAMA 161910Z AUTO 25030G36KT 10SM BLDU CLR A2954 RMK MADISHF"
"218388","AMA","2016-12-16 19:15:00",-101.7059,35.2194,NA,NA,NA,NA,NA,NA,29.54,NA,10,NA,"CLR",NA,NA,NA,NA,NA,NA,NA,"BLDU",NA,NA,NA,NA,NA,NA,NA,"KAMA 161915Z AUTO /////KT 10SM BLDU CLR A2954 RMK MADISHF"
"218389","AMA","2016-12-16 19:20:00",-101.7059,35.2194,NA,NA,NA,NA,NA,NA,29.54,NA,10,44,"CLR",NA,NA,NA,NA,NA,NA,NA,"BLDU",NA,NA,NA,NA,NA,NA,NA,"KAMA 161920Z AUTO /////G44KT 10SM BLDU CLR A2954 RMK MADISHF"
"218390","AMA","2016-12-16 19:25:00",-101.7059,35.2194,NA,NA,NA,NA,NA,NA,29.54,NA,10,44,"CLR",NA,NA,NA,NA,NA,NA,NA,"BLDU",NA,NA,NA,NA,NA,NA,NA,"KAMA 161925Z AUTO /////G44KT 10SM BLDU CLR A2954 RMK MADISHF"
"218391","AMA","2016-12-16 19:30:00",-101.7059,35.2194,NA,NA,NA,NA,NA,NA,29.53,NA,10,45,"CLR",NA,NA,NA,NA,NA,NA,NA,"BLDU",NA,NA,NA,NA,NA,NA,NA,"KAMA 161930Z AUTO /////G45KT 10SM BLDU CLR A2953 RMK MADISHF"
"218392","AMA","2016-12-16 19:35:00",-101.7059,35.2194,NA,NA,NA,NA,NA,NA,29.54,NA,10,39,"CLR",NA,NA,NA,NA,NA,NA,NA,"BLDU",NA,NA,NA,NA,NA,NA,NA,"KAMA 161935Z AUTO /////G39KT 10SM BLDU CLR A2954 RMK MADISHF"
"218393","AMA","2016-12-16 19:40:00",-101.7059,35.2194,NA,NA,NA,240,28,NA,29.54,NA,10,34,"CLR",NA,NA,NA,NA,NA,NA,NA,"BLDU",NA,NA,NA,NA,NA,NA,NA,"KAMA 161940Z AUTO 24028G34KT 10SM BLDU CLR A2954 RMK MADISHF"
"218394","AMA","2016-12-16 19:45:00",-101.7059,35.2194,NA,NA,NA,250,28,NA,29.54,NA,10,NA,"CLR",NA,NA,NA,NA,NA,NA,NA,"BLDU",NA,NA,NA,NA,NA,NA,NA,"KAMA 161945Z AUTO 25028KT 10SM BLDU CLR A2954 RMK MADISHF"
"218395","AMA","2016-12-16 19:50:00",-101.7059,35.2194,NA,NA,NA,240,27,NA,29.54,NA,10,32,"CLR",NA,NA,NA,NA,NA,NA,NA,"BLDU",NA,NA,NA,NA,NA,NA,NA,"KAMA 161950Z AUTO 24027G32KT 10SM BLDU CLR A2954 RMK MADISHF"
"218396","AMA","2016-12-16 19:53:00",-101.7059,35.2194,68,28,22.23,240,28,0,29.53,996.8,10,38,"CLR",NA,NA,NA,NA,NA,NA,NA,"BLDU",NA,NA,NA,NA,NA,NA,68,"KAMA 161953Z 24028G38KT 10SM BLDU CLR 20/M02 A2953 RMK AO2 PK WND 25051/1900 SLP968 T02001022"
"218397","AMA","2016-12-16 19:55:00",-101.7059,35.2194,NA,NA,NA,NA,NA,NA,29.53,NA,10,NA,"CLR",NA,NA,NA,NA,NA,NA,NA,"BLDU",NA,NA,NA,NA,NA,NA,NA,"KAMA 161955Z AUTO /////KT 10SM BLDU CLR A2953 RMK MADISHF"
"218398","AMA","2016-12-16 20:00:00",-101.7059,35.2194,NA,NA,NA,230,27,NA,29.53,NA,10,NA,"CLR",NA,NA,NA,NA,NA,NA,NA,"BLDU",NA,NA,NA,NA,NA,NA,NA,"KAMA 162000Z AUTO 23027KT 10SM BLDU CLR A2953 RMK MADISHF"
"218399","AMA","2016-12-16 20:05:00",-101.7059,35.2194,NA,NA,NA,NA,NA,NA,29.53,NA,10,NA,"CLR",NA,NA,NA,NA,NA,NA,NA,"BLDU",NA,NA,NA,NA,NA,NA,NA,"KAMA 162005Z AUTO /////KT 10SM BLDU CLR A2953 RMK MADISHF"
"218400","AMA","2016-12-16 20:10:00",-101.7059,35.2194,NA,NA,NA,240,26,NA,29.53,NA,10,NA,"CLR",NA,NA,NA,NA,NA,NA,NA,"BLDU",NA,NA,NA,NA,NA,NA,NA,"KAMA 162010Z AUTO 24026KT 10SM BLDU CLR A2953 RMK MADISHF"
"218401","AMA","2016-12-16 20:15:00",-101.7059,35.2194,NA,NA,NA,240,26,NA,29.52,NA,10,NA,"CLR",NA,NA,NA,NA,NA,NA,NA,"BLDU",NA,NA,NA,NA,NA,NA,NA,"KAMA 162015Z AUTO 24026KT 10SM BLDU CLR A2952 RMK MADISHF"
"218402","AMA","2016-12-16 20:20:00",-101.7059,35.2194,NA,NA,NA,240,22,NA,29.52,NA,10,NA,"CLR",NA,NA,NA,NA,NA,NA,NA,"BLDU",NA,NA,NA,NA,NA,NA,NA,"KAMA 162020Z AUTO 24022KT 10SM BLDU CLR A2952 RMK MADISHF"
"218403","AMA","2016-12-16 20:25:00",-101.7059,35.2194,NA,NA,NA,230,24,NA,29.52,NA,10,30,"CLR",NA,NA,NA,NA,NA,NA,NA,"BLDU",NA,NA,NA,NA,NA,NA,NA,"KAMA 162025Z AUTO 23024G30KT 10SM BLDU CLR A2952 RMK MADISHF"
"218404","AMA","2016-12-16 20:30:00",-101.7059,35.2194,NA,NA,NA,230,24,NA,29.53,NA,10,32,"CLR",NA,NA,NA,NA,NA,NA,NA,"BLDU",NA,NA,NA,NA,NA,NA,NA,"KAMA 162030Z AUTO 23024G32KT 10SM BLDU CLR A2953 RMK MADISHF"
"218405","AMA","2016-12-16 20:35:00",-101.7059,35.2194,NA,NA,NA,230,22,NA,29.53,NA,10,27,"CLR",NA,NA,NA,NA,NA,NA,NA,"BLDU",NA,NA,NA,NA,NA,NA,NA,"KAMA 162035Z AUTO 23022G27KT 10SM BLDU CLR A2953 RMK MADISHF"
"218406","AMA","2016-12-16 20:40:00",-101.7059,35.2194,NA,NA,NA,230,22,NA,29.53,NA,10,NA,"CLR",NA,NA,NA,NA,NA,NA,NA,"BLDU",NA,NA,NA,NA,NA,NA,NA,"KAMA 162040Z AUTO 23022KT 10SM BLDU CLR A2953 RMK MADISHF"
"218407","AMA","2016-12-16 20:45:00",-101.7059,35.2194,NA,NA,NA,230,27,NA,29.53,NA,10,NA,"CLR",NA,NA,NA,NA,NA,NA,NA,"BLDU",NA,NA,NA,NA,NA,NA,NA,"KAMA 162045Z AUTO 23027KT 10SM BLDU CLR A2953 RMK MADISHF"
"218408","AMA","2016-12-16 20:50:00",-101.7059,35.2194,NA,NA,NA,230,25,NA,29.53,NA,10,NA,"CLR",NA,NA,NA,NA,NA,NA,NA,"BLDU",NA,NA,NA,NA,NA,NA,NA,"KAMA 162050Z AUTO 23025KT 10SM BLDU CLR A2953 RMK MADISHF"
"218409","AMA","2016-12-16 20:53:00",-101.7059,35.2194,69.1,28.9,22.21,240,24,0,29.53,996.5,10,33,"CLR",NA,NA,NA,NA,NA,NA,NA,"BLDU",NA,NA,NA,NA,NA,NA,69.1,"KAMA 162053Z 24024G33KT 10SM BLDU CLR 21/M02 A2953 RMK AO2 PK WND 24036/2008 SLP965 T02061017 56023"
"218410","AMA","2016-12-16 20:55:00",-101.7059,35.2194,NA,NA,NA,240,24,NA,29.53,NA,10,NA,"CLR",NA,NA,NA,NA,NA,NA,NA,"BLDU",NA,NA,NA,NA,NA,NA,NA,"KAMA 162055Z AUTO 24024KT 10SM BLDU CLR A2953 RMK MADISHF"
"218411","AMA","2016-12-16 21:00:00",-101.7059,35.2194,NA,NA,NA,240,22,NA,29.53,NA,10,29,"CLR",NA,NA,NA,NA,NA,NA,NA,"BLDU",NA,NA,NA,NA,NA,NA,NA,"KAMA 162100Z AUTO 24022G29KT 10SM BLDU CLR A2953 RMK MADISHF"
"218412","AMA","2016-12-16 21:05:00",-101.7059,35.2194,NA,NA,NA,230,24,NA,29.52,NA,10,NA,"CLR",NA,NA,NA,NA,NA,NA,NA,"BLDU",NA,NA,NA,NA,NA,NA,NA,"KAMA 162105Z AUTO 23024KT 10SM BLDU CLR A2952 RMK MADISHF"
"218413","AMA","2016-12-16 21:10:00",-101.7059,35.2194,NA,NA,NA,230,23,NA,29.52,NA,10,NA,"CLR",NA,NA,NA,NA,NA,NA,NA,"BLDU",NA,NA,NA,NA,NA,NA,NA,"KAMA 162110Z AUTO 23023KT 10SM BLDU CLR A2952 RMK MADISHF"
"218414","AMA","2016-12-16 21:15:00",-101.7059,35.2194,NA,NA,NA,240,29,NA,29.53,NA,10,NA,"CLR",NA,NA,NA,NA,NA,NA,NA,"BLDU",NA,NA,NA,NA,NA,NA,NA,"KAMA 162115Z AUTO 24029KT 10SM BLDU CLR A2953 RMK MADISHF"
"218415","AMA","2016-12-16 21:20:00",-101.7059,35.2194,NA,NA,NA,240,23,NA,29.53,NA,10,NA,"CLR",NA,NA,NA,NA,NA,NA,NA,"BLDU",NA,NA,NA,NA,NA,NA,NA,"KAMA 162120Z AUTO 24023KT 10SM BLDU CLR A2953 RMK MADISHF"
"218416","AMA","2016-12-16 21:25:00",-101.7059,35.2194,NA,NA,NA,240,24,NA,29.52,NA,10,29,"CLR",NA,NA,NA,NA,NA,NA,NA,"BLDU",NA,NA,NA,NA,NA,NA,NA,"KAMA 162125Z AUTO 24024G29KT 10SM BLDU CLR A2952 RMK MADISHF"
"218417","AMA","2016-12-16 21:30:00",-101.7059,35.2194,NA,NA,NA,240,26,NA,29.52,NA,10,34,"CLR",NA,NA,NA,NA,NA,NA,NA,"BLDU",NA,NA,NA,NA,NA,NA,NA,"KAMA 162130Z AUTO 24026G34KT 10SM BLDU CLR A2952 RMK MADISHF"
"218418","AMA","2016-12-16 21:35:00",-101.7059,35.2194,NA,NA,NA,240,25,NA,29.52,NA,10,31,"CLR",NA,NA,NA,NA,NA,NA,NA,"BLDU",NA,NA,NA,NA,NA,NA,NA,"KAMA 162135Z AUTO 24025G31KT 10SM BLDU CLR A2952 RMK MADISHF"
"218419","AMA","2016-12-16 21:40:00",-101.7059,35.2194,NA,NA,NA,240,26,NA,29.52,NA,10,NA,"CLR",NA,NA,NA,NA,NA,NA,NA,"BLDU",NA,NA,NA,NA,NA,NA,NA,"KAMA 162140Z AUTO 24026KT 10SM BLDU CLR A2952 RMK MADISHF"
"218420","AMA","2016-12-16 21:45:00",-101.7059,35.2194,NA,NA,NA,250,30,NA,29.53,NA,10,NA,"CLR",NA,NA,NA,NA,NA,NA,NA,"BLDU",NA,NA,NA,NA,NA,NA,NA,"KAMA 162145Z AUTO 25030KT 10SM BLDU CLR A2953 RMK MADISHF"
"218421","AMA","2016-12-16 21:50:00",-101.7059,35.2194,NA,NA,NA,NA,NA,NA,29.52,NA,9,NA,"CLR",NA,NA,NA,NA,NA,NA,NA,"BLDU",NA,NA,NA,NA,NA,NA,NA,"KAMA 162150Z AUTO /////KT 9SM BLDU CLR A2952 RMK MADISHF"
"218422","AMA","2016-12-16 21:53:00",-101.7059,35.2194,73.9,34,23.19,250,31,0,29.53,996.3,9,45,"CLR",NA,NA,NA,NA,NA,NA,NA,"BLDU",NA,NA,NA,NA,NA,NA,72.08,"KAMA 162153Z 25031G45KT 9SM BLDU CLR 23/01 A2953 RMK AO2 PK WND 26045/2149 SLP963 T02330011"
"218423","AMA","2016-12-16 21:55:00",-101.7059,35.2194,NA,NA,NA,NA,NA,NA,29.52,NA,9,NA,"CLR",NA,NA,NA,NA,NA,NA,NA,"BLDU",NA,NA,NA,NA,NA,NA,NA,"KAMA 162155Z AUTO /////KT 9SM BLDU CLR A2952 RMK MADISHF"
"218424","AMA","2016-12-16 22:00:00",-101.7059,35.2194,NA,NA,NA,NA,NA,NA,29.53,NA,10,44,"CLR",NA,NA,NA,NA,NA,NA,NA,"BLDU",NA,NA,NA,NA,NA,NA,NA,"KAMA 162200Z AUTO /////G44KT 10SM BLDU CLR A2953 RMK MADISHF"
"218425","AMA","2016-12-16 22:05:00",-101.7059,35.2194,NA,NA,NA,NA,NA,NA,29.53,NA,10,39,"CLR",NA,NA,NA,NA,NA,NA,NA,"BLDU",NA,NA,NA,NA,NA,NA,NA,"KAMA 162205Z AUTO /////G39KT 10SM BLDU CLR A2953 RMK MADISHF"
"218426","AMA","2016-12-16 22:10:00",-101.7059,35.2194,NA,NA,NA,250,27,NA,29.53,NA,10,NA,"CLR",NA,NA,NA,NA,NA,NA,NA,"BLDU",NA,NA,NA,NA,NA,NA,NA,"KAMA 162210Z AUTO 25027KT 10SM BLDU CLR A2953 RMK MADISHF"
"218427","AMA","2016-12-16 22:15:00",-101.7059,35.2194,NA,NA,NA,250,26,NA,29.53,NA,10,NA,"CLR",NA,NA,NA,NA,NA,NA,NA,"BLDU",NA,NA,NA,NA,NA,NA,NA,"KAMA 162215Z AUTO 25026KT 10SM BLDU CLR A2953 RMK MADISHF"
"218428","AMA","2016-12-16 22:20:00",-101.7059,35.2194,NA,NA,NA,250,26,NA,29.53,NA,10,NA,"CLR",NA,NA,NA,NA,NA,NA,NA,"BLDU",NA,NA,NA,NA,NA,NA,NA,"KAMA 162220Z AUTO 25026KT 10SM BLDU CLR A2953 RMK MADISHF"
"218429","AMA","2016-12-16 22:25:00",-101.7059,35.2194,NA,NA,NA,NA,NA,NA,29.53,NA,10,34,"CLR",NA,NA,NA,NA,NA,NA,NA,"BLDU",NA,NA,NA,NA,NA,NA,NA,"KAMA 162225Z AUTO /////G34KT 10SM BLDU CLR A2953 RMK MADISHF"
"218430","AMA","2016-12-16 22:30:00",-101.7059,35.2194,NA,NA,NA,250,29,NA,29.53,NA,10,38,"CLR",NA,NA,NA,NA,NA,NA,NA,"BLDU",NA,NA,NA,NA,NA,NA,NA,"KAMA 162230Z AUTO 25029G38KT 10SM BLDU CLR A2953 RMK MADISHF"
"218431","AMA","2016-12-16 22:35:00",-101.7059,35.2194,NA,NA,NA,250,29,NA,29.53,NA,10,43,"CLR",NA,NA,NA,NA,NA,NA,NA,"BLDU",NA,NA,NA,NA,NA,NA,NA,"KAMA 162235Z AUTO 25029G43KT 10SM BLDU CLR A2953 RMK MADISHF"
"218432","AMA","2016-12-16 22:40:00",-101.7059,35.2194,NA,NA,NA,250,28,NA,29.53,NA,10,34,"CLR",NA,NA,NA,NA,NA,NA,NA,"BLDU",NA,NA,NA,NA,NA,NA,NA,"KAMA 162240Z AUTO 25028G34KT 10SM BLDU CLR A2953 RMK MADISHF"
"218433","AMA","2016-12-16 22:45:00",-101.7059,35.2194,NA,NA,NA,NA,NA,NA,29.53,NA,10,NA,"CLR",NA,NA,NA,NA,NA,NA,NA,"BLDU",NA,NA,NA,NA,NA,NA,NA,"KAMA 162245Z AUTO /////KT 10SM BLDU CLR A2953 RMK MADISHF"
"218434","AMA","2016-12-16 22:50:00",-101.7059,35.2194,NA,NA,NA,NA,NA,NA,29.53,NA,10,NA,"CLR",NA,NA,NA,NA,NA,NA,NA,"BLDU",NA,NA,NA,NA,NA,NA,NA,"KAMA 162250Z AUTO /////KT 10SM BLDU CLR A2953 RMK MADISHF"
"218435","AMA","2016-12-16 22:53:00",-101.7059,35.2194,71.1,36,27.6,250,25,0,29.53,996.5,10,43,"CLR",NA,NA,NA,NA,NA,NA,NA,"BLDU",NA,NA,NA,NA,NA,NA,69.21,"KAMA 162253Z 25025G43KT 10SM BLDU CLR 22/02 A2953 RMK AO2 PK WND 24044/2200 SLP965 T02170022"
"218436","AMA","2016-12-16 22:55:00",-101.7059,35.2194,NA,NA,NA,240,26,NA,29.53,NA,10,NA,"CLR",NA,NA,NA,NA,NA,NA,NA,"BLDU",NA,NA,NA,NA,NA,NA,NA,"KAMA 162255Z AUTO 24026KT 10SM BLDU CLR A2953 RMK MADISHF"
"218437","AMA","2016-12-16 23:00:00",-101.7059,35.2194,NA,NA,NA,240,29,NA,29.53,NA,10,NA,"CLR",NA,NA,NA,NA,NA,NA,NA,"BLDU",NA,NA,NA,NA,NA,NA,NA,"KAMA 162300Z AUTO 24029KT 10SM BLDU CLR A2953 RMK MADISHF"
"218438","AMA","2016-12-16 23:05:00",-101.7059,35.2194,NA,NA,NA,NA,NA,NA,29.53,NA,10,32,"CLR",NA,NA,NA,NA,NA,NA,NA,"BLDU",NA,NA,NA,NA,NA,NA,NA,"KAMA 162305Z AUTO /////G32KT 10SM BLDU CLR A2953 RMK MADISHF"
"218439","AMA","2016-12-16 23:10:00",-101.7059,35.2194,NA,NA,NA,240,32,NA,29.54,NA,10,40,"CLR",NA,NA,NA,NA,NA,NA,NA,"BLDU",NA,NA,NA,NA,NA,NA,NA,"KAMA 162310Z AUTO 24032G40KT 10SM BLDU CLR A2954 RMK MADISHF"
"218440","AMA","2016-12-16 23:15:00",-101.7059,35.2194,NA,NA,NA,NA,NA,NA,29.54,NA,10,44,"CLR",NA,NA,NA,NA,NA,NA,NA,"BLDU",NA,NA,NA,NA,NA,NA,NA,"KAMA 162315Z AUTO /////G44KT 10SM BLDU CLR A2954 RMK MADISHF"
"218441","AMA","2016-12-16 23:20:00",-101.7059,35.2194,NA,NA,NA,NA,NA,NA,29.53,NA,10,35,"CLR",NA,NA,NA,NA,NA,NA,NA,"BLDU",NA,NA,NA,NA,NA,NA,NA,"KAMA 162320Z AUTO /////G35KT 10SM BLDU CLR A2953 RMK MADISHF"
"218442","AMA","2016-12-16 23:25:00",-101.7059,35.2194,NA,NA,NA,NA,NA,NA,29.54,NA,10,35,"CLR",NA,NA,NA,NA,NA,NA,NA,"BLDU",NA,NA,NA,NA,NA,NA,NA,"KAMA 162325Z AUTO /////G35KT 10SM BLDU CLR A2954 RMK MADISHF"
